{"type":"FeatureCollection","name":"afton_border","features":[{"type":"Feature","properties":{"GNIS_FEATURE_ID":2393887,"FEATURE_NAME":"afton","CTU_CLASS":"CITY","COUNTY_GNIS_FEATURE_ID":659526,"COUNTY_CODE":"82","COUNTY_NAME":"Washington","POPULATION":2983,"SE_ANNO_CAD_DATA":null},"geometry":{"type":"Polygon","coordinates":[[[-92.7814768,44.9489169],[-92.7967938,44.9488441],[-92.8018868,44.9488479],[-92.8223833,44.9490778],[-92.8428261,44.9489855],[-92.8625146,44.9492033],[-92.8625148,44.948942],[-92.8625262,44.9346249],[-92.8625396,44.9201302],[-92.8623518,44.9056149],[-92.8625067,44.89113],[-92.8622549,44.8766146],[-92.8621235,44.8619379],[-92.859632,44.861942],[-92.8422205,44.8619731],[-92.8219377,44.8619532],[-92.8014174,44.8619394],[-92.7815038,44.8618714],[-92.7694506,44.8619439],[-92.7693979,44.8622439],[-92.7693397,44.8626298],[-92.7688163,44.8642752],[-92.7681172,44.8656458],[-92.7672407,44.8669995],[-92.7666673,44.8677775],[-92.7660313,44.8687475],[-92.764991,44.8705728],[-92.7643157,44.8717074],[-92.7640588,44.8722941],[-92.7639847,44.8733698],[-92.764035,44.8741768],[-92.7642099,44.8746658],[-92.764255,44.8749724],[-92.7647015,44.8757992],[-92.7652067,44.8765319],[-92.7660627,44.8774818],[-92.7668097,44.878372],[-92.7681456,44.8799118],[-92.7687594,44.8806656],[-92.7695576,44.8818687],[-92.7713339,44.8849385],[-92.7720438,44.8859169],[-92.7727349,44.8871812],[-92.7733566,44.8884516],[-92.7741071,44.8895561],[-92.774947,44.8909512],[-92.7753391,44.8923552],[-92.7754487,44.8939702],[-92.7753902,44.8957129],[-92.7751308,44.8979517],[-92.7743025,44.9003873],[-92.7731147,44.9020341],[-92.771481,44.9028051],[-92.7696636,44.9037037],[-92.7678828,44.9044701],[-92.7617474,44.9069566],[-92.7601288,44.9077326],[-92.7580232,44.9110844],[-92.7565853,44.9151787],[-92.7560842,44.9186291],[-92.7640657,44.9185292],[-92.7640684,44.9184647],[-92.7640714,44.9184106],[-92.7640742,44.9183566],[-92.7640758,44.9182846],[-92.7640729,44.9182128],[-92.7640627,44.9181413],[-92.7640469,44.9180701],[-92.764034,44.9180167],[-92.7640224,44.9179633],[-92.7640128,44.9179097],[-92.7640038,44.9178561],[-92.7639895,44.9177848],[-92.7639697,44.917714],[-92.7639521,44.9176611],[-92.7639347,44.9176083],[-92.763915,44.9175377],[-92.7639047,44.9174667],[-92.7639098,44.9173951],[-92.763923,44.9173232],[-92.7639311,44.9172513],[-92.7639243,44.9171796],[-92.7639145,44.9171078],[-92.7639173,44.9170358],[-92.7639252,44.9169637],[-92.7639239,44.916892],[-92.7639084,44.9168212],[-92.7638922,44.9167683],[-92.7638757,44.9167153],[-92.7638585,44.9166443],[-92.7638463,44.9165728],[-92.7638348,44.9165013],[-92.7638266,44.9164475],[-92.763819,44.9163937],[-92.7638094,44.9163219],[-92.7638009,44.9162502],[-92.7637935,44.9161784],[-92.7637874,44.9161065],[-92.7637867,44.9160345],[-92.7637929,44.9159623],[-92.7637985,44.9158902],[-92.7637959,44.9158187],[-92.7637795,44.915748],[-92.7637549,44.9156778],[-92.7637324,44.9156074],[-92.7637213,44.9155539],[-92.7637133,44.9155001],[-92.7636994,44.9154289],[-92.7636734,44.9153594],[-92.763649,44.9153081],[-92.7636298,44.9152559],[-92.7636096,44.9151854],[-92.7635911,44.9151146],[-92.7635735,44.9150436],[-92.7635608,44.9149904],[-92.7635482,44.9149371],[-92.7635314,44.914866],[-92.7635166,44.9147947],[-92.7635028,44.9147233],[-92.7634853,44.9146524],[-92.7634618,44.9145825],[-92.763434,44.9145131],[-92.7634023,44.9144446],[-92.7633657,44.9143772],[-92.7633203,44.9143107],[-92.7632713,44.9142449],[-92.7632261,44.914179],[-92.7631921,44.9141126],[-92.7631768,44.9140453],[-92.7631874,44.9139766],[-92.7632177,44.913907],[-92.7632465,44.9138546],[-92.7632753,44.9138023],[-92.7633078,44.9137334],[-92.7633398,44.913665],[-92.7633646,44.9136139],[-92.7633892,44.9135628],[-92.7634204,44.9134943],[-92.7634483,44.9134251],[-92.763473,44.9133553],[-92.7634957,44.9132851],[-92.7635193,44.9132148],[-92.7635384,44.9131619],[-92.7635569,44.9131091],[-92.7635774,44.9130385],[-92.7635884,44.9129678],[-92.7635787,44.9128972],[-92.7635606,44.9128441],[-92.7635439,44.9127908],[-92.7635296,44.9127185],[-92.7635178,44.9126632],[-92.7635061,44.9126074],[-92.7634942,44.9125338],[-92.7634912,44.9124628],[-92.7635038,44.9123967],[-92.7635658,44.9123465],[-92.7636367,44.9123158],[-92.7636928,44.9122773],[-92.7637412,44.912232],[-92.7637901,44.9121836],[-92.7638428,44.9121178],[-92.7638645,44.9120537],[-92.7638352,44.9119927],[-92.763783,44.9119477],[-92.7637193,44.9119035],[-92.7636454,44.9118457],[-92.7636159,44.911789],[-92.7636492,44.9117251],[-92.7637255,44.9116598],[-92.7638178,44.9116137],[-92.7639032,44.9116051],[-92.7639873,44.9116268],[-92.7640746,44.9116663],[-92.7641414,44.9117017],[-92.7642086,44.911738],[-92.7642979,44.9117806],[-92.7643645,44.9118086],[-92.7644322,44.9118356],[-92.7645259,44.9118592],[-92.764625,44.9118616],[-92.7647016,44.9118553],[-92.7647783,44.9118484],[-92.7649069,44.9118214],[-92.765003,44.9117975],[-92.7650942,44.9117672],[-92.7651805,44.9117299],[-92.765265,44.9116898],[-92.7653474,44.9116472],[-92.7654275,44.9116027],[-92.7655049,44.9115564],[-92.7655778,44.9115063],[-92.7656439,44.911451],[-92.765702,44.9113919],[-92.7657495,44.9113285],[-92.7657891,44.9112614],[-92.765829,44.9111945],[-92.7658776,44.9111321],[-92.7659399,44.9110766],[-92.7660119,44.911026],[-92.7660691,44.9109898],[-92.7661267,44.9109537],[-92.7662008,44.910904],[-92.7662552,44.9108662],[-92.76631,44.9108286],[-92.7663817,44.9107775],[-92.7664493,44.9107241],[-92.7665121,44.9106678],[-92.7665721,44.9106099],[-92.7666303,44.9105509],[-92.7666876,44.9104914],[-92.7667303,44.9104466],[-92.7667731,44.9104019],[-92.7668308,44.9103426],[-92.7668876,44.9102828],[-92.7669478,44.910225],[-92.7670144,44.9101708],[-92.7670829,44.9101178],[-92.7671526,44.9100654],[-92.7672051,44.9100264],[-92.7672576,44.9099872],[-92.7673096,44.9099477],[-92.7673606,44.9099072],[-92.7674323,44.9098565],[-92.767516,44.9098159],[-92.7675853,44.9097907],[-92.7676525,44.9097645],[-92.7677267,44.9097192],[-92.7677752,44.909657],[-92.7678048,44.9096057],[-92.7678413,44.9095579],[-92.7678994,44.909499],[-92.7679626,44.9094424],[-92.7680284,44.9093876],[-92.768095,44.9093333],[-92.7681619,44.9092793],[-92.7682292,44.9092254],[-92.7682969,44.9091718],[-92.768365,44.9091184],[-92.7684334,44.9090652],[-92.7685022,44.9090124],[-92.7685715,44.9089599],[-92.7686431,44.908909],[-92.7687169,44.9088595],[-92.7687905,44.9088099],[-92.7688616,44.9087587],[-92.7689302,44.9087057],[-92.7689973,44.9086517],[-92.7690637,44.9085973],[-92.7691301,44.9085428],[-92.7691968,44.9084886],[-92.7692635,44.9084344],[-92.7693137,44.9083938],[-92.769364,44.9083533],[-92.7694312,44.9082994],[-92.7694984,44.9082455],[-92.7695658,44.9081917],[-92.7696333,44.9081381],[-92.7697008,44.9080843],[-92.7697688,44.9080309],[-92.7698383,44.9079785],[-92.7699095,44.9079272],[-92.769983,44.9078776],[-92.7700596,44.9078305],[-92.7701385,44.9077853],[-92.7702186,44.9077412],[-92.770279,44.9077083],[-92.7703393,44.9076754],[-92.7704191,44.907631],[-92.7704975,44.9075854],[-92.7705728,44.9075373],[-92.7706453,44.9074869],[-92.7707175,44.9074363],[-92.7707899,44.9073858],[-92.7708619,44.9073352],[-92.7709344,44.9072848],[-92.7710082,44.9072355],[-92.7710859,44.9071893],[-92.7711634,44.9071428],[-92.7712366,44.9070931],[-92.7713084,44.9070423],[-92.7713618,44.9070038],[-92.7714154,44.9069655],[-92.7714874,44.9069148],[-92.7715609,44.9068653],[-92.7716377,44.9068182],[-92.7717163,44.9067726],[-92.7717932,44.9067257],[-92.7718661,44.9066758],[-92.7719378,44.9066248],[-92.7719911,44.9065861],[-92.7720437,44.9065469],[-92.7721127,44.9064941],[-92.77218,44.9064402],[-92.7722441,44.9063849],[-92.772295,44.9063229],[-92.7723435,44.9062593],[-92.7723991,44.906199],[-92.7724414,44.9061539],[-92.7724848,44.9061094],[-92.7725454,44.9060516],[-92.7726104,44.9059968],[-92.7726812,44.9059456],[-92.7727561,44.905897],[-92.7728134,44.9058613],[-92.7728703,44.9058252],[-92.7729437,44.9057755],[-92.7730123,44.9057225],[-92.7730614,44.905681],[-92.7731099,44.9056391],[-92.7731757,44.9055842],[-92.7732456,44.9055325],[-92.7733209,44.9054834],[-92.7733802,44.9054476],[-92.7734423,44.905415],[-92.7735291,44.9053792],[-92.7736231,44.9053544],[-92.7737262,44.9053386],[-92.7738304,44.9053348],[-92.7739271,44.9053465],[-92.7740161,44.9053755],[-92.7741009,44.9054172],[-92.7741813,44.9054654],[-92.7742569,44.905515],[-92.7743252,44.9055696],[-92.7743728,44.9056142],[-92.7744196,44.905659],[-92.7744851,44.9057144],[-92.774559,44.9057592],[-92.7746524,44.9057911],[-92.7747649,44.9058119],[-92.774874,44.9058182],[-92.77498,44.9057844],[-92.7749948,44.9057279],[-92.7749818,44.9056623],[-92.77493,44.9056047],[-92.774838,44.9055762],[-92.7747299,44.905555],[-92.7746368,44.9055253],[-92.7745774,44.9054663],[-92.7745501,44.9054022],[-92.7745479,44.9053446],[-92.7746313,44.9053056],[-92.7747379,44.9053152],[-92.774853,44.9053383],[-92.7749515,44.9053664],[-92.7750401,44.9054],[-92.7751257,44.9054394],[-92.7751881,44.9054715],[-92.775249,44.905505],[-92.7753281,44.9055502],[-92.7754047,44.9055971],[-92.7754792,44.9056459],[-92.7755093,44.9072334],[-92.7755258,44.912897],[-92.7766772,44.9128752],[-92.7766844,44.9158901],[-92.776745,44.9200441],[-92.7767423,44.920265],[-92.7766553,44.927505],[-92.7766502,44.9279244],[-92.7765656,44.9309903],[-92.7817759,44.9309604],[-92.7817294,44.9346115],[-92.7814768,44.9489169]]]}}]}