{"type":"FeatureCollection","name":"albertville_border","features":[{"type":"Feature","properties":{"GNIS_FEATURE_ID":2393904,"FEATURE_NAME":"albertville","CTU_CLASS":"CITY","COUNTY_GNIS_FEATURE_ID":659530,"COUNTY_CODE":"86","COUNTY_NAME":"Wright","POPULATION":8220,"SE_ANNO_CAD_DATA":null},"geometry":{"type":"Polygon","coordinates":[[[-93.6338035,45.2380233],[-93.6428192,45.2379714],[-93.6438764,45.2379747],[-93.6479526,45.2379572],[-93.6479504,45.2393759],[-93.6478764,45.2393441],[-93.6464469,45.2388959],[-93.6462268,45.2385779],[-93.6462314,45.2406049],[-93.6429721,45.2406122],[-93.6429109,45.2491435],[-93.6429399,45.2524478],[-93.6496901,45.2524891],[-93.6632844,45.2525711],[-93.6763342,45.2523725],[-93.683783,45.2522585],[-93.6837891,45.2473909],[-93.6839137,45.2380112],[-93.6846839,45.2380023],[-93.6846826,45.2378991],[-93.6846312,45.2338849],[-93.6848128,45.2245864],[-93.6848926,45.2209278],[-93.6797306,45.2209028],[-93.6645266,45.2210166],[-93.6520735,45.2207771],[-93.6520094,45.2234211],[-93.6514419,45.2234108],[-93.6514363,45.2236409],[-93.649818,45.2236115],[-93.6494963,45.2236053],[-93.6494763,45.2243295],[-93.6440404,45.2242307],[-93.6389458,45.2243014],[-93.6340468,45.2244076],[-93.6338035,45.2380233]]]}}]}