{"type":"FeatureCollection","name":"anoka_border","features":[{"type":"Feature","properties":{"GNIS_FEATURE_ID":2393964,"FEATURE_NAME":"anoka","CTU_CLASS":"CITY","COUNTY_GNIS_FEATURE_ID":659447,"COUNTY_CODE":"02","COUNTY_NAME":"Anoka","POPULATION":18127,"SE_ANNO_CAD_DATA":null},"geometry":{"type":"Polygon","coordinates":[[[-93.4260173,45.2150108],[-93.4250052,45.2144479],[-93.4239553,45.2134922],[-93.4227225,45.2120901],[-93.422456,45.2117423],[-93.4214375,45.2104126],[-93.4196927,45.2079026],[-93.4173592,45.2041962],[-93.4159794,45.2017863],[-93.4143456,45.2000471],[-93.412815,45.1989795],[-93.4087675,45.196753],[-93.4063731,45.1958144],[-93.3954079,45.191719],[-93.392593,45.1900191],[-93.3908734,45.1884223],[-93.389238,45.1869798],[-93.3866149,45.1856163],[-93.3841055,45.1846052],[-93.3829848,45.183869],[-93.3808482,45.1820173],[-93.3789394,45.1807828],[-93.3766204,45.1793707],[-93.3755508,45.1790364],[-93.3752541,45.1789196],[-93.3740295,45.1786139],[-93.3733787,45.1783487],[-93.3733027,45.1783178],[-93.3732264,45.1903279],[-93.3682141,45.1902647],[-93.3682016,45.197496],[-93.3615549,45.1975064],[-93.3631162,45.1984607],[-93.3630213,45.2011576],[-93.3656642,45.2011542],[-93.365601,45.2029524],[-93.3672747,45.2029501],[-93.3672027,45.2047945],[-93.3654394,45.2047948],[-93.365372,45.2067165],[-93.3649995,45.206967],[-93.3649024,45.2097087],[-93.3626684,45.2112119],[-93.362623,45.2123084],[-93.3576082,45.2122844],[-93.3574389,45.2194562],[-93.3614826,45.2194997],[-93.3623275,45.2195529],[-93.363314,45.2197949],[-93.3659791,45.2209903],[-93.3663502,45.2211411],[-93.3667071,45.2212748],[-93.367055,45.2213577],[-93.3675813,45.2214317],[-93.3674753,45.2268504],[-93.367472,45.2273244],[-93.3752548,45.2273556],[-93.3777216,45.2273688],[-93.3776343,45.2335619],[-93.3827572,45.2335919],[-93.3827242,45.2373024],[-93.3886612,45.2372759],[-93.3886362,45.2410948],[-93.389672,45.2410947],[-93.3896663,45.240869],[-93.3896818,45.2404728],[-93.3899536,45.2395702],[-93.3904971,45.2388948],[-93.3912134,45.2386337],[-93.3926213,45.2385113],[-93.3942161,45.2386912],[-93.3947876,45.2386506],[-93.3954836,45.2381013],[-93.3958722,45.2373196],[-93.3959029,45.2364228],[-93.3958136,45.2356736],[-93.3955478,45.2348478],[-93.3961505,45.2340125],[-93.3963196,45.2332031],[-93.3959085,45.2324832],[-93.3949438,45.2318789],[-93.3931155,45.2310444],[-93.3920031,45.2306383],[-93.3898324,45.2303807],[-93.3892418,45.2299807],[-93.3893036,45.2291444],[-93.3896844,45.2284618],[-93.3906173,45.2272779],[-93.3916121,45.2259674],[-93.3918408,45.2252994],[-93.3911837,45.2243502],[-93.3901957,45.2237514],[-93.3897445,45.2233282],[-93.3902522,45.2233698],[-93.3903065,45.2234174],[-93.3903793,45.2234771],[-93.3904546,45.2235286],[-93.3905139,45.2235663],[-93.3905748,45.2236071],[-93.3906369,45.223649],[-93.3906999,45.2236902],[-93.3907632,45.2237286],[-93.3908265,45.2237624],[-93.3909152,45.2237973],[-93.391027,45.2238157],[-93.3911061,45.2237992],[-93.3911792,45.2237624],[-93.391237,45.2237223],[-93.3912941,45.2236766],[-93.3913504,45.2236288],[-93.391406,45.2235823],[-93.3914607,45.2235404],[-93.3915342,45.2234872],[-93.3916104,45.2234297],[-93.391681,45.2233745],[-93.3917383,45.2233291],[-93.3917893,45.2232888],[-93.3918406,45.2232487],[-93.3919054,45.2231991],[-93.391976,45.2231475],[-93.3920598,45.2231031],[-93.3957188,45.2230982],[-93.3962237,45.2238551],[-93.396804,45.2238636],[-93.3970189,45.2243379],[-93.3986735,45.2240284],[-93.4020032,45.224366],[-93.4092709,45.2248995],[-93.4162748,45.2251909],[-93.4170327,45.2253108],[-93.4175842,45.2255601],[-93.4188712,45.2263286],[-93.4192836,45.2265481],[-93.4196881,45.2266192],[-93.4202092,45.226624],[-93.4202101,45.2194523],[-93.4196355,45.219464],[-93.4195605,45.2187673],[-93.4201685,45.2174649],[-93.4209647,45.2178315],[-93.4217054,45.2176177],[-93.4218317,45.2172992],[-93.4215861,45.21724],[-93.4225426,45.2159538],[-93.4260173,45.2150108]]]}}]}