{"type":"FeatureCollection","name":"apple_valley_border","features":[{"type":"Feature","properties":{"GNIS_FEATURE_ID":2393967,"FEATURE_NAME":"apple_valley","CTU_CLASS":"CITY","COUNTY_GNIS_FEATURE_ID":659464,"COUNTY_CODE":"19","COUNTY_NAME":"Dakota","POPULATION":55673,"SE_ANNO_CAD_DATA":null},"geometry":{"type":"Polygon","coordinates":[[[-93.1564168,44.7757685],[-93.1667272,44.7757631],[-93.1767025,44.7757736],[-93.187564,44.775864],[-93.1977491,44.7759111],[-93.2079037,44.7758736],[-93.2172264,44.775895],[-93.222805,44.7758341],[-93.2429459,44.7630554],[-93.2480673,44.759753],[-93.2481413,44.7560619],[-93.248143,44.7559727],[-93.2481206,44.7555976],[-93.2480545,44.7552448],[-93.2479758,44.7549506],[-93.2478523,44.7546766],[-93.2476174,44.7542995],[-93.2475435,44.7541567],[-93.2476578,44.7541172],[-93.2477434,44.7540883],[-93.2478119,44.7540652],[-93.2479033,44.7540344],[-93.2479891,44.7540057],[-93.2480577,44.7539828],[-93.248155,44.7539619],[-93.2481902,44.7536221],[-93.2482805,44.7463984],[-93.2483513,44.7390798],[-93.248375,44.7318913],[-93.2484364,44.7174065],[-93.2382511,44.7174195],[-93.2177361,44.717397],[-93.1973757,44.7173866],[-93.1769225,44.7173565],[-93.1564584,44.717337],[-93.1564967,44.7319145],[-93.1563837,44.7463694],[-93.1563998,44.7499749],[-93.1563594,44.7536992],[-93.1571296,44.7537005],[-93.1571201,44.7545785],[-93.1580051,44.75458],[-93.1582942,44.7550758],[-93.1586409,44.7560079],[-93.1575657,44.7561158],[-93.1575622,44.7564451],[-93.1563226,44.7571015],[-93.1563084,44.7584186],[-93.1561542,44.7584184],[-93.1561459,44.7591867],[-93.1563,44.7591869],[-93.1562952,44.7596259],[-93.1581437,44.759629],[-93.1581295,44.7609461],[-93.1562809,44.760943],[-93.1563594,44.7686863],[-93.1557431,44.7686896],[-93.1557453,44.768909],[-93.154975,44.7689132],[-93.1549672,44.768145],[-93.1532725,44.7681541],[-93.1532785,44.7687515],[-93.1526633,44.7688616],[-93.1529792,44.7696298],[-93.1529881,44.7705078],[-93.152539,44.7718252],[-93.1514606,44.7718258],[-93.1514839,44.7741307],[-93.1524082,44.7741301],[-93.1527208,44.7745689],[-93.1557937,44.7736889],[-93.15641,44.7736885],[-93.1564268,44.7753348],[-93.1564168,44.7757685]]]}}]}