{"type":"FeatureCollection","name":"bethel_border","features":[{"type":"Feature","properties":{"GNIS_FEATURE_ID":2394156,"FEATURE_NAME":"bethel","CTU_CLASS":"CITY","COUNTY_GNIS_FEATURE_ID":659447,"COUNTY_CODE":"02","COUNTY_NAME":"Anoka","POPULATION":479,"SE_ANNO_CAD_DATA":null},"geometry":{"type":"Polygon","coordinates":[[[-93.2602872,45.3960301],[-93.2603123,45.3967801],[-93.2603382,45.3975512],[-93.2603643,45.3983298],[-93.2603906,45.3991162],[-93.2603925,45.399171],[-93.2604007,45.3993905],[-93.2604029,45.3994454],[-93.2604334,45.400186],[-93.2604466,45.4005066],[-93.2604712,45.4011041],[-93.2606946,45.406574],[-93.2607001,45.4066645],[-93.2607379,45.4075381],[-93.2607512,45.4078673],[-93.2607903,45.4088546],[-93.2608357,45.4099626],[-93.2608429,45.4101437],[-93.2629697,45.4101478],[-93.2645916,45.4101512],[-93.2648748,45.4101515],[-93.264875,45.4101515],[-93.2652461,45.4101522],[-93.2652881,45.4101522],[-93.2653737,45.4101524],[-93.2655235,45.4101519],[-93.2703352,45.4101343],[-93.2705922,45.4101334],[-93.2755537,45.410115],[-93.2768208,45.4101111],[-93.2787216,45.4101052],[-93.2793552,45.4101032],[-93.2799888,45.4101012],[-93.2806224,45.4100993],[-93.2806645,45.4064922],[-93.2807073,45.4028655],[-93.2807513,45.3993097],[-93.2807496,45.3990924],[-93.2807485,45.3987602],[-93.2807473,45.3983899],[-93.2807461,45.3980197],[-93.2807439,45.3973329],[-93.280743,45.3970479],[-93.2807421,45.3967727],[-93.2807412,45.3964976],[-93.2807402,45.3961685],[-93.2807385,45.3956531],[-93.2807296,45.392859],[-93.280727,45.3920675],[-93.2807113,45.3920677],[-93.2756279,45.3921151],[-93.2756459,45.3956889],[-93.2730709,45.3957067],[-93.2704959,45.3957245],[-93.2704956,45.3956353],[-93.270493,45.3948341],[-93.270436,45.3948345],[-93.2687557,45.3948471],[-93.2686188,45.3954401],[-93.2685501,45.3957379],[-93.2654743,45.3957595],[-93.2652036,45.3957587],[-93.2643183,45.3957509],[-93.2639462,45.3957477],[-93.2635742,45.3957444],[-93.2632022,45.3957412],[-93.2628302,45.3957379],[-93.2623915,45.3957341],[-93.2619419,45.3957301],[-93.2602767,45.3957155],[-93.2602872,45.3960301]]]}}]}