{"type":"FeatureCollection","name":"birchwood_village_border","features":[{"type":"Feature","properties":{"GNIS_FEATURE_ID":2394171,"FEATURE_NAME":"birchwood_village","CTU_CLASS":"CITY","COUNTY_GNIS_FEATURE_ID":659526,"COUNTY_CODE":"82","COUNTY_NAME":"Washington","POPULATION":851,"SE_ANNO_CAD_DATA":null},"geometry":{"type":"Polygon","coordinates":[[[-92.980021,45.0575526],[-92.9752565,45.0575178],[-92.9752221,45.0538511],[-92.9696527,45.053814],[-92.9695888,45.0580922],[-92.9696704,45.0581352],[-92.9697447,45.0581842],[-92.9698166,45.0582351],[-92.9698701,45.0582737],[-92.969924,45.0583119],[-92.9699975,45.0583616],[-92.9700737,45.0584092],[-92.9701518,45.0584554],[-92.970231,45.0585007],[-92.9703108,45.0585456],[-92.9703903,45.0585907],[-92.9704689,45.0586364],[-92.970546,45.0586832],[-92.9706209,45.0587315],[-92.9706936,45.0587818],[-92.9707653,45.0588342],[-92.9708343,45.0588886],[-92.9708988,45.0589452],[-92.9709566,45.059004],[-92.9710048,45.0590654],[-92.9710334,45.059133],[-92.9710472,45.0592055],[-92.97106,45.0592785],[-92.9710807,45.0593492],[-92.9711044,45.0594193],[-92.9711226,45.0594717],[-92.9711406,45.0595242],[-92.9711634,45.0595944],[-92.9711835,45.059665],[-92.9712007,45.0597362],[-92.971216,45.0598077],[-92.9712307,45.0598794],[-92.971246,45.0599509],[-92.9712633,45.0600219],[-92.9712838,45.0600922],[-92.9713088,45.0601614],[-92.9713392,45.06023],[-92.9713752,45.0602984],[-92.9714059,45.0603489],[-92.9714408,45.0603977],[-92.9714935,45.0604596],[-92.9715538,45.0605167],[-92.9716192,45.0605716],[-92.9716874,45.0606266],[-92.9717402,45.0606675],[-92.9717948,45.0607073],[-92.9718699,45.0607585],[-92.9719478,45.0608066],[-92.9720285,45.0608506],[-92.972112,45.0608895],[-92.9721986,45.0609224],[-92.97229,45.0609473],[-92.9723867,45.0609645],[-92.9724871,45.0609762],[-92.97259,45.0609844],[-92.9726941,45.0609909],[-92.9727981,45.060998],[-92.9729006,45.0610075],[-92.9730007,45.0610212],[-92.9730996,45.0610379],[-92.9731982,45.0610562],[-92.9732965,45.0610749],[-92.973395,45.061093],[-92.9734938,45.0611095],[-92.9735932,45.0611232],[-92.973694,45.0611316],[-92.9737961,45.0611344],[-92.9738987,45.0611352],[-92.9740006,45.061138],[-92.9741008,45.0611466],[-92.974199,45.0611628],[-92.9742965,45.0611821],[-92.9743936,45.0612036],[-92.9744902,45.061227],[-92.974586,45.0612521],[-92.9746811,45.0612786],[-92.9747753,45.0613063],[-92.9748685,45.0613349],[-92.974961,45.0613648],[-92.9750531,45.0613975],[-92.9751422,45.0614341],[-92.9752259,45.0614753],[-92.9753018,45.061522],[-92.9753715,45.0615733],[-92.9754376,45.0616278],[-92.9755005,45.061685],[-92.9755458,45.0617291],[-92.9755893,45.0617741],[-92.9756453,45.0618349],[-92.9756989,45.0618961],[-92.9757492,45.0619583],[-92.9757952,45.0620225],[-92.9758379,45.062088],[-92.9758782,45.0621545],[-92.975917,45.0622214],[-92.9759548,45.0622882],[-92.9759907,45.0623555],[-92.9760241,45.0624235],[-92.9760563,45.0624919],[-92.9760801,45.0625432],[-92.9761041,45.0625945],[-92.9761372,45.0626626],[-92.9761714,45.0627305],[-92.9761968,45.0627816],[-92.9762222,45.0628327],[-92.9762572,45.0629004],[-92.9762947,45.0629674],[-92.9763361,45.0630329],[-92.9763816,45.0630972],[-92.9764303,45.0631608],[-92.9764827,45.063223],[-92.9765393,45.0632831],[-92.9766007,45.0633402],[-92.9766663,45.0633948],[-92.9767346,45.0634479],[-92.9768051,45.0634998],[-92.9768775,45.0635507],[-92.9769327,45.0635882],[-92.9769885,45.0636253],[-92.9770636,45.0636741],[-92.9771391,45.0637223],[-92.9772156,45.0637696],[-92.9772936,45.0638158],[-92.9773727,45.0638611],[-92.9774327,45.0638945],[-92.9774932,45.0639274],[-92.9775742,45.063971],[-92.9776556,45.0640142],[-92.9777367,45.064058],[-92.9777977,45.0640913],[-92.9778596,45.0641236],[-92.9779445,45.0641634],[-92.9780337,45.0641968],[-92.9781266,45.0642244],[-92.9782212,45.0642498],[-92.978317,45.0642735],[-92.9784137,45.0642958],[-92.9785111,45.0643171],[-92.9786089,45.0643377],[-92.9786824,45.0643529],[-92.978756,45.0643679],[-92.9788539,45.0643881],[-92.9789514,45.0644085],[-92.979049,45.0644285],[-92.9791469,45.064448],[-92.9792452,45.0644669],[-92.9793436,45.0644854],[-92.9794174,45.0644992],[-92.9794913,45.0645129],[-92.9795898,45.0645312],[-92.9796882,45.0645496],[-92.9797865,45.0645683],[-92.9798845,45.0645874],[-92.9799822,45.0646071],[-92.9800795,45.0646275],[-92.9801763,45.0646488],[-92.9802727,45.064671],[-92.9803682,45.0646946],[-92.9804621,45.0647215],[-92.9805542,45.0647519],[-92.9806448,45.0647848],[-92.9807121,45.0648107],[-92.9807788,45.0648374],[-92.9808674,45.0648732],[-92.9809559,45.0649088],[-92.9810437,45.0649449],[-92.9811307,45.0649821],[-92.9812171,45.0650201],[-92.981303,45.0650586],[-92.9813673,45.0650876],[-92.9814316,45.0651167],[-92.9815174,45.0651553],[-92.9816029,45.0651942],[-92.9816878,45.0652339],[-92.9817725,45.0652737],[-92.9818577,45.0653129],[-92.9819439,45.065351],[-92.9820313,45.0653877],[-92.9821195,45.0654234],[-92.9822082,45.0654586],[-92.9822748,45.0654849],[-92.9823413,45.0655113],[-92.9824297,45.0655468],[-92.9825175,45.0655832],[-92.9826047,45.0656203],[-92.9826916,45.0656579],[-92.9827786,45.0656953],[-92.9828659,45.0657323],[-92.9829539,45.0657681],[-92.983043,45.0658025],[-92.9831334,45.0658352],[-92.9832255,45.0658669],[-92.9832955,45.0658895],[-92.9833666,45.0659102],[-92.9834627,45.065934],[-92.9835603,45.0659521],[-92.9836594,45.0659641],[-92.9837599,45.0659716],[-92.9838615,45.065976],[-92.9839636,45.0659786],[-92.9840404,45.06598],[-92.984117,45.0659816],[-92.9846877,45.0660052],[-92.9846884,45.0658977],[-92.9846943,45.0648219],[-92.984696,45.0602264],[-92.984697,45.0575873],[-92.980021,45.0575526]]]}}]}