{"type":"FeatureCollection","name":"blaine_border","features":[{"type":"Feature","properties":{"GNIS_FEATURE_ID":2394183,"FEATURE_NAME":"blaine","CTU_CLASS":"CITY","COUNTY_GNIS_FEATURE_ID":659447,"COUNTY_CODE":"02","COUNTY_NAME":"Anoka","POPULATION":71891,"SE_ANNO_CAD_DATA":null},"geometry":{"type":"MultiPolygon","coordinates":[[[[-93.1738046,45.1460552],[-93.1634627,45.1459922],[-93.1633421,45.1532603],[-93.1473044,45.1530018],[-93.1429589,45.1530324],[-93.1426806,45.1673656],[-93.1425378,45.1817722],[-93.142527,45.1962557],[-93.1423435,45.2109524],[-93.1629312,45.2111616],[-93.1834552,45.2112887],[-93.203917,45.2114289],[-93.2242545,45.2114171],[-93.2447087,45.2114675],[-93.2502513,45.2114888],[-93.2658604,45.2115206],[-93.2658447,45.1969939],[-93.2660528,45.1824709],[-93.2661761,45.1680195],[-93.2664928,45.1534902],[-93.2666778,45.1390218],[-93.2667123,45.136664],[-93.2668906,45.1245535],[-93.2637079,45.1245527],[-93.2483518,45.1245463],[-93.248351,45.1245463],[-93.2379618,45.1245843],[-93.2387284,45.1247677],[-93.235707,45.1247802],[-93.2357124,45.1245936],[-93.2278648,45.1245287],[-93.2250815,45.1244888],[-93.209151,45.1244231],[-93.2045949,45.1244094],[-93.1988766,45.1243772],[-93.1886646,45.1243189],[-93.1841473,45.124299],[-93.1684413,45.124283],[-93.1637536,45.1242509],[-93.1535478,45.1242243],[-93.1535161,45.1275994],[-93.1586333,45.1276376],[-93.1586,45.1314619],[-93.1584102,45.1387816],[-93.1635806,45.1388865],[-93.1637027,45.1315244],[-93.1841634,45.1315613],[-93.1841753,45.1351879],[-93.1742884,45.1351523],[-93.1739088,45.1353843],[-93.1738865,45.1376556],[-93.1806111,45.1376958],[-93.1810225,45.1389244],[-93.173892,45.1389119],[-93.1737416,45.1458572],[-93.1738046,45.1460552]],[[-93.1789164,45.146103],[-93.1788458,45.1477982],[-93.1786753,45.1479251],[-93.1738275,45.1478932],[-93.1738046,45.1460552],[-93.1789164,45.146103]]],[[[-93.1886646,45.1243189],[-93.1988766,45.1243772],[-93.1987921,45.118618],[-93.1886046,45.1185707],[-93.1886646,45.1243189]]]]}}]}