{"type":"FeatureCollection","name":"bloomington_border","features":[{"type":"Feature","properties":{"GNIS_FEATURE_ID":2394198,"FEATURE_NAME":"bloomington","CTU_CLASS":"CITY","COUNTY_GNIS_FEATURE_ID":659472,"COUNTY_CODE":"27","COUNTY_NAME":"Hennepin","POPULATION":91330,"SE_ANNO_CAD_DATA":null},"geometry":{"type":"Polygon","coordinates":[[[-93.3188232,44.8618957],[-93.3194978,44.8618955],[-93.3207595,44.8616311],[-93.321531,44.8614722],[-93.3224245,44.8612689],[-93.3239204,44.8608459],[-93.3238906,44.8619264],[-93.3288845,44.8619561],[-93.3507544,44.8620705],[-93.3507615,44.8628165],[-93.3508954,44.862849],[-93.3510674,44.862897],[-93.3512556,44.8629703],[-93.3513959,44.8630482],[-93.3515317,44.8631436],[-93.3516194,44.8632505],[-93.3544812,44.8632466],[-93.3544754,44.8620568],[-93.3582413,44.8620479],[-93.3697696,44.8620257],[-93.3786825,44.8619628],[-93.3865463,44.8619925],[-93.3865671,44.8600206],[-93.3870817,44.8599765],[-93.3876692,44.8599337],[-93.3883183,44.8599003],[-93.3895546,44.8598483],[-93.3901351,44.8598362],[-93.3902182,44.859836],[-93.3903068,44.859836],[-93.3904017,44.8598362],[-93.3904966,44.8598372],[-93.3906042,44.8598385],[-93.3907308,44.8598404],[-93.3908446,44.8598429],[-93.3909205,44.8598454],[-93.3910152,44.8598497],[-93.3911225,44.8598559],[-93.3912421,44.8598648],[-93.3913491,44.859874],[-93.3914438,44.8598821],[-93.3915192,44.85989],[-93.3916211,44.8599051],[-93.3917205,44.8599265],[-93.3917976,44.8599467],[-93.3918914,44.859974],[-93.3919845,44.860003],[-93.392077,44.8600327],[-93.3921635,44.8600607],[-93.3922376,44.860086],[-93.3923282,44.8601183],[-93.3923959,44.8601428],[-93.3924637,44.8601672],[-93.3925649,44.8602191],[-93.3926235,44.8602535],[-93.3926822,44.8602878],[-93.3927603,44.8603337],[-93.3928401,44.8603816],[-93.3929189,44.8604303],[-93.3929799,44.8604694],[-93.3930542,44.8605185],[-93.3931272,44.8605684],[-93.3931989,44.8606193],[-93.3932692,44.8606711],[-93.3933381,44.860724],[-93.3934058,44.8607778],[-93.3934727,44.8608322],[-93.3935308,44.8608802],[-93.3935887,44.8609283],[-93.3936548,44.8609833],[-93.3937213,44.861038],[-93.3937883,44.8610922],[-93.3938519,44.8611423],[-93.3939035,44.8611818],[-93.3939559,44.8612207],[-93.3940091,44.8612587],[-93.3940635,44.861296],[-93.394119,44.8613322],[-93.3941765,44.8613668],[-93.3942419,44.8614021],[-93.3943258,44.8614427],[-93.3944183,44.8614829],[-93.3945243,44.861525],[-93.3946148,44.8615585],[-93.3947083,44.8615916],[-93.3948031,44.8616217],[-93.39488,44.8616421],[-93.3949825,44.8616659],[-93.3950981,44.861691],[-93.3951949,44.8617128],[-93.3953573,44.8620251],[-93.3987952,44.8620377],[-93.3986982,44.847573],[-93.3987471,44.8331479],[-93.3987273,44.8186782],[-93.3986737,44.8044115],[-93.3988528,44.7987095],[-93.397912,44.7979973],[-93.3968448,44.7973084],[-93.3954298,44.7971465],[-93.3935986,44.7975563],[-93.392033,44.7980944],[-93.3894098,44.798581],[-93.388145,44.7985599],[-93.3863312,44.7981944],[-93.385312,44.7975597],[-93.384601,44.796635],[-93.3843509,44.7956545],[-93.3839169,44.793286],[-93.3833012,44.7916069],[-93.3828634,44.7902387],[-93.3820453,44.7879138],[-93.3815147,44.7868163],[-93.3809351,44.7859007],[-93.3804929,44.785511],[-93.3796417,44.7853796],[-93.3788003,44.7853306],[-93.3777936,44.7854377],[-93.3765841,44.7857455],[-93.3757583,44.7859875],[-93.3752478,44.7861481],[-93.3734604,44.7867449],[-93.3699385,44.7878128],[-93.3684743,44.7882409],[-93.3674716,44.7886816],[-93.366409,44.7888532],[-93.3654077,44.789058],[-93.3643386,44.789054],[-93.3637159,44.7889694],[-93.3628187,44.7885273],[-93.3619152,44.7878766],[-93.360828,44.7870991],[-93.359778,44.7865082],[-93.3588967,44.7860112],[-93.3579446,44.7857223],[-93.3571229,44.7855327],[-93.3565463,44.7854922],[-93.3560926,44.785474],[-93.3558538,44.7855171],[-93.3553141,44.7857234],[-93.3547655,44.7861164],[-93.3542545,44.7866246],[-93.3539273,44.7872597],[-93.353491,44.7881028],[-93.3530946,44.7887432],[-93.352405,44.7894922],[-93.3520243,44.7900557],[-93.3513433,44.790695],[-93.3503935,44.7912235],[-93.3495155,44.7913902],[-93.3485073,44.7914741],[-93.3475925,44.7913663],[-93.3468795,44.7910125],[-93.3462833,44.7904397],[-93.3456417,44.7897625],[-93.3447621,44.7890021],[-93.3431523,44.7881784],[-93.3409439,44.787144],[-93.3392863,44.7865891],[-93.3380413,44.7864195],[-93.3371567,44.7864106],[-93.336564,44.7864796],[-93.3356313,44.7867612],[-93.3347282,44.7872294],[-93.3335841,44.7880587],[-93.3322687,44.789189],[-93.3312394,44.7900792],[-93.3304281,44.7905971],[-93.3296385,44.7910808],[-93.3294315,44.7912075],[-93.3287668,44.7916602],[-93.3277866,44.7921389],[-93.326815,44.7924642],[-93.3259367,44.7926637],[-93.3243132,44.7926955],[-93.3226435,44.7927601],[-93.3203425,44.7928769],[-93.3192349,44.7928559],[-93.3169742,44.792726],[-93.3147827,44.7926018],[-93.3137671,44.792614],[-93.3126887,44.7928071],[-93.3116874,44.7929894],[-93.3100146,44.7934543],[-93.3089512,44.7936912],[-93.3075568,44.7939761],[-93.3063024,44.7940476],[-93.3049306,44.7943766],[-93.3041746,44.7946586],[-93.3031471,44.7952358],[-93.3023825,44.795633],[-93.3011327,44.796116],[-93.3002366,44.7966223],[-93.2989863,44.7971546],[-93.2976661,44.7977743],[-93.2958218,44.7985071],[-93.2940013,44.7991575],[-93.2931529,44.7994281],[-93.2918273,44.7997187],[-93.290532,44.800086],[-93.2890828,44.8004528],[-93.2880723,44.800805],[-93.2867683,44.801282],[-93.2858256,44.8018101],[-93.2852452,44.8022464],[-93.2848156,44.8030838],[-93.284585,44.8040538],[-93.2841261,44.8046827],[-93.2835213,44.8052889],[-93.2827785,44.8058288],[-93.2819218,44.806154],[-93.2806119,44.8063952],[-93.2797032,44.8064954],[-93.2780253,44.8065538],[-93.2771478,44.8065938],[-93.2758843,44.8067911],[-93.2747138,44.8069121],[-93.2735903,44.806929],[-93.2716959,44.807107],[-93.2701087,44.8073796],[-93.2683585,44.807816],[-93.2671022,44.8080736],[-93.2647507,44.8086335],[-93.2626763,44.8092055],[-93.2610645,44.8096315],[-93.2593465,44.8098869],[-93.2573808,44.8103057],[-93.2542583,44.8110264],[-93.2526309,44.8114741],[-93.2514558,44.8121215],[-93.2509588,44.8126732],[-93.2504855,44.8131427],[-93.2502454,44.8133369],[-93.2500492,44.8135604],[-93.2494829,44.8141309],[-93.2489971,44.8145265],[-93.2482771,44.8150789],[-93.2474734,44.8155699],[-93.2466301,44.8161265],[-93.2455468,44.8167243],[-93.2442598,44.8174956],[-93.243247,44.8180392],[-93.2421569,44.8185985],[-93.240675,44.8194721],[-93.239133,44.820647],[-93.238488,44.8212879],[-93.2377622,44.8221093],[-93.2371497,44.8226682],[-93.2361595,44.823602],[-93.2352717,44.8244325],[-93.2342985,44.8252841],[-93.2333751,44.8259714],[-93.2316642,44.8270949],[-93.2298539,44.8281788],[-93.2290993,44.8285221],[-93.2276115,44.8291388],[-93.2274515,44.8292014],[-93.2263979,44.8294963],[-93.2233779,44.8301615],[-93.2219677,44.8305304],[-93.220745,44.8311373],[-93.2200421,44.8315854],[-93.2197902,44.8322086],[-93.219946,44.8328639],[-93.2207425,44.8338447],[-93.2214003,44.834824],[-93.2217794,44.8354927],[-93.2219708,44.836291],[-93.2219887,44.8369118],[-93.2218254,44.8377173],[-93.2211082,44.8384782],[-93.2201673,44.8388742],[-93.2190021,44.8389327],[-93.2164788,44.838707],[-93.2149776,44.8389869],[-93.2131409,44.8394662],[-93.2119442,44.8399252],[-93.2103063,44.8408405],[-93.209065,44.8419525],[-93.2082517,44.8428715],[-93.2072937,44.8447994],[-93.2065983,44.8463348],[-93.2059718,44.8478928],[-93.2051632,44.8493117],[-93.20416,44.8511841],[-93.2033786,44.8523999],[-93.2025775,44.8534618],[-93.2015231,44.8547862],[-93.2007581,44.8556984],[-93.1991323,44.8573991],[-93.1981845,44.8584648],[-93.197608,44.8594688],[-93.1975668,44.860314],[-93.1976088,44.861237],[-93.1979115,44.8619172],[-93.2078096,44.8620224],[-93.2273498,44.8619761],[-93.2479284,44.8619359],[-93.2681439,44.8619201],[-93.2884097,44.8619154],[-93.3086871,44.8619127],[-93.3188232,44.8618957]]]}}]}