{"type":"FeatureCollection","name":"brooklyn_park_border","features":[{"type":"Feature","properties":{"GNIS_FEATURE_ID":2393429,"FEATURE_NAME":"brooklyn_park","CTU_CLASS":"CITY","COUNTY_GNIS_FEATURE_ID":659472,"COUNTY_CODE":"27","COUNTY_NAME":"Hennepin","POPULATION":84993,"SE_ANNO_CAD_DATA":null},"geometry":{"type":"Polygon","coordinates":[[[-93.3282681,45.1515067],[-93.3311643,45.1515427],[-93.3315999,45.1517883],[-93.331999,45.1513555],[-93.3323557,45.1515457],[-93.3328167,45.1518072],[-93.333211,45.1515681],[-93.340304,45.151656],[-93.3606978,45.1518511],[-93.3752537,45.1519955],[-93.3811823,45.1520123],[-93.4016124,45.152043],[-93.4019045,45.1376902],[-93.4020971,45.1249722],[-93.4021615,45.1232422],[-93.3889871,45.1233004],[-93.3891966,45.1210877],[-93.389666,45.1192643],[-93.3907843,45.1162121],[-93.3911881,45.1147183],[-93.3918044,45.1107618],[-93.3962084,45.1106842],[-93.3955055,45.1097239],[-93.397397,45.1097111],[-93.3982858,45.1106832],[-93.4023563,45.1106879],[-93.4023852,45.1088248],[-93.4021092,45.0945734],[-93.4019516,45.0802184],[-93.4006877,45.0657375],[-93.3804645,45.0657624],[-93.375253,45.0657281],[-93.3702027,45.0657086],[-93.3600751,45.0656689],[-93.349819,45.065697],[-93.351093,45.0800169],[-93.3513011,45.0872344],[-93.3207844,45.0873125],[-93.2810642,45.087203],[-93.2809069,45.0868576],[-93.2808195,45.0865393],[-93.2807231,45.0860509],[-93.2806818,45.0856996],[-93.2806781,45.0851944],[-93.2806833,45.0848483],[-93.2807568,45.0842989],[-93.2808627,45.0839744],[-93.2811377,45.0834792],[-93.2816811,45.0826534],[-93.2819267,45.0823614],[-93.2823412,45.0819096],[-93.2826411,45.0816558],[-93.2831567,45.0812694],[-93.2834485,45.0809553],[-93.2837619,45.0804379],[-93.2838835,45.0801244],[-93.2840425,45.079646],[-93.2841406,45.0793107],[-93.2842451,45.078794],[-93.2843126,45.0784917],[-93.2843861,45.0779697],[-93.284422,45.0775961],[-93.2843873,45.077069],[-93.2843231,45.0767672],[-93.2841488,45.0761967],[-93.2840845,45.075862],[-93.2839956,45.075357],[-93.2838927,45.0750389],[-93.2836258,45.0745182],[-93.2834609,45.0741947],[-93.283194,45.0736575],[-93.2829906,45.0733397],[-93.2827245,45.0729343],[-93.2824902,45.0726166],[-93.2820382,45.0721735],[-93.2817655,45.0719054],[-93.2815938,45.0717193],[-93.2810832,45.0717157],[-93.2807518,45.071717],[-93.2804531,45.0723112],[-93.280118,45.0730429],[-93.279863,45.0741532],[-93.2796178,45.0755655],[-93.2793394,45.0777084],[-93.2791874,45.0791588],[-93.2790803,45.0803948],[-93.2791081,45.0810483],[-93.2794468,45.0818544],[-93.2800363,45.0831208],[-93.2802287,45.0840482],[-93.280231,45.0843613],[-93.2801782,45.0845427],[-93.2801908,45.0852291],[-93.2802405,45.0867338],[-93.2801647,45.0880301],[-93.2800178,45.0901779],[-93.2798799,45.0914471],[-93.279384,45.0945683],[-93.2784561,45.1011235],[-93.2783008,45.1021236],[-93.2784159,45.1030623],[-93.2787317,45.1039179],[-93.2792566,45.1047836],[-93.2799356,45.10555],[-93.2807844,45.1062444],[-93.2822152,45.1071232],[-93.2837246,45.1081446],[-93.2851329,45.1091114],[-93.2869293,45.1102085],[-93.2882583,45.1109065],[-93.2890679,45.1115075],[-93.2893491,45.1118524],[-93.2898025,45.1124383],[-93.2902492,45.1131726],[-93.2905021,45.1138472],[-93.290738,45.1143514],[-93.2912311,45.1150526],[-93.2916527,45.1155288],[-93.2920504,45.1159117],[-93.2927921,45.1167217],[-93.2938526,45.1177281],[-93.2943046,45.1181328],[-93.2945629,45.1184942],[-93.2945873,45.1187633],[-93.2943892,45.1190771],[-93.2943749,45.1192584],[-93.2944769,45.1194283],[-93.2948758,45.1199539],[-93.2953382,45.1206443],[-93.2954005,45.1207372],[-93.2961675,45.1218436],[-93.2964992,45.1226936],[-93.2966827,45.1234069],[-93.2968244,45.1242992],[-93.2968497,45.1249769],[-93.2968608,45.125642],[-93.2969395,45.1266769],[-93.2973152,45.1273751],[-93.2979627,45.1280608],[-93.2988821,45.1290088],[-93.2996097,45.1298825],[-93.3004118,45.1311312],[-93.3009173,45.1319028],[-93.3022626,45.1331592],[-93.3039894,45.1343716],[-93.3049826,45.1349137],[-93.3057799,45.13553],[-93.3071172,45.1367972],[-93.307937,45.1377107],[-93.3086949,45.1386178],[-93.3090752,45.1391566],[-93.3092797,45.1401493],[-93.3094404,45.1407729],[-93.3100162,45.1418094],[-93.3112552,45.1435371],[-93.3126889,45.1444318],[-93.3138262,45.1448329],[-93.3149376,45.1450521],[-93.3173712,45.145455],[-93.3196908,45.1460432],[-93.3217153,45.1466327],[-93.3233236,45.1474032],[-93.3254087,45.1494231],[-93.3276894,45.1511214],[-93.3282681,45.1515067]]]}}]}