{"type":"FeatureCollection","name":"brooklyn_center_border","features":[{"type":"Feature","properties":{"GNIS_FEATURE_ID":2393428,"FEATURE_NAME":"brooklyn_center","CTU_CLASS":"CITY","COUNTY_GNIS_FEATURE_ID":659472,"COUNTY_CODE":"27","COUNTY_NAME":"Hennepin","POPULATION":33938,"SE_ANNO_CAD_DATA":null},"geometry":{"type":"Polygon","coordinates":[[[-93.2807518,45.071717],[-93.2810832,45.0717157],[-93.2815938,45.0717193],[-93.2817655,45.0719054],[-93.2820382,45.0721735],[-93.2824902,45.0726166],[-93.2827245,45.0729343],[-93.2829906,45.0733397],[-93.283194,45.0736575],[-93.2834609,45.0741947],[-93.2836258,45.0745182],[-93.2838927,45.0750389],[-93.2839956,45.075357],[-93.2840845,45.075862],[-93.2841488,45.0761967],[-93.2843231,45.0767672],[-93.2843873,45.077069],[-93.284422,45.0775961],[-93.2843861,45.0779697],[-93.2843126,45.0784917],[-93.2842451,45.078794],[-93.2841406,45.0793107],[-93.2840425,45.079646],[-93.2838835,45.0801244],[-93.2837619,45.0804379],[-93.2834485,45.0809553],[-93.2831567,45.0812694],[-93.2826411,45.0816558],[-93.2823412,45.0819096],[-93.2819267,45.0823614],[-93.2816811,45.0826534],[-93.2811377,45.0834792],[-93.2808627,45.0839744],[-93.2807568,45.0842989],[-93.2806833,45.0848483],[-93.2806781,45.0851944],[-93.2806818,45.0856996],[-93.2807231,45.0860509],[-93.2808195,45.0865393],[-93.2809069,45.0868576],[-93.2810642,45.087203],[-93.3207844,45.0873125],[-93.3513011,45.0872344],[-93.351093,45.0800169],[-93.349819,45.065697],[-93.3396886,45.0657238],[-93.3396074,45.058299],[-93.3384474,45.0582963],[-93.3384035,45.0575725],[-93.3383499,45.0570794],[-93.3384412,45.0570611],[-93.3385103,45.0569898],[-93.3385642,45.056917],[-93.3386163,45.0568395],[-93.3386728,45.0567726],[-93.3387317,45.0567315],[-93.339161,45.0562537],[-93.3391845,45.0561999],[-93.339208,45.0561484],[-93.3392318,45.0560969],[-93.3392549,45.0560454],[-93.3392817,45.0559806],[-93.339306,45.0559108],[-93.3393256,45.0558404],[-93.3393429,45.0557695],[-93.3393576,45.0557028],[-93.3393683,45.0556493],[-93.3393785,45.0555957],[-93.3393882,45.0555421],[-93.3393976,45.0554884],[-93.3394069,45.0554347],[-93.3394162,45.0553811],[-93.3394258,45.0553274],[-93.3394368,45.0552649],[-93.3394459,45.0552113],[-93.3394546,45.0551576],[-93.3394631,45.0551039],[-93.3394714,45.0550502],[-93.3394796,45.0549965],[-93.3394877,45.0549428],[-93.339497,45.0548824],[-93.3395085,45.0548085],[-93.339517,45.0547549],[-93.3395282,45.0546878],[-93.3395408,45.0546164],[-93.3395542,45.054545],[-93.3395686,45.0544738],[-93.3395843,45.0544027],[-93.3396012,45.0543317],[-93.3396209,45.0542542],[-93.3396416,45.0541768],[-93.3396617,45.0541039],[-93.3396784,45.0540443],[-93.3396934,45.0539913],[-93.3397084,45.0539383],[-93.3397232,45.0538853],[-93.3397379,45.0538323],[-93.3397523,45.0537792],[-93.3397695,45.0537174],[-93.3397904,45.0536447],[-93.339835,45.0403326],[-93.3346668,45.0403691],[-93.3337418,45.0407104],[-93.3334465,45.0408138],[-93.3331552,45.0409226],[-93.3328679,45.0410368],[-93.332585,45.0411562],[-93.3323065,45.0412807],[-93.3320326,45.0414104],[-93.3317636,45.041545],[-93.3314996,45.0416846],[-93.3312408,45.0418289],[-93.3309874,45.041978],[-93.3307396,45.0421317],[-93.3304974,45.04229],[-93.3302964,45.0419723],[-93.3301866,45.0420481],[-93.3297463,45.0411361],[-93.3296618,45.0408847],[-93.3295819,45.040507],[-93.3295798,45.0404049],[-93.3232342,45.0404492],[-93.3229547,45.0421088],[-93.322608,45.0426464],[-93.3194346,45.0419038],[-93.3195367,45.0513072],[-93.2991985,45.0511294],[-93.281956,45.0511635],[-93.2824253,45.0524282],[-93.2831833,45.0541777],[-93.2841495,45.0561896],[-93.2847625,45.0575273],[-93.2850349,45.0588224],[-93.2849724,45.0597782],[-93.2843947,45.0622298],[-93.2838631,45.0646428],[-93.2834112,45.0663195],[-93.2830312,45.0672491],[-93.2825747,45.0682997],[-93.28194,45.0693125],[-93.2814133,45.0702921],[-93.2809259,45.0713703],[-93.2807518,45.071717]]]}}]}