{"type":"FeatureCollection","name":"buffalo_border","features":[{"type":"Feature","properties":{"GNIS_FEATURE_ID":2393453,"FEATURE_NAME":"buffalo","CTU_CLASS":"CITY","COUNTY_GNIS_FEATURE_ID":659530,"COUNTY_CODE":"86","COUNTY_NAME":"Wright","POPULATION":16884,"SE_ANNO_CAD_DATA":null},"geometry":{"type":"MultiPolygon","coordinates":[[[[-93.9100664,45.1769055],[-93.9101435,45.1741581],[-93.9100154,45.174101],[-93.9092241,45.1731644],[-93.9088108,45.1726992],[-93.9066369,45.1726818],[-93.906591,45.1743596],[-93.9038317,45.1743086],[-93.9037758,45.1738315],[-93.9007472,45.1751868],[-93.9009128,45.1753925],[-93.9018907,45.1756296],[-93.9024228,45.17535],[-93.9029103,45.1757192],[-93.9031817,45.1765925],[-93.9011789,45.1777189],[-93.8998297,45.1776932],[-93.8998388,45.1764558],[-93.8983221,45.1766211],[-93.8981235,45.1762969],[-93.8983155,45.1762529],[-93.8986334,45.1761513],[-93.8995295,45.1757653],[-93.8998448,45.1756283],[-93.8998468,45.1752174],[-93.8990515,45.1755935],[-93.8986227,45.1757625],[-93.89769,45.1758954],[-93.8972544,45.1759155],[-93.8968954,45.175908],[-93.8965854,45.17586],[-93.8962942,45.1757565],[-93.8959842,45.1755848],[-93.8949297,45.1750514],[-93.8943949,45.1748357],[-93.8932728,45.1746977],[-93.8927002,45.1746926],[-93.8920232,45.1746568],[-93.8912491,45.1746662],[-93.8904559,45.1746548],[-93.8897536,45.1746867],[-93.8897579,45.17491],[-93.8888727,45.17513],[-93.8888602,45.1749203],[-93.8886235,45.1750154],[-93.8883493,45.1750726],[-93.8880875,45.1751033],[-93.8878008,45.1751825],[-93.8874704,45.1753145],[-93.8872023,45.1753673],[-93.8865479,45.1753275],[-93.8856257,45.1752698],[-93.8850434,45.1751714],[-93.8844615,45.1750486],[-93.8835937,45.1747292],[-93.8897629,45.1523915],[-93.889894,45.1517979],[-93.8901069,45.1517985],[-93.8901205,45.151708],[-93.8899995,45.151646],[-93.8901081,45.1510987],[-93.8899075,45.1510962],[-93.8899098,45.1505897],[-93.8896595,45.1502843],[-93.8894654,45.1500928],[-93.8888498,45.1498167],[-93.8880824,45.149793],[-93.8875848,45.1499073],[-93.8868172,45.1500366],[-93.8864714,45.1499981],[-93.8854888,45.149469],[-93.8848535,45.1489878],[-93.8845761,45.1487982],[-93.8841243,45.1483095],[-93.883693,45.1478428],[-93.8833394,45.1471794],[-93.8831854,45.1469863],[-93.8829542,45.1468002],[-93.8827538,45.146698],[-93.882589,45.1467598],[-93.8824152,45.1468392],[-93.8822186,45.1467922],[-93.8821364,45.1467229],[-93.8822344,45.1466174],[-93.8823462,45.1465456],[-93.8825279,45.146098],[-93.8827542,45.1459064],[-93.8830933,45.1457948],[-93.8835,45.1457792],[-93.8839285,45.1458069],[-93.8839174,45.143918],[-93.8792011,45.1439633],[-93.8735793,45.1440278],[-93.8735793,45.1440278],[-93.8735747,45.1422247],[-93.8757231,45.1422173],[-93.8757131,45.1379317],[-93.8757131,45.1379317],[-93.8742419,45.1379049],[-93.873967,45.1380285],[-93.873565,45.1381882],[-93.8730804,45.1383522],[-93.8726441,45.1384748],[-93.8721891,45.1385811],[-93.8712198,45.1387377],[-93.8703931,45.1388227],[-93.8698899,45.1388473],[-93.8695527,45.13884],[-93.8693127,45.1388229],[-93.8689471,45.1387861],[-93.8685577,45.140403],[-93.8688528,45.1404039],[-93.8687239,45.1409599],[-93.8686048,45.141748],[-93.8685719,45.1423455],[-93.8685818,45.1428733],[-93.8688181,45.1476677],[-93.8684836,45.1476715],[-93.8684955,45.1479537],[-93.8669014,45.1479775],[-93.8668644,45.1468372],[-93.8624977,45.1468933],[-93.8628913,45.1473552],[-93.8631398,45.1479299],[-93.8633456,45.1490058],[-93.863448,45.1498904],[-93.8636549,45.1504064],[-93.8638621,45.1507748],[-93.8640286,45.1509374],[-93.8641092,45.1510484],[-93.8643585,45.1518036],[-93.8642055,45.1533836],[-93.8642036,45.1542266],[-93.8643516,45.1546568],[-93.8643509,45.1549221],[-93.8641416,45.15528],[-93.8635145,45.1560168],[-93.8634539,45.156465],[-93.8634531,45.1567963],[-93.8633629,45.1571965],[-93.8626772,45.1575117],[-93.8617309,45.15764],[-93.8617476,45.1595282],[-93.8621632,45.1598101],[-93.8620878,45.1610248],[-93.8610967,45.1610015],[-93.8611715,45.1591997],[-93.8609722,45.1591003],[-93.8579789,45.157663],[-93.8577949,45.1627168],[-93.8577949,45.1627169],[-93.8577706,45.1633849],[-93.8574058,45.162758],[-93.8569352,45.1619492],[-93.8563949,45.1611236],[-93.8557244,45.1603493],[-93.855252,45.1599127],[-93.851017,45.1563438],[-93.8477515,45.153593],[-93.8447918,45.1511023],[-93.8426822,45.1511008],[-93.8413877,45.1510997],[-93.8414048,45.1523067],[-93.8408527,45.1523063],[-93.8403731,45.1538639],[-93.8404087,45.1552882],[-93.8412227,45.1552777],[-93.8412297,45.1555747],[-93.8424281,45.1558359],[-93.8423838,45.1580061],[-93.8415446,45.1579997],[-93.8415399,45.1582935],[-93.841191,45.1582909],[-93.841182,45.1588385],[-93.8423332,45.158848],[-93.842283,45.1619145],[-93.8373826,45.1618803],[-93.8373268,45.1654976],[-93.8424171,45.1655317],[-93.8424034,45.1665008],[-93.8447215,45.1665193],[-93.8445308,45.1655458],[-93.8446645,45.1655466],[-93.8443532,45.1639457],[-93.844366,45.1631724],[-93.8443755,45.1631723],[-93.8443778,45.1630269],[-93.847394,45.1630482],[-93.8473696,45.1644693],[-93.8472971,45.164469],[-93.847283,45.165236],[-93.8470872,45.165372],[-93.8468747,45.1653705],[-93.8468692,45.1657297],[-93.8473095,45.1660315],[-93.8472962,45.1669363],[-93.8473299,45.166937],[-93.8472966,45.1691776],[-93.8471794,45.1780726],[-93.8456138,45.1780649],[-93.8455931,45.1797817],[-93.8422184,45.1797652],[-93.842216,45.1799435],[-93.8383955,45.1799243],[-93.8360495,45.17991],[-93.827036,45.1798438],[-93.8269157,45.179844],[-93.8269624,45.1941451],[-93.8269439,45.1987064],[-93.8269382,45.2013619],[-93.8269187,45.2049712],[-93.8268992,45.2086693],[-93.8283867,45.2086859],[-93.8353769,45.2087709],[-93.8354171,45.2122372],[-93.8442808,45.2122904],[-93.8441039,45.2122256],[-93.8439748,45.2120371],[-93.8438177,45.2118369],[-93.8437229,45.2117982],[-93.8436341,45.2117538],[-93.8433947,45.2116627],[-93.8432526,45.211572],[-93.8432483,45.2113973],[-93.8432809,45.2111263],[-93.8433979,45.2109223],[-93.8436744,45.2105989],[-93.8439515,45.210434],[-93.8441098,45.2103752],[-93.8445015,45.2104198],[-93.8448449,45.2104346],[-93.8451681,45.2105064],[-93.8454811,45.2105854],[-93.8458443,45.2107859],[-93.8458437,45.2110001],[-93.8457622,45.2112714],[-93.8454072,45.2117852],[-93.845255,45.2120135],[-93.8454064,45.2120566],[-93.8457352,45.211804],[-93.8461557,45.2114934],[-93.8463388,45.2110365],[-93.8465518,45.2107297],[-93.8470377,45.2103589],[-93.8474241,45.2102093],[-93.8476873,45.2100575],[-93.8479543,45.2098584],[-93.8482009,45.209613],[-93.8482969,45.2092747],[-93.8485231,45.2091304],[-93.8487788,45.2091328],[-93.8490413,45.2092117],[-93.8489699,45.2094687],[-93.8489089,45.2096612],[-93.8489775,45.2096833],[-93.8493768,45.2097285],[-93.8498691,45.2097411],[-93.8502447,45.2095478],[-93.8505274,45.2095242],[-93.8508824,45.2095449],[-93.8511633,45.2096364],[-93.8514249,45.2095933],[-93.8515643,45.2094152],[-93.8517559,45.2094106],[-93.8519051,45.2094707],[-93.8521398,45.2096679],[-93.8527142,45.2096726],[-93.8527232,45.2091239],[-93.8536918,45.2091297],[-93.8538781,45.2089888],[-93.8540589,45.2088605],[-93.8542493,45.2088588],[-93.8543407,45.2087999],[-93.8544071,45.2087665],[-93.8546417,45.2086603],[-93.8558387,45.2081504],[-93.8563221,45.2079497],[-93.8573206,45.2075353],[-93.8583144,45.2071061],[-93.8590345,45.2067641],[-93.8597156,45.2064205],[-93.8607076,45.2059548],[-93.8613436,45.2057092],[-93.8620418,45.2057692],[-93.861211,45.2064484],[-93.8599166,45.2075063],[-93.8613239,45.2088275],[-93.8660872,45.2088266],[-93.8680157,45.2088259],[-93.8680091,45.2062934],[-93.8680013,45.2031447],[-93.8679973,45.2016675],[-93.8702752,45.2016736],[-93.870277,45.2017069],[-93.8749266,45.2016858],[-93.8749385,45.2030404],[-93.8743184,45.2030434],[-93.874331,45.2055277],[-93.8782011,45.2055097],[-93.8781857,45.2020284],[-93.8776096,45.2020297],[-93.8776085,45.2014135],[-93.8730899,45.2014338],[-93.87309,45.2014802],[-93.8712127,45.2014887],[-93.8711985,45.199765],[-93.8730764,45.1997565],[-93.8730587,45.1975598],[-93.8743839,45.1975537],[-93.8743727,45.1961549],[-93.8781613,45.1961375],[-93.8781534,45.1943396],[-93.8781536,45.1943396],[-93.8886857,45.1942839],[-93.8886829,45.1934611],[-93.8890708,45.1934591],[-93.8890694,45.1930477],[-93.8897675,45.193044],[-93.8897626,45.1916215],[-93.889762,45.1914453],[-93.8895483,45.1913346],[-93.8894209,45.1912686],[-93.8875593,45.1903044],[-93.8874063,45.1902247],[-93.887264,45.1901493],[-93.8871069,45.1900645],[-93.8867542,45.1919267],[-93.8853963,45.191785],[-93.885293,45.1917743],[-93.8849222,45.1916939],[-93.8859273,45.1893737],[-93.8858521,45.1893257],[-93.8858521,45.1893257],[-93.8897548,45.1893191],[-93.8897548,45.1893191],[-93.8897706,45.1870165],[-93.8997951,45.1870339],[-93.8998139,45.1798693],[-93.910021,45.1798951],[-93.9100664,45.1769055],[-93.9100664,45.1769055]],[[-93.8928521,45.1756019],[-93.8927707,45.1759983],[-93.8927688,45.1764826],[-93.8919478,45.1764774],[-93.8921664,45.1755242],[-93.8928521,45.1756019]],[[-93.8286529,45.207454],[-93.8286472,45.2085081],[-93.8271557,45.2084897],[-93.8271615,45.2074355],[-93.8286529,45.207454]],[[-93.8282501,45.1977653],[-93.8282981,45.1979217],[-93.8287926,45.1981913],[-93.828833,45.1982026],[-93.8288297,45.1991832],[-93.8272676,45.1991692],[-93.8272725,45.1977566],[-93.8282501,45.1977653]],[[-93.8322047,45.1942836],[-93.8321905,45.1958112],[-93.829327,45.1957855],[-93.8293617,45.194257],[-93.8322047,45.1942836]],[[-93.8527902,45.1584772],[-93.8527214,45.161031],[-93.8510158,45.1610384],[-93.8510889,45.1583238],[-93.8502137,45.1583276],[-93.8502139,45.1580758],[-93.8514538,45.1573521],[-93.8527902,45.1584772]],[[-93.8628951,45.1779763],[-93.8628937,45.1798813],[-93.8619242,45.1798812],[-93.8619243,45.1798346],[-93.854682,45.1798331],[-93.854682,45.1798057],[-93.8545365,45.1797982],[-93.8543709,45.1797706],[-93.8542359,45.1797315],[-93.8541306,45.1796886],[-93.8539624,45.1795898],[-93.8538549,45.1794966],[-93.8550824,45.1790044],[-93.8552575,45.1789451],[-93.8555125,45.1788789],[-93.8557381,45.1788381],[-93.8613133,45.178337],[-93.8616453,45.1783066],[-93.8618396,45.1782806],[-93.8619824,45.1782555],[-93.8621236,45.1782253],[-93.8622688,45.1781887],[-93.862467,45.1781287],[-93.8628951,45.1779763]],[[-93.8525983,45.1656031],[-93.8525733,45.1691908],[-93.8476149,45.1691791],[-93.8476493,45.1669391],[-93.8477613,45.1669396],[-93.8477752,45.1660348],[-93.8481663,45.1657637],[-93.8481686,45.1655719],[-93.8481692,45.1655706],[-93.8525983,45.1656031]],[[-93.8295894,45.1891856],[-93.8296,45.1906168],[-93.8321677,45.1906371],[-93.832201,45.1937399],[-93.8322046,45.1941026],[-93.8322045,45.1941026],[-93.8272838,45.1940565],[-93.8272483,45.1891096],[-93.8295894,45.1891856]],[[-93.8597171,45.1763655],[-93.8597156,45.1781473],[-93.8597215,45.1781485],[-93.8556609,45.1785133],[-93.8554945,45.1785405],[-93.8551697,45.1786149],[-93.8548972,45.1787016],[-93.8527298,45.1795701],[-93.8523702,45.1796893],[-93.8520036,45.1797654],[-93.8517013,45.1797977],[-93.8515486,45.1798042],[-93.8496075,45.1798044],[-93.8496075,45.1798045],[-93.8496074,45.179825],[-93.847714,45.1798245],[-93.847523,45.1796883],[-93.847539,45.1783489],[-93.847496,45.1783489],[-93.8474984,45.1781736],[-93.8499246,45.1781709],[-93.8499438,45.1763772],[-93.8597171,45.1763655]],[[-93.86289,45.1804051],[-93.8628753,45.1829506],[-93.8610914,45.1829475],[-93.8597673,45.1829454],[-93.8597134,45.1878135],[-93.8597199,45.1883587],[-93.859533,45.1883349],[-93.8593462,45.1883143],[-93.8591888,45.1882997],[-93.8589702,45.1882829],[-93.8589478,45.1878469],[-93.8582833,45.1878492],[-93.8582933,45.1882569],[-93.8566402,45.1882086],[-93.8565575,45.1882105],[-93.8562014,45.1882339],[-93.855981,45.1882617],[-93.8558502,45.1882834],[-93.8525267,45.1889779],[-93.8525235,45.1871848],[-93.8475246,45.1871816],[-93.8474854,45.1814087],[-93.8475293,45.1814092],[-93.8475218,45.1802834],[-93.8477117,45.1801468],[-93.8496049,45.1801336],[-93.8496051,45.1801061],[-93.8625047,45.1801089],[-93.8625023,45.1804051],[-93.86289,45.1804051]]],[[[-93.9094053,45.1923946],[-93.9094391,45.1906634],[-93.9068607,45.1906555],[-93.9068805,45.1888639],[-93.9046574,45.1888571],[-93.9046774,45.1870508],[-93.8997951,45.1870339],[-93.8997857,45.1906337],[-93.9046124,45.1906486],[-93.9045726,45.1942465],[-93.9045607,45.1977171],[-93.9093742,45.1976758],[-93.9093689,45.1942594],[-93.9093876,45.1932996],[-93.9081078,45.1932871],[-93.9081255,45.1923822],[-93.9094053,45.1923946]]],[[[-93.9030941,45.1739418],[-93.9021147,45.1725659],[-93.9019409,45.1726346],[-93.9014505,45.1730546],[-93.9013496,45.1732327],[-93.9012229,45.1733485],[-93.901141,45.173485],[-93.9010462,45.1736427],[-93.900856,45.1743379],[-93.9006158,45.1747299],[-93.9004851,45.1748465],[-93.900501,45.1748642],[-93.9006558,45.1750358],[-93.9023315,45.1742835],[-93.9030941,45.1739418]]],[[[-93.9091061,45.1721063],[-93.9090849,45.171849],[-93.9089914,45.171613],[-93.9089215,45.1712967],[-93.9087133,45.1710491],[-93.9083647,45.1708952],[-93.907476,45.1713523],[-93.9077677,45.1716849],[-93.9076646,45.1717267],[-93.9078909,45.1720309],[-93.9080751,45.1720146],[-93.9082978,45.1720097],[-93.9085525,45.172023],[-93.9091061,45.1721063]]],[[[-93.786899,45.2375874],[-93.806905,45.2376599],[-93.8069716,45.2376596],[-93.847664,45.237725],[-93.8478691,45.2377247],[-93.868024,45.2377174],[-93.8682035,45.2377175],[-93.8731678,45.2377463],[-93.8899351,45.2378866],[-93.8898751,45.2232719],[-93.8898751,45.2232718],[-93.8898996,45.2087292],[-93.8898996,45.2087292],[-93.8897717,45.1942781],[-93.8897675,45.193044],[-93.8890694,45.1930477],[-93.8890708,45.1934591],[-93.8886829,45.1934611],[-93.8886857,45.1942839],[-93.8781536,45.1943396],[-93.8781534,45.1943396],[-93.8781613,45.1961375],[-93.8743727,45.1961549],[-93.8743839,45.1975537],[-93.8730587,45.1975598],[-93.8730764,45.1997565],[-93.8711985,45.199765],[-93.8712127,45.2014887],[-93.87309,45.2014802],[-93.8730899,45.2014338],[-93.8776085,45.2014135],[-93.8776096,45.2020297],[-93.8781857,45.2020284],[-93.8782011,45.2055097],[-93.874331,45.2055277],[-93.8743184,45.2030434],[-93.8749385,45.2030404],[-93.8749266,45.2016858],[-93.870277,45.2017069],[-93.8702752,45.2016736],[-93.8679973,45.2016675],[-93.8680013,45.2031447],[-93.8680091,45.2062934],[-93.8680157,45.2088259],[-93.8660872,45.2088266],[-93.8613239,45.2088275],[-93.8599166,45.2075063],[-93.861211,45.2064484],[-93.8620418,45.2057692],[-93.8613436,45.2057092],[-93.8607076,45.2059548],[-93.8597156,45.2064205],[-93.8590345,45.2067641],[-93.8583144,45.2071061],[-93.8573206,45.2075353],[-93.8563221,45.2079497],[-93.8558387,45.2081504],[-93.8546417,45.2086603],[-93.8544071,45.2087665],[-93.8543407,45.2087999],[-93.8542493,45.2088588],[-93.8540589,45.2088605],[-93.8538781,45.2089888],[-93.8536918,45.2091297],[-93.8527232,45.2091239],[-93.8527142,45.2096726],[-93.8521398,45.2096679],[-93.8519051,45.2094707],[-93.8517559,45.2094106],[-93.8515643,45.2094152],[-93.8514249,45.2095933],[-93.8511633,45.2096364],[-93.8508824,45.2095449],[-93.8505274,45.2095242],[-93.8502447,45.2095478],[-93.8498691,45.2097411],[-93.8493768,45.2097285],[-93.8489775,45.2096833],[-93.8489089,45.2096612],[-93.8489699,45.2094687],[-93.8490413,45.2092117],[-93.8487788,45.2091328],[-93.8485231,45.2091304],[-93.8482969,45.2092747],[-93.8482009,45.209613],[-93.8479543,45.2098584],[-93.8476873,45.2100575],[-93.8474241,45.2102093],[-93.8470377,45.2103589],[-93.8465518,45.2107297],[-93.8463388,45.2110365],[-93.8461557,45.2114934],[-93.8457352,45.211804],[-93.8454064,45.2120566],[-93.845255,45.2120135],[-93.8454072,45.2117852],[-93.8457622,45.2112714],[-93.8458437,45.2110001],[-93.8458443,45.2107859],[-93.8454811,45.2105854],[-93.8451681,45.2105064],[-93.8448449,45.2104346],[-93.8445015,45.2104198],[-93.8441098,45.2103752],[-93.8439515,45.210434],[-93.8436744,45.2105989],[-93.8433979,45.2109223],[-93.8432809,45.2111263],[-93.8432483,45.2113973],[-93.8432526,45.211572],[-93.8433947,45.2116627],[-93.8436341,45.2117538],[-93.8437229,45.2117982],[-93.8438177,45.2118369],[-93.8439748,45.2120371],[-93.8441039,45.2122256],[-93.8442808,45.2122904],[-93.8354171,45.2122372],[-93.8353769,45.2087709],[-93.8283867,45.2086859],[-93.8268992,45.2086693],[-93.8269187,45.2049712],[-93.8269382,45.2013619],[-93.8269439,45.1987064],[-93.8269624,45.1941451],[-93.8269157,45.179844],[-93.827036,45.1798438],[-93.8360495,45.17991],[-93.8383955,45.1799243],[-93.842216,45.1799435],[-93.8422184,45.1797652],[-93.8455931,45.1797817],[-93.8456138,45.1780649],[-93.8471794,45.1780726],[-93.8472966,45.1691776],[-93.8473299,45.166937],[-93.8472962,45.1669363],[-93.8473095,45.1660315],[-93.8468692,45.1657297],[-93.8468747,45.1653705],[-93.8470872,45.165372],[-93.847283,45.165236],[-93.8472971,45.164469],[-93.8473696,45.1644693],[-93.847394,45.1630482],[-93.8443778,45.1630269],[-93.8443755,45.1631723],[-93.844366,45.1631724],[-93.8443532,45.1639457],[-93.8446645,45.1655466],[-93.8445308,45.1655458],[-93.8447215,45.1665193],[-93.8424034,45.1665008],[-93.8424171,45.1655317],[-93.8373268,45.1654976],[-93.8373826,45.1618803],[-93.842283,45.1619145],[-93.8423332,45.158848],[-93.841182,45.1588385],[-93.841191,45.1582909],[-93.8415399,45.1582935],[-93.8415446,45.1579997],[-93.8423838,45.1580061],[-93.8424281,45.1558359],[-93.8412297,45.1555747],[-93.8412227,45.1552777],[-93.8404087,45.1552882],[-93.8403731,45.1538639],[-93.8408527,45.1523063],[-93.8414048,45.1523067],[-93.8413877,45.1510997],[-93.8375509,45.1510969],[-93.8273338,45.1509687],[-93.8067896,45.1508338],[-93.7863077,45.1509164],[-93.7659769,45.1511138],[-93.7658867,45.1655293],[-93.7658867,45.1655293],[-93.7659207,45.1801672],[-93.7659207,45.1801672],[-93.7659998,45.1946295],[-93.7659998,45.1946296],[-93.7659034,45.2090007],[-93.7659034,45.2090007],[-93.765769,45.237998],[-93.7864514,45.2375857],[-93.786899,45.2375874]]],[[[-93.8502139,45.1580758],[-93.8502137,45.1583276],[-93.8510889,45.1583238],[-93.8510158,45.1610384],[-93.8527214,45.161031],[-93.8527902,45.1584772],[-93.8514538,45.1573521],[-93.8502139,45.1580758]]],[[[-93.855252,45.1599127],[-93.8557244,45.1603493],[-93.8563949,45.1611236],[-93.8569352,45.1619492],[-93.8574058,45.162758],[-93.8577706,45.1633849],[-93.8577949,45.1627169],[-93.8577949,45.1627168],[-93.8579789,45.157663],[-93.8609722,45.1591003],[-93.8611715,45.1591997],[-93.8610967,45.1610015],[-93.8620878,45.1610248],[-93.8621632,45.1598101],[-93.8617476,45.1595282],[-93.8617309,45.15764],[-93.8626772,45.1575117],[-93.8633629,45.1571965],[-93.8634531,45.1567963],[-93.8634539,45.156465],[-93.8635145,45.1560168],[-93.8641416,45.15528],[-93.8643509,45.1549221],[-93.8643516,45.1546568],[-93.8642036,45.1542266],[-93.8642055,45.1533836],[-93.8643585,45.1518036],[-93.8641092,45.1510484],[-93.8478395,45.1510882],[-93.8447918,45.1511023],[-93.8477515,45.153593],[-93.851017,45.1563438],[-93.855252,45.1599127]]],[[[-93.8476149,45.1691791],[-93.8525733,45.1691908],[-93.8525983,45.1656031],[-93.8481692,45.1655706],[-93.8481686,45.1655719],[-93.8481663,45.1657637],[-93.8477752,45.1660348],[-93.8477613,45.1669396],[-93.8476493,45.1669391],[-93.8476149,45.1691791]]],[[[-93.8844615,45.1750486],[-93.8850434,45.1751714],[-93.8856257,45.1752698],[-93.8865479,45.1753275],[-93.8872023,45.1753673],[-93.8874704,45.1753145],[-93.8878008,45.1751825],[-93.8880875,45.1751033],[-93.8883493,45.1750726],[-93.8886235,45.1750154],[-93.8888602,45.1749203],[-93.8888727,45.17513],[-93.8897579,45.17491],[-93.8897536,45.1746867],[-93.889894,45.1517979],[-93.8897629,45.1523915],[-93.8835937,45.1747292],[-93.8844615,45.1750486]]],[[[-93.847714,45.1798245],[-93.8496074,45.179825],[-93.8496075,45.1798045],[-93.8496075,45.1798044],[-93.8515486,45.1798042],[-93.8517013,45.1797977],[-93.8520036,45.1797654],[-93.8523702,45.1796893],[-93.8527298,45.1795701],[-93.8548972,45.1787016],[-93.8551697,45.1786149],[-93.8554945,45.1785405],[-93.8556609,45.1785133],[-93.8597215,45.1781485],[-93.8597156,45.1781473],[-93.8597171,45.1763655],[-93.8499438,45.1763772],[-93.8499246,45.1781709],[-93.8474984,45.1781736],[-93.847496,45.1783489],[-93.847539,45.1783489],[-93.847523,45.1796883],[-93.847714,45.1798245]]],[[[-93.862467,45.1781287],[-93.8622688,45.1781887],[-93.8621236,45.1782253],[-93.8619824,45.1782555],[-93.8618396,45.1782806],[-93.8616453,45.1783066],[-93.8613133,45.178337],[-93.8557381,45.1788381],[-93.8555125,45.1788789],[-93.8552575,45.1789451],[-93.8550824,45.1790044],[-93.8538549,45.1794966],[-93.8539624,45.1795898],[-93.8541306,45.1796886],[-93.8542359,45.1797315],[-93.8543709,45.1797706],[-93.8545365,45.1797982],[-93.854682,45.1798057],[-93.854682,45.1798331],[-93.8619243,45.1798346],[-93.8619242,45.1798812],[-93.8628937,45.1798813],[-93.8628951,45.1779763],[-93.862467,45.1781287]]],[[[-93.8525267,45.1889779],[-93.8558502,45.1882834],[-93.855981,45.1882617],[-93.8562014,45.1882339],[-93.8565575,45.1882105],[-93.8566402,45.1882086],[-93.8582933,45.1882569],[-93.8582833,45.1878492],[-93.8589478,45.1878469],[-93.8589702,45.1882829],[-93.8591888,45.1882997],[-93.8593462,45.1883143],[-93.859533,45.1883349],[-93.8597199,45.1883587],[-93.8597134,45.1878135],[-93.8597673,45.1829454],[-93.8610914,45.1829475],[-93.8628753,45.1829506],[-93.86289,45.1804051],[-93.8625023,45.1804051],[-93.8625047,45.1801089],[-93.8496051,45.1801061],[-93.8496049,45.1801336],[-93.8477117,45.1801468],[-93.8475218,45.1802834],[-93.8475293,45.1814092],[-93.8474854,45.1814087],[-93.8475246,45.1871816],[-93.8525235,45.1871848],[-93.8525267,45.1889779]]],[[[-93.8849222,45.1916939],[-93.885293,45.1917743],[-93.8853963,45.191785],[-93.8867542,45.1919267],[-93.8871069,45.1900645],[-93.887264,45.1901493],[-93.8874063,45.1902247],[-93.8875593,45.1903044],[-93.8894209,45.1912686],[-93.8895483,45.1913346],[-93.889762,45.1914453],[-93.8897548,45.1893191],[-93.8858521,45.1893257],[-93.8858521,45.1893257],[-93.8859273,45.1893737],[-93.8849222,45.1916939]]],[[[-93.8272838,45.1940565],[-93.8322045,45.1941026],[-93.8322046,45.1941026],[-93.832201,45.1937399],[-93.8321677,45.1906371],[-93.8296,45.1906168],[-93.8295894,45.1891856],[-93.8272483,45.1891096],[-93.8272838,45.1940565]]],[[[-93.829327,45.1957855],[-93.8321905,45.1958112],[-93.8322047,45.1942836],[-93.8293617,45.194257],[-93.829327,45.1957855]]],[[[-93.8272676,45.1991692],[-93.8288297,45.1991832],[-93.828833,45.1982026],[-93.8287926,45.1981913],[-93.8282981,45.1979217],[-93.8282501,45.1977653],[-93.8272725,45.1977566],[-93.8272676,45.1991692]]],[[[-93.8271557,45.2084897],[-93.8286472,45.2085081],[-93.8286529,45.207454],[-93.8271615,45.2074355],[-93.8271557,45.2084897]]]]}}]}