{"type":"FeatureCollection","name":"burnsville_border","features":[{"type":"Feature","properties":{"GNIS_FEATURE_ID":2393472,"FEATURE_NAME":"burnsville","CTU_CLASS":"CITY","COUNTY_GNIS_FEATURE_ID":659464,"COUNTY_CODE":"19","COUNTY_NAME":"Dakota","POPULATION":64522,"SE_ANNO_CAD_DATA":null},"geometry":{"type":"Polygon","coordinates":[[[-93.222805,44.7758341],[-93.2278462,44.7757671],[-93.2278285,44.7902411],[-93.2277701,44.8049242],[-93.2277019,44.8192229],[-93.2276115,44.8291388],[-93.2290993,44.8285221],[-93.2298539,44.8281788],[-93.2316642,44.8270949],[-93.2333751,44.8259714],[-93.2342985,44.8252841],[-93.2352717,44.8244325],[-93.2361595,44.823602],[-93.2371497,44.8226682],[-93.2377622,44.8221093],[-93.238488,44.8212879],[-93.239133,44.820647],[-93.240675,44.8194721],[-93.2421569,44.8185985],[-93.243247,44.8180392],[-93.2442598,44.8174956],[-93.2455468,44.8167243],[-93.2466301,44.8161265],[-93.2474734,44.8155699],[-93.2482771,44.8150789],[-93.2489971,44.8145265],[-93.2494829,44.8141309],[-93.2500492,44.8135604],[-93.2502454,44.8133369],[-93.2504855,44.8131427],[-93.2509588,44.8126732],[-93.2514558,44.8121215],[-93.2526309,44.8114741],[-93.2542583,44.8110264],[-93.2573808,44.8103057],[-93.2593465,44.8098869],[-93.2610645,44.8096315],[-93.2626763,44.8092055],[-93.2647507,44.8086335],[-93.2671022,44.8080736],[-93.2683585,44.807816],[-93.2701087,44.8073796],[-93.2716959,44.807107],[-93.2735903,44.806929],[-93.2747138,44.8069121],[-93.2758843,44.8067911],[-93.2771478,44.8065938],[-93.2780253,44.8065538],[-93.2797032,44.8064954],[-93.2806119,44.8063952],[-93.2819218,44.806154],[-93.2827785,44.8058288],[-93.2835213,44.8052889],[-93.2841261,44.8046827],[-93.284585,44.8040538],[-93.2848156,44.8030838],[-93.2852452,44.8022464],[-93.2858256,44.8018101],[-93.2867683,44.801282],[-93.2880723,44.800805],[-93.2890828,44.8004528],[-93.290532,44.800086],[-93.2918273,44.7997187],[-93.2931529,44.7994281],[-93.2940013,44.7991575],[-93.2958218,44.7985071],[-93.2976661,44.7977743],[-93.2989863,44.7971546],[-93.3002366,44.7966223],[-93.3011327,44.796116],[-93.3023825,44.795633],[-93.3031471,44.7952358],[-93.3041746,44.7946586],[-93.3049306,44.7943766],[-93.3063024,44.7940476],[-93.3075568,44.7939761],[-93.3089512,44.7936912],[-93.3100146,44.7934543],[-93.3116874,44.7929894],[-93.3126887,44.7928071],[-93.3137671,44.792614],[-93.3147827,44.7926018],[-93.3169742,44.792726],[-93.3192349,44.7928559],[-93.3203425,44.7928769],[-93.3226435,44.7927601],[-93.3243132,44.7926955],[-93.3259367,44.7926637],[-93.326815,44.7924642],[-93.3277866,44.7921389],[-93.3287668,44.7916602],[-93.3294315,44.7912075],[-93.3296385,44.7910808],[-93.3296555,44.7903901],[-93.3296386,44.7758351],[-93.3287343,44.7758243],[-93.3287043,44.7499755],[-93.3286358,44.7452718],[-93.3284848,44.731948],[-93.3284778,44.7175513],[-93.3183406,44.7175386],[-93.2812445,44.7174479],[-93.2780017,44.7174395],[-93.2715429,44.7174329],[-93.2527093,44.7174117],[-93.2484364,44.7174065],[-93.248375,44.7318913],[-93.2483513,44.7390798],[-93.2482805,44.7463984],[-93.2481902,44.7536221],[-93.248155,44.7539619],[-93.2480577,44.7539828],[-93.2479891,44.7540057],[-93.2479033,44.7540344],[-93.2478119,44.7540652],[-93.2477434,44.7540883],[-93.2476578,44.7541172],[-93.2475435,44.7541567],[-93.2476174,44.7542995],[-93.2478523,44.7546766],[-93.2479758,44.7549506],[-93.2480545,44.7552448],[-93.2481206,44.7555976],[-93.248143,44.7559727],[-93.2481413,44.7560619],[-93.2480673,44.759753],[-93.2429459,44.7630554],[-93.222805,44.7758341]]]}}]}