{"type":"FeatureCollection","name":"carver_border","features":[{"type":"Feature","properties":{"GNIS_FEATURE_ID":2393762,"FEATURE_NAME":"carver","CTU_CLASS":"CITY","COUNTY_GNIS_FEATURE_ID":659455,"COUNTY_CODE":"10","COUNTY_NAME":"Carver","POPULATION":6371,"SE_ANNO_CAD_DATA":null},"geometry":{"type":"MultiPolygon","coordinates":[[[[-93.6632758,44.765031],[-93.6632146,44.7614769],[-93.6616754,44.7615188],[-93.6617139,44.7637598],[-93.6600936,44.7638039],[-93.6580163,44.7649977],[-93.6547225,44.7629314],[-93.6549094,44.7621137],[-93.6549371,44.7619923],[-93.6549558,44.7619097],[-93.6549649,44.7618551],[-93.6549699,44.7618002],[-93.654971,44.7617567],[-93.6549697,44.7617172],[-93.6548944,44.7608822],[-93.6542337,44.7611042],[-93.6541195,44.7611398],[-93.6540225,44.7611658],[-93.6540153,44.761745],[-93.6540032,44.7627076],[-93.6539932,44.7630214],[-93.6539607,44.7637837],[-93.653936,44.7653319],[-93.6539302,44.7656947],[-93.6531166,44.7656939],[-93.6525339,44.7658078],[-93.6515835,44.7658069],[-93.6510203,44.7658709],[-93.6504466,44.7660242],[-93.6496801,44.7663144],[-93.6494193,44.766361],[-93.6490301,44.7663586],[-93.6490409,44.7654643],[-93.6494957,44.7627678],[-93.6495063,44.7616661],[-93.6494301,44.7616626],[-93.6494391,44.7607674],[-93.6479169,44.7610902],[-93.6479096,44.7618354],[-93.6447389,44.7617188],[-93.6447491,44.7603471],[-93.6447536,44.7597549],[-93.64478,44.7589435],[-93.6427934,44.7589955],[-93.6428095,44.7547579],[-93.6428536,44.752304],[-93.6429015,44.7522449],[-93.6429513,44.7521866],[-93.6430032,44.7521292],[-93.643057,44.7520727],[-93.6431127,44.7520171],[-93.6431703,44.7519626],[-93.6432298,44.751909],[-93.6432911,44.7518566],[-93.6433542,44.7518052],[-93.643419,44.7517549],[-93.6434856,44.7517058],[-93.6435538,44.7516579],[-93.6436237,44.7516111],[-93.6436951,44.7515656],[-93.6437681,44.7515214],[-93.6438426,44.7514785],[-93.6439185,44.7514368],[-93.6439959,44.7513965],[-93.6440746,44.7513576],[-93.6441546,44.7513201],[-93.6442359,44.7512839],[-93.6443185,44.7512492],[-93.6444022,44.751216],[-93.644487,44.7511842],[-93.6445728,44.7511539],[-93.6446597,44.7511252],[-93.6447476,44.7510979],[-93.6448363,44.7510722],[-93.644926,44.7510481],[-93.6450164,44.7510255],[-93.6451076,44.7510045],[-93.6451995,44.7509851],[-93.645292,44.7509674],[-93.6477153,44.7505245],[-93.6481517,44.7503984],[-93.6485517,44.7504938],[-93.6488554,44.7505384],[-93.6492435,44.7505441],[-93.6495311,44.7505104],[-93.6498239,44.7504401],[-93.6501315,44.7503193],[-93.6503319,44.7502062],[-93.6506148,44.7499916],[-93.6508978,44.7497557],[-93.6509431,44.749853],[-93.6509926,44.7498098],[-93.6515451,44.7502243],[-93.6518989,44.749855],[-93.6524147,44.7493167],[-93.6523471,44.749272],[-93.6516709,44.7490198],[-93.6518203,44.748818],[-93.652003,44.7485619],[-93.6521253,44.7485992],[-93.6532239,44.7489321],[-93.6532451,44.74724],[-93.6529374,44.74725],[-93.652108,44.7484091],[-93.6504405,44.7472653],[-93.6513508,44.7470498],[-93.6517391,44.7466214],[-93.6517317,44.7461423],[-93.6519659,44.7452081],[-93.653961,44.7461533],[-93.655054,44.7449875],[-93.6533203,44.7439874],[-93.6533184,44.7440696],[-93.6527414,44.7440649],[-93.6527516,44.7436213],[-93.6495791,44.7437093],[-93.6429359,44.7438933],[-93.6429254,44.7329431],[-93.6288293,44.7327761],[-93.6297755,44.7346309],[-93.6303295,44.7354286],[-93.6309696,44.7365557],[-93.6311227,44.7369553],[-93.6312428,44.7373667],[-93.6312954,44.7376491],[-93.6312317,44.7380492],[-93.6309239,44.7387038],[-93.6306958,44.7390214],[-93.6306442,44.7390808],[-93.6304214,44.7393262],[-93.6295863,44.7400257],[-93.6281941,44.7411639],[-93.6277515,44.7414961],[-93.6272753,44.7417578],[-93.6267175,44.7421378],[-93.6263247,44.7424932],[-93.6254604,44.7434713],[-93.6252327,44.7437291],[-93.6246907,44.744198],[-93.624085,44.7447313],[-93.6236512,44.7451441],[-93.623515,44.7452773],[-93.623315,44.7455282],[-93.6231416,44.7457475],[-93.6230388,44.7458791],[-93.622596,44.7466321],[-93.6218821,44.7477222],[-93.6217897,44.7479074],[-93.6217579,44.7479711],[-93.6216298,44.7483808],[-93.6216126,44.7484698],[-93.621502,44.7491261],[-93.6214252,44.7499115],[-93.6214208,44.7499675],[-93.6214195,44.7502288],[-93.6214184,44.7504458],[-93.6214062,44.7506334],[-93.6213756,44.7510702],[-93.6213857,44.7512031],[-93.6214019,44.7513258],[-93.6214177,44.7514462],[-93.6214678,44.7515762],[-93.6216008,44.7519287],[-93.6218889,44.7525984],[-93.6219408,44.7528219],[-93.6218806,44.7530445],[-93.6217337,44.7532248],[-93.6215185,44.7534122],[-93.6212444,44.7535408],[-93.6209742,44.7536044],[-93.6207096,44.7536059],[-93.6204285,44.7535838],[-93.6201472,44.7535501],[-93.6198949,44.75349],[-93.6194012,44.7533421],[-93.618953,44.7531561],[-93.6186202,44.7529577],[-93.6183623,44.7527702],[-93.6181537,44.7526244],[-93.6176201,44.7522216],[-93.6175465,44.7521673],[-93.6171045,44.7518471],[-93.6166713,44.7515197],[-93.6163373,44.7511918],[-93.6160856,44.7508399],[-93.6159611,44.7506196],[-93.6158529,44.7504397],[-93.6156868,44.7501897],[-93.615542,44.7499706],[-93.6150509,44.7494379],[-93.6147464,44.7492336],[-93.6143217,44.7490626],[-93.6140332,44.7489901],[-93.6138187,44.7489761],[-93.6136126,44.7490396],[-93.6133405,44.7491234],[-93.6128473,44.7493615],[-93.6124188,44.7496221],[-93.6121859,44.7498179],[-93.6120024,44.7499722],[-93.6116852,44.7502374],[-93.6110747,44.7507475],[-93.6104755,44.751291],[-93.6100949,44.7516493],[-93.6098008,44.7519806],[-93.6095559,44.7522645],[-93.6093282,44.752619],[-93.6091659,44.7529631],[-93.6090799,44.7531437],[-93.6090192,44.7532798],[-93.6089061,44.7536086],[-93.6088371,44.7539234],[-93.6088151,44.7540233],[-93.6088171,44.7540765],[-93.6088363,44.7543881],[-93.6088533,44.7544526],[-93.6088991,44.7546218],[-93.6090044,44.7548938],[-93.6090391,44.7549517],[-93.609163,44.7551481],[-93.6092256,44.7552471],[-93.6095144,44.7555718],[-93.609725,44.7557731],[-93.610141,44.75603],[-93.6117369,44.7567619],[-93.6117986,44.7567894],[-93.6136119,44.7575895],[-93.6145025,44.7579594],[-93.6145909,44.7579969],[-93.6156582,44.7583846],[-93.6162195,44.7585852],[-93.6169757,44.7588179],[-93.6176613,44.759026],[-93.6180047,44.7591334],[-93.6190203,44.7594564],[-93.619965,44.7596985],[-93.6204785,44.7598017],[-93.6210713,44.7598688],[-93.6212306,44.7599109],[-93.6213395,44.7599384],[-93.6215224,44.7600433],[-93.6217556,44.760207],[-93.6218235,44.7603714],[-93.6218457,44.7605418],[-93.621877,44.7607218],[-93.6219158,44.7612778],[-93.6219047,44.7617843],[-93.6218631,44.7624675],[-93.621818,44.7626526],[-93.6217516,44.7629156],[-93.6215885,44.7631167],[-93.6212937,44.7633774],[-93.6208504,44.7636625],[-93.620588,44.7638523],[-93.6203559,44.7639521],[-93.6202584,44.7639948],[-93.6198963,44.7641615],[-93.619752,44.764219],[-93.6192591,44.7644153],[-93.6188769,44.7646036],[-93.6186472,44.7647697],[-93.6183054,44.7650211],[-93.6180931,44.765166],[-93.6179423,44.7652687],[-93.6174989,44.7655419],[-93.6173896,44.7656152],[-93.6170893,44.7658169],[-93.616958,44.7658904],[-93.6160842,44.7663723],[-93.6159344,44.7664415],[-93.6157422,44.766529],[-93.6156216,44.7665825],[-93.615345,44.7667071],[-93.6149825,44.7668151],[-93.6144716,44.7669591],[-93.6141592,44.7670027],[-93.6140403,44.7670192],[-93.6136789,44.767068],[-93.6129055,44.7671653],[-93.6122586,44.7672262],[-93.611788,44.7672428],[-93.6108216,44.767285],[-93.609582,44.7673151],[-93.6086245,44.767438],[-93.6072048,44.767634],[-93.6064458,44.7677793],[-93.6055331,44.7679721],[-93.605235,44.7680374],[-93.6051431,44.7680577],[-93.604741,44.7681669],[-93.6042193,44.7683086],[-93.603564,44.7685034],[-93.6034077,44.7685551],[-93.6027034,44.7688177],[-93.6017149,44.7692161],[-93.6010062,44.7695605],[-93.6005788,44.7697758],[-93.6003854,44.7698737],[-93.6000819,44.7700579],[-93.5998391,44.7702062],[-93.5997261,44.7702767],[-93.5991401,44.7706595],[-93.5985487,44.771086],[-93.5983079,44.7712717],[-93.5978959,44.7715975],[-93.5971881,44.7721998],[-93.5970641,44.7723187],[-93.5967152,44.7726508],[-93.595678,44.7736537],[-93.5951061,44.7743045],[-93.5945703,44.7749541],[-93.5944038,44.7751561],[-93.5942421,44.7755102],[-93.5941462,44.7758286],[-93.5941551,44.7762192],[-93.6018414,44.7761642],[-93.6122008,44.7763352],[-93.6223586,44.7765021],[-93.6425283,44.7765597],[-93.6425425,44.7754869],[-93.6427866,44.7754559],[-93.6430148,44.7760353],[-93.6429764,44.7763893],[-93.6430973,44.7764061],[-93.6440424,44.7763788],[-93.644044,44.7764062],[-93.6453902,44.7763667],[-93.6453886,44.7763392],[-93.6475019,44.7762765],[-93.6477071,44.7762712],[-93.6477149,44.7758381],[-93.6485153,44.7758147],[-93.6485069,44.7762477],[-93.6528816,44.7761197],[-93.652885,44.7756846],[-93.6538829,44.7756555],[-93.6538757,44.7762279],[-93.6580652,44.7761049],[-93.6580669,44.7759677],[-93.6569205,44.7760013],[-93.6568417,44.7753854],[-93.6569956,44.775161],[-93.6574344,44.7749894],[-93.6580793,44.7749556],[-93.65811,44.7724364],[-93.6580715,44.7724377],[-93.6581148,44.7697654],[-93.6580955,44.7697652],[-93.6581071,44.7690476],[-93.6581362,44.7684392],[-93.6581536,44.768254],[-93.6581469,44.7651914],[-93.6632758,44.765031]],[[-93.6428818,44.7507409],[-93.6437029,44.7505147],[-93.6441793,44.7503505],[-93.6444456,44.7507613],[-93.6439796,44.7509221],[-93.6441119,44.751117],[-93.6428744,44.7511505],[-93.6428818,44.7507409]]],[[[-93.6526326,44.7854104],[-93.6528531,44.7772623],[-93.6476836,44.7774383],[-93.647614,44.7808858],[-93.6476074,44.7812114],[-93.6469859,44.781207],[-93.6469236,44.7812058],[-93.6468614,44.7812032],[-93.6467993,44.7811992],[-93.6467374,44.7811937],[-93.6466759,44.7811869],[-93.6466147,44.7811786],[-93.6460999,44.7811027],[-93.6460096,44.7810902],[-93.645919,44.7810793],[-93.645828,44.78107],[-93.6457367,44.7810623],[-93.6456452,44.7810562],[-93.6455389,44.7810509],[-93.6454616,44.7810489],[-93.6453539,44.7810473],[-93.645229,44.7810493],[-93.6450607,44.7810552],[-93.6449352,44.781061],[-93.6447381,44.7810705],[-93.644571,44.7810788],[-93.6443741,44.7810877],[-93.6441832,44.7810947],[-93.6440208,44.7810977],[-93.643818,44.7810979],[-93.6428576,44.781091],[-93.6426288,44.7812496],[-93.642466,44.7812485],[-93.642466,44.7812488],[-93.6424316,44.7838388],[-93.6421695,44.7911244],[-93.6473284,44.7909502],[-93.6474534,44.790946],[-93.6475226,44.7872352],[-93.6474456,44.787234],[-93.6474685,44.7865081],[-93.6475625,44.7865065],[-93.6477389,44.7855792],[-93.6480301,44.785321],[-93.6483732,44.7851097],[-93.6485563,44.7850511],[-93.6488273,44.7849605],[-93.6491211,44.7849431],[-93.6494152,44.7849519],[-93.6526326,44.7854104]]]]}}]}