{"type":"FeatureCollection","name":"centerville_border","features":[{"type":"Feature","properties":{"GNIS_FEATURE_ID":2393784,"FEATURE_NAME":"centerville","CTU_CLASS":"CITY","COUNTY_GNIS_FEATURE_ID":659447,"COUNTY_CODE":"02","COUNTY_NAME":"Anoka","POPULATION":3912,"SE_ANNO_CAD_DATA":null},"geometry":{"type":"Polygon","coordinates":[[[-93.0407368,45.174658],[-93.0815597,45.1748353],[-93.0815966,45.1675863],[-93.0784216,45.1675495],[-93.0612114,45.1675684],[-93.061174,45.1531488],[-93.0611273,45.149478],[-93.0457735,45.1493619],[-93.0458067,45.153014],[-93.0406306,45.152968],[-93.0356817,45.1530702],[-93.0357182,45.1675814],[-93.040694,45.1675471],[-93.0407368,45.174658]]]}}]}