{"type":"FeatureCollection","name":"champlin_border","features":[{"type":"Feature","properties":{"GNIS_FEATURE_ID":2393797,"FEATURE_NAME":"champlin","CTU_CLASS":"CITY","COUNTY_GNIS_FEATURE_ID":659472,"COUNTY_CODE":"27","COUNTY_NAME":"Hennepin","POPULATION":24007,"SE_ANNO_CAD_DATA":null},"geometry":{"type":"Polygon","coordinates":[[[-93.3733027,45.1783178],[-93.3733787,45.1783487],[-93.3740295,45.1786139],[-93.3752541,45.1789196],[-93.3755508,45.1790364],[-93.3766204,45.1793707],[-93.3789394,45.1807828],[-93.3808482,45.1820173],[-93.3829848,45.183869],[-93.3841055,45.1846052],[-93.3866149,45.1856163],[-93.389238,45.1869798],[-93.3908734,45.1884223],[-93.392593,45.1900191],[-93.3954079,45.191719],[-93.4063731,45.1958144],[-93.4087675,45.196753],[-93.412815,45.1989795],[-93.4143456,45.2000471],[-93.4159794,45.2017863],[-93.4173592,45.2041962],[-93.4196927,45.2079026],[-93.4214375,45.2104126],[-93.422456,45.2117423],[-93.4223766,45.1952643],[-93.4220974,45.1807832],[-93.4219785,45.1666603],[-93.4216292,45.1522449],[-93.4016124,45.152043],[-93.3811823,45.1520123],[-93.3752537,45.1519955],[-93.3606978,45.1518511],[-93.340304,45.151656],[-93.333211,45.1515681],[-93.3328167,45.1518072],[-93.3323557,45.1515457],[-93.331999,45.1513555],[-93.3315999,45.1517883],[-93.3311643,45.1515427],[-93.3282681,45.1515067],[-93.329419,45.152273],[-93.3309336,45.1530641],[-93.3324043,45.1534916],[-93.3341475,45.1541649],[-93.3363467,45.1551909],[-93.338951,45.1564426],[-93.3421598,45.1580104],[-93.3437556,45.1586926],[-93.346582,45.1603952],[-93.3481755,45.1624987],[-93.349121,45.1642273],[-93.3500184,45.1660104],[-93.3507263,45.166801],[-93.3519963,45.1683143],[-93.3528737,45.1694316],[-93.3537171,45.1703727],[-93.354945,45.1717367],[-93.3556596,45.1728464],[-93.3579329,45.1745933],[-93.3592954,45.175305],[-93.3608978,45.1757725],[-93.3629524,45.1761747],[-93.3672637,45.1769762],[-93.3703737,45.1774092],[-93.3720326,45.1778003],[-93.3733027,45.1783178]]]}}]}