{"type":"FeatureCollection","name":"chanhassen_border","features":[{"type":"Feature","properties":{"GNIS_FEATURE_ID":2393799,"FEATURE_NAME":"chanhassen","CTU_CLASS":"CITY","COUNTY_GNIS_FEATURE_ID":659455,"COUNTY_CODE":"10","COUNTY_NAME":"Carver","POPULATION":25885,"SE_ANNO_CAD_DATA":null},"geometry":{"type":"MultiPolygon","coordinates":[[[[-93.6283288,44.884492],[-93.6297087,44.8827582],[-93.6280586,44.882428],[-93.6277771,44.8825851],[-93.6274794,44.8827712],[-93.6274822,44.882023],[-93.6276407,44.8819376],[-93.6277491,44.881882],[-93.6278588,44.8818278],[-93.6279699,44.8817749],[-93.6278322,44.8816259],[-93.6279819,44.8815577],[-93.6280418,44.8815316],[-93.6274841,44.8815227],[-93.6274446,44.8742608],[-93.6277933,44.874301],[-93.627841,44.8711771],[-93.6273239,44.8713707],[-93.6267215,44.8711443],[-93.6262516,44.8707337],[-93.6226606,44.8706813],[-93.6226765,44.8705625],[-93.6227091,44.8704344],[-93.6227761,44.8702763],[-93.622952,44.8700228],[-93.6233554,44.8695588],[-93.6239178,44.868801],[-93.6243512,44.8681923],[-93.6247499,44.8676981],[-93.6245009,44.867703],[-93.6241394,44.8681091],[-93.6238541,44.8685074],[-93.6232244,44.8693593],[-93.6226608,44.8700188],[-93.6225363,44.8702156],[-93.6225837,44.8636102],[-93.6226146,44.8596116],[-93.6226365,44.8565632],[-93.6226394,44.856238],[-93.6226456,44.8556131],[-93.6198467,44.8537335],[-93.6182443,44.8528557],[-93.6178088,44.8526827],[-93.6152186,44.8518924],[-93.6139507,44.8513574],[-93.6123918,44.850559],[-93.6122334,44.8504915],[-93.6120754,44.8504823],[-93.6118806,44.850499],[-93.6114659,44.850636],[-93.6096926,44.8510672],[-93.6087454,44.8512218],[-93.6079477,44.8513317],[-93.6075276,44.8513822],[-93.6070707,44.8514628],[-93.6065281,44.8516168],[-93.605933,44.8518939],[-93.6052242,44.8523502],[-93.6047544,44.8527633],[-93.6024226,44.8549785],[-93.6022484,44.855144],[-93.6022523,44.8561565],[-93.5972038,44.8560825],[-93.5869847,44.855946],[-93.5870022,44.8499551],[-93.5870197,44.8439641],[-93.5835059,44.8454588],[-93.5798629,44.8470677],[-93.5790075,44.8460161],[-93.5772631,44.8431868],[-93.5764631,44.8420582],[-93.5761481,44.8417536],[-93.5758916,44.8415762],[-93.5751836,44.8412027],[-93.5738977,44.8406725],[-93.5726834,44.8403678],[-93.5733036,44.8385483],[-93.5735442,44.8365828],[-93.573555,44.83512],[-93.5729577,44.8331922],[-93.5726303,44.8319999],[-93.5725966,44.826576],[-93.5696933,44.8265389],[-93.5696524,44.8262706],[-93.5671373,44.8257953],[-93.5670219,44.8214115],[-93.5663735,44.8086456],[-93.5691513,44.8070713],[-93.5694731,44.8068889],[-93.570027,44.8065749],[-93.5701095,44.8065281],[-93.5706479,44.806223],[-93.5731654,44.8047959],[-93.5733631,44.8046837],[-93.5741307,44.8042482],[-93.5776435,44.8022553],[-93.5777566,44.802191],[-93.577692,44.8020031],[-93.5780317,44.8009875],[-93.5777467,44.8003647],[-93.5745429,44.8017749],[-93.5731082,44.8024808],[-93.5731011,44.8027076],[-93.5730933,44.8029606],[-93.5726179,44.8031945],[-93.5725686,44.8047866],[-93.5700649,44.8047759],[-93.5700907,44.8026856],[-93.5661564,44.8046403],[-93.5660679,44.7965548],[-93.5660278,44.79656],[-93.5641989,44.7968571],[-93.5628634,44.7971949],[-93.5609161,44.7978714],[-93.5592458,44.7985517],[-93.5575976,44.7991385],[-93.5552023,44.7997135],[-93.5541931,44.799676],[-93.5525313,44.7985392],[-93.5511797,44.7975073],[-93.5502318,44.7967825],[-93.5496332,44.796463],[-93.5481784,44.7957559],[-93.5477605,44.7956424],[-93.5473421,44.7956035],[-93.5470704,44.795694],[-93.5465556,44.7958623],[-93.5464141,44.7959163],[-93.5444288,44.7966913],[-93.5438249,44.7969421],[-93.5435516,44.797058],[-93.5433993,44.7971362],[-93.5424312,44.7977828],[-93.5416672,44.7984319],[-93.5410802,44.798936],[-93.5411843,44.8047988],[-93.5411032,44.804818],[-93.5204085,44.8046107],[-93.5207507,44.8193343],[-93.5207985,44.8477389],[-93.5207983,44.8585588],[-93.5207983,44.8621855],[-93.5207939,44.8636334],[-93.5207593,44.8749683],[-93.5207409,44.8766225],[-93.520652,44.8914896],[-93.5233551,44.8914754],[-93.5407438,44.8912695],[-93.5538124,44.8911075],[-93.5639693,44.8912035],[-93.5667585,44.8912247],[-93.5669745,44.8912263],[-93.568192,44.8912355],[-93.5740696,44.8912765],[-93.5791231,44.8913132],[-93.5842229,44.8913489],[-93.5944023,44.8914552],[-93.6045828,44.8915374],[-93.6089628,44.8915047],[-93.6146377,44.8914617],[-93.6170102,44.8914449],[-93.619719,44.8914411],[-93.6209855,44.8906286],[-93.6224024,44.8897794],[-93.6236533,44.8889989],[-93.6249041,44.8882185],[-93.6257755,44.8874751],[-93.626728,44.8862772],[-93.6275264,44.8855002],[-93.6283288,44.884492]]],[[[-93.5113267,44.8675401],[-93.5207939,44.8636334],[-93.5207983,44.8621855],[-93.5207983,44.8585588],[-93.5112981,44.8585692],[-93.5113267,44.8675401]]]]}}]}