{"type":"FeatureCollection","name":"chaska_border","features":[{"type":"Feature","properties":{"GNIS_FEATURE_ID":2393809,"FEATURE_NAME":"chaska","CTU_CLASS":"CITY","COUNTY_GNIS_FEATURE_ID":659455,"COUNTY_CODE":"10","COUNTY_NAME":"Carver","POPULATION":28170,"SE_ANNO_CAD_DATA":null},"geometry":{"type":"Polygon","coordinates":[[[-93.6520148,44.8381669],[-93.6520627,44.8345343],[-93.6500479,44.8345769],[-93.6484922,44.8346061],[-93.6476818,44.8361044],[-93.6473633,44.8362843],[-93.647413,44.8363698],[-93.6474688,44.8364555],[-93.6475031,44.8365037],[-93.6475942,44.8366199],[-93.6476548,44.8366893],[-93.6477223,44.8367601],[-93.6477846,44.836821],[-93.6478312,44.8368638],[-93.6478872,44.8369125],[-93.6477922,44.8369982],[-93.6478628,44.8370555],[-93.6479524,44.8371277],[-93.6480501,44.8371945],[-93.6481654,44.83725],[-93.6482839,44.8372996],[-93.6483981,44.8373489],[-93.6484898,44.8373916],[-93.6485962,44.8374434],[-93.6486725,44.8374773],[-93.648744,44.837504],[-93.6488806,44.8375494],[-93.6490003,44.8375948],[-93.6491351,44.8376533],[-93.6492407,44.8376987],[-93.6493466,44.8377426],[-93.649476,44.8377971],[-93.6496946,44.8379062],[-93.6497872,44.83797],[-93.6498644,44.8380264],[-93.6499754,44.8380777],[-93.6500784,44.8381271],[-93.6501532,44.8382015],[-93.6501578,44.8382163],[-93.6501615,44.8382289],[-93.6501455,44.8383329],[-93.6501404,44.8383657],[-93.6501307,44.8385105],[-93.6501327,44.8386874],[-93.6501117,44.8388243],[-93.6500558,44.8388809],[-93.6499228,44.8391149],[-93.6499571,44.8391468],[-93.6499462,44.8391871],[-93.6499016,44.8392437],[-93.6498796,44.839292],[-93.6499026,44.8393321],[-93.6499145,44.8393883],[-93.6499042,44.8394688],[-93.6499273,44.8395169],[-93.6499391,44.8395571],[-93.6498608,44.8396379],[-93.6498161,44.8396784],[-93.649839,44.8397024],[-93.6498394,44.8397426],[-93.6497944,44.839759],[-93.6497266,44.8397593],[-93.6496931,44.8397997],[-93.6496371,44.8398483],[-93.6496263,44.8398886],[-93.6496268,44.8399368],[-93.6496047,44.8399772],[-93.6495257,44.8399937],[-93.6494363,44.8400827],[-93.6492799,44.8402444],[-93.6492577,44.8402847],[-93.6491565,44.8403255],[-93.6490101,44.8403746],[-93.6488974,44.8404074],[-93.6487507,44.8404324],[-93.6486151,44.840446],[-93.6485646,44.8403652],[-93.648495,44.8403517],[-93.6484276,44.8403227],[-93.6483503,44.8402237],[-93.6482409,44.8401897],[-93.6481384,44.8401747],[-93.6480313,44.8401689],[-93.6479485,44.8401694],[-93.647846,44.8401768],[-93.6477374,44.8401963],[-93.6476536,44.8402297],[-93.6475505,44.8402713],[-93.647459,44.840286],[-93.6473751,44.8402852],[-93.6472664,44.8402638],[-93.6470551,44.8401671],[-93.6468041,44.8400421],[-93.6465529,44.8399063],[-93.646343,44.8397848],[-93.6461567,44.8396851],[-93.6460531,44.839629],[-93.645973,44.8396019],[-93.6458827,44.8395823],[-93.6457744,44.8395664],[-93.6456481,44.8395543],[-93.6455168,44.8395458],[-93.6454088,44.839552],[-93.6453022,44.8395755],[-93.645165,44.8396211],[-93.6450652,44.8396693],[-93.6449399,44.8397414],[-93.6447941,44.8398228],[-93.6446303,44.8399062],[-93.6445408,44.8399524],[-93.644464,44.8399877],[-93.6443792,44.8400138],[-93.6442638,44.8400455],[-93.6441947,44.840079],[-93.6441368,44.8401148],[-93.6439941,44.840202],[-93.6439007,44.840236],[-93.6438007,44.8402605],[-93.6436957,44.8402596],[-93.6436184,44.8402459],[-93.6435512,44.8402252],[-93.6434853,44.8402018],[-93.6434232,44.8401728],[-93.6431257,44.8400335],[-93.642999,44.8399884],[-93.6429114,44.8399669],[-93.6427903,44.8399511],[-93.6425376,44.8399233],[-93.6422413,44.8398883],[-93.6420634,44.8398619],[-93.6419035,44.8398353],[-93.6417161,44.8398017],[-93.6416426,44.8397885],[-93.6418353,44.8347026],[-93.6420683,44.8289686],[-93.6421689,44.8289662],[-93.6453034,44.8309919],[-93.6470794,44.8309511],[-93.6470668,44.830444],[-93.6470165,44.82879],[-93.6468859,44.828236],[-93.6464272,44.8272361],[-93.6457603,44.8260768],[-93.6456749,44.8257821],[-93.645643,44.825466],[-93.6456605,44.8251878],[-93.6457314,44.8248884],[-93.6443108,44.8247055],[-93.6421119,44.8243392],[-93.6420868,44.8201765],[-93.6433586,44.8201727],[-93.6468263,44.8182616],[-93.6513783,44.8164662],[-93.6512804,44.8164668],[-93.6492805,44.8172363],[-93.649308,44.8172725],[-93.6476131,44.8179247],[-93.6475856,44.8178885],[-93.6420864,44.8200041],[-93.6420857,44.8196927],[-93.650457,44.8164718],[-93.6471871,44.8164919],[-93.6472018,44.8128227],[-93.6420695,44.8128694],[-93.6421229,44.8056618],[-93.642168,44.7913209],[-93.6421695,44.7911244],[-93.6424316,44.7838388],[-93.642466,44.7812488],[-93.642466,44.7812485],[-93.6425092,44.7779966],[-93.6425283,44.7765597],[-93.6223586,44.7765021],[-93.6122008,44.7763352],[-93.6018414,44.7761642],[-93.5941551,44.7762192],[-93.5941604,44.7764057],[-93.5941869,44.7765704],[-93.5942549,44.7767526],[-93.5943056,44.7768641],[-93.5943985,44.777058],[-93.594541,44.7772516],[-93.5946832,44.7774039],[-93.5948673,44.7775725],[-93.5950713,44.7777609],[-93.5952195,44.7778714],[-93.5953156,44.7779432],[-93.595367,44.7779821],[-93.5956234,44.7781716],[-93.596008,44.7784431],[-93.596289,44.7786339],[-93.5966132,44.7788445],[-93.596895,44.7790204],[-93.597112,44.7791371],[-93.597233,44.7792023],[-93.5976056,44.7794084],[-93.5978301,44.779525],[-93.5981333,44.7797031],[-93.5984151,44.779877],[-93.5986298,44.7800445],[-93.5989875,44.7803256],[-93.5991377,44.7804603],[-93.5992881,44.7806067],[-93.5993887,44.7807357],[-93.5994979,44.7809118],[-93.599591,44.7811174],[-93.5996521,44.7813222],[-93.5996772,44.7814125],[-93.5997181,44.781581],[-93.5997509,44.7817232],[-93.5997672,44.7819411],[-93.5997739,44.7820115],[-93.599759,44.7821764],[-93.5997027,44.782318],[-93.5996213,44.782448],[-93.5995232,44.7825428],[-93.5994327,44.7825962],[-93.5992517,44.7826847],[-93.5990281,44.7827418],[-93.5985318,44.7828511],[-93.5983106,44.7829006],[-93.5977184,44.7830183],[-93.5971711,44.7831272],[-93.5970741,44.7831456],[-93.5968494,44.7831868],[-93.5965287,44.7832458],[-93.5958948,44.7833384],[-93.5955461,44.7833858],[-93.5951333,44.78343],[-93.5949863,44.7834387],[-93.5944808,44.7834641],[-93.5934313,44.7835108],[-93.5929436,44.7835328],[-93.5928273,44.7835399],[-93.5926566,44.7835521],[-93.5922825,44.7835778],[-93.5917291,44.7836197],[-93.5913242,44.7836395],[-93.5908365,44.7836538],[-93.5902222,44.7836382],[-93.5893238,44.7836123],[-93.588993,44.7835968],[-93.5888492,44.7835782],[-93.5884785,44.7835011],[-93.5878151,44.7832984],[-93.5863616,44.7828188],[-93.5861745,44.7827565],[-93.5838236,44.7819737],[-93.5836755,44.7819241],[-93.5834599,44.7818664],[-93.5832944,44.7818554],[-93.583121,44.7818681],[-93.582932,44.7819191],[-93.58275,44.78196],[-93.5825224,44.78202],[-93.5822803,44.782114],[-93.5820941,44.7822058],[-93.5819856,44.7822872],[-93.5818511,44.7823823],[-93.581771,44.7824794],[-93.5816901,44.7826408],[-93.5816096,44.7828591],[-93.5815462,44.7831303],[-93.5814835,44.7834663],[-93.5814584,44.7840062],[-93.5814161,44.7848799],[-93.5814172,44.7850033],[-93.5814217,44.7855155],[-93.5814283,44.7858161],[-93.5815023,44.7869874],[-93.581618,44.7878112],[-93.5817618,44.7889469],[-93.5817851,44.7896357],[-93.5817494,44.7900176],[-93.5817021,44.7904134],[-93.5815837,44.7909734],[-93.5814802,44.7913803],[-93.5813598,44.7917401],[-93.5811412,44.7922064],[-93.5809704,44.7924839],[-93.5808155,44.7927086],[-93.5806523,44.7929214],[-93.5803904,44.7932053],[-93.5801693,44.7934243],[-93.5799316,44.7936257],[-93.5796688,44.7938155],[-93.5793151,44.794018],[-93.5792036,44.7940857],[-93.5790006,44.7941935],[-93.5785778,44.7943748],[-93.5780063,44.7946012],[-93.5773717,44.7948223],[-93.5767452,44.7950257],[-93.5761844,44.7951815],[-93.5752443,44.7954513],[-93.5745515,44.7956373],[-93.5738526,44.795807],[-93.573247,44.7959183],[-93.5731615,44.7959308],[-93.5725699,44.7960161],[-93.572243,44.7960536],[-93.5719432,44.7960881],[-93.5710338,44.7961672],[-93.5701416,44.7962518],[-93.5694105,44.7962883],[-93.5689441,44.796313],[-93.5684661,44.7963403],[-93.5676706,44.7963871],[-93.567093,44.79643],[-93.5664874,44.7965006],[-93.5663818,44.7965141],[-93.5660679,44.7965548],[-93.5661564,44.8046403],[-93.5700907,44.8026856],[-93.5700649,44.8047759],[-93.5725686,44.8047866],[-93.5726179,44.8031945],[-93.5730933,44.8029606],[-93.5731011,44.8027076],[-93.5731082,44.8024808],[-93.5745429,44.8017749],[-93.5777467,44.8003647],[-93.5780317,44.8009875],[-93.577692,44.8020031],[-93.5777566,44.802191],[-93.5776435,44.8022553],[-93.5741307,44.8042482],[-93.5733631,44.8046837],[-93.5731654,44.8047959],[-93.5706479,44.806223],[-93.5701095,44.8065281],[-93.570027,44.8065749],[-93.5694731,44.8068889],[-93.5691513,44.8070713],[-93.5663735,44.8086456],[-93.5670219,44.8214115],[-93.5671373,44.8257953],[-93.5696524,44.8262706],[-93.5696933,44.8265389],[-93.5725966,44.826576],[-93.5726303,44.8319999],[-93.5729577,44.8331922],[-93.573555,44.83512],[-93.5735442,44.8365828],[-93.5733036,44.8385483],[-93.5726834,44.8403678],[-93.5738977,44.8406725],[-93.5751836,44.8412027],[-93.5758916,44.8415762],[-93.5761481,44.8417536],[-93.5764631,44.8420582],[-93.5772631,44.8431868],[-93.5790075,44.8460161],[-93.5798629,44.8470677],[-93.5835059,44.8454588],[-93.5870197,44.8439641],[-93.5870022,44.8499551],[-93.5869847,44.855946],[-93.5972038,44.8560825],[-93.6022523,44.8561565],[-93.6022484,44.855144],[-93.6024226,44.8549785],[-93.6047544,44.8527633],[-93.6052242,44.8523502],[-93.605933,44.8518939],[-93.6065281,44.8516168],[-93.6070707,44.8514628],[-93.6075276,44.8513822],[-93.6079477,44.8513317],[-93.6087454,44.8512218],[-93.6096926,44.8510672],[-93.6114659,44.850636],[-93.6118806,44.850499],[-93.6120754,44.8504823],[-93.6122334,44.8504915],[-93.6123918,44.850559],[-93.6139507,44.8513574],[-93.6152186,44.8518924],[-93.6178088,44.8526827],[-93.6182443,44.8528557],[-93.6198467,44.8537335],[-93.6226456,44.8556131],[-93.6226394,44.856238],[-93.6252576,44.8562599],[-93.6259311,44.8562585],[-93.6322989,44.8563693],[-93.6320431,44.8491812],[-93.6376334,44.8490723],[-93.6376346,44.8491629],[-93.6377952,44.8491624],[-93.6415662,44.8491265],[-93.6415645,44.8490359],[-93.6415667,44.8489575],[-93.6456921,44.8489193],[-93.6518744,44.8487684],[-93.6518793,44.8484034],[-93.6516498,44.8484028],[-93.6516518,44.8479914],[-93.6518875,44.847786],[-93.6519686,44.8416923],[-93.6520148,44.8381669]]]}}]}