{"type":"FeatureCollection","name":"circle_pines_border","features":[{"type":"Feature","properties":{"GNIS_FEATURE_ID":2393526,"FEATURE_NAME":"circle_pines","CTU_CLASS":"CITY","COUNTY_GNIS_FEATURE_ID":659447,"COUNTY_CODE":"02","COUNTY_NAME":"Anoka","POPULATION":4915,"SE_ANNO_CAD_DATA":null},"geometry":{"type":"Polygon","coordinates":[[[-93.1429589,45.1530324],[-93.1473044,45.1530018],[-93.1633421,45.1532603],[-93.1634627,45.1459922],[-93.1635806,45.1388865],[-93.1584102,45.1387816],[-93.1586,45.1314619],[-93.1586333,45.1276376],[-93.1535161,45.1275994],[-93.1535478,45.1242243],[-93.1476991,45.1242094],[-93.1431663,45.1241933],[-93.1431627,45.1249704],[-93.1430125,45.1385632],[-93.1377404,45.1385863],[-93.1376903,45.1530429],[-93.1429589,45.1530324]]]}}]}