{"type":"FeatureCollection","name":"columbia_heights_border","features":[{"type":"Feature","properties":{"GNIS_FEATURE_ID":2393607,"FEATURE_NAME":"columbia_heights","CTU_CLASS":"CITY","COUNTY_GNIS_FEATURE_ID":659447,"COUNTY_CODE":"02","COUNTY_NAME":"Anoka","POPULATION":21592,"SE_ANNO_CAD_DATA":null},"geometry":{"type":"Polygon","coordinates":[[[-93.2269871,45.0616221],[-93.2367651,45.0615561],[-93.247413,45.0616365],[-93.2474143,45.0644858],[-93.2501978,45.0645116],[-93.2577366,45.064472],[-93.2626455,45.064446],[-93.2625664,45.057306],[-93.2625068,45.0500017],[-93.2636052,45.0500056],[-93.2680905,45.0499908],[-93.2677779,45.0409254],[-93.2720819,45.0409418],[-93.2720296,45.035504],[-93.2677142,45.0355339],[-93.2502481,45.0355241],[-93.2472515,45.0355159],[-93.2269092,45.0356329],[-93.2268103,45.0499999],[-93.2269871,45.0616221]],[[-93.247421,45.0571798],[-93.2473441,45.0499381],[-93.2502483,45.0500284],[-93.2525827,45.0500245],[-93.2526499,45.0572321],[-93.2502484,45.0572117],[-93.247421,45.0571798]]]}}]}