{"type":"FeatureCollection","name":"coon_rapids_border","features":[{"type":"Feature","properties":{"GNIS_FEATURE_ID":2393628,"FEATURE_NAME":"coon_rapids","CTU_CLASS":"CITY","COUNTY_GNIS_FEATURE_ID":659447,"COUNTY_CODE":"02","COUNTY_NAME":"Anoka","POPULATION":63415,"SE_ANNO_CAD_DATA":null},"geometry":{"type":"Polygon","coordinates":[[[-93.3171702,45.2123289],[-93.3173092,45.2123768],[-93.3177901,45.2125571],[-93.3182024,45.2127055],[-93.3186398,45.2127478],[-93.3190123,45.2127713],[-93.3191562,45.2127706],[-93.3196592,45.2127419],[-93.3197608,45.2127305],[-93.3200216,45.2126643],[-93.3203929,45.2125358],[-93.3209798,45.2123236],[-93.3210549,45.2122964],[-93.3212721,45.212219],[-93.3215985,45.2122058],[-93.3216855,45.2122054],[-93.3266988,45.2122758],[-93.3269947,45.2122781],[-93.3466741,45.2123089],[-93.3466219,45.2124132],[-93.3481879,45.2124164],[-93.3481916,45.2123023],[-93.3538362,45.2122769],[-93.3576082,45.2122844],[-93.362623,45.2123084],[-93.3626684,45.2112119],[-93.3649024,45.2097087],[-93.3649995,45.206967],[-93.365372,45.2067165],[-93.3654394,45.2047948],[-93.3672027,45.2047945],[-93.3672747,45.2029501],[-93.365601,45.2029524],[-93.3656642,45.2011542],[-93.3630213,45.2011576],[-93.3631162,45.1984607],[-93.3615549,45.1975064],[-93.3682016,45.197496],[-93.3682141,45.1902647],[-93.3732264,45.1903279],[-93.3733027,45.1783178],[-93.3720326,45.1778003],[-93.3703737,45.1774092],[-93.3672637,45.1769762],[-93.3629524,45.1761747],[-93.3608978,45.1757725],[-93.3592954,45.175305],[-93.3579329,45.1745933],[-93.3556596,45.1728464],[-93.354945,45.1717367],[-93.3537171,45.1703727],[-93.3528737,45.1694316],[-93.3519963,45.1683143],[-93.3507263,45.166801],[-93.3500184,45.1660104],[-93.349121,45.1642273],[-93.3481755,45.1624987],[-93.346582,45.1603952],[-93.3437556,45.1586926],[-93.3421598,45.1580104],[-93.338951,45.1564426],[-93.3363467,45.1551909],[-93.3341475,45.1541649],[-93.3324043,45.1534916],[-93.3309336,45.1530641],[-93.329419,45.152273],[-93.3282681,45.1515067],[-93.3276894,45.1511214],[-93.3254087,45.1494231],[-93.3233236,45.1474032],[-93.3217153,45.1466327],[-93.3196908,45.1460432],[-93.3173712,45.145455],[-93.3149376,45.1450521],[-93.3138262,45.1448329],[-93.3126889,45.1444318],[-93.3112552,45.1435371],[-93.3100162,45.1418094],[-93.3094404,45.1407729],[-93.3092797,45.1401493],[-93.3090752,45.1391566],[-93.3086949,45.1386178],[-93.307937,45.1377107],[-93.3071172,45.1367972],[-93.3057799,45.13553],[-93.3049826,45.1349137],[-93.3039894,45.1343716],[-93.3022626,45.1331592],[-93.3009173,45.1319028],[-93.3004118,45.1311312],[-93.2996097,45.1298825],[-93.2988821,45.1290088],[-93.2979627,45.1280608],[-93.2973152,45.1273751],[-93.2969395,45.1266769],[-93.2968608,45.125642],[-93.2968497,45.1249769],[-93.2968244,45.1242992],[-93.2966827,45.1234069],[-93.2964992,45.1226936],[-93.2961675,45.1218436],[-93.2954005,45.1207372],[-93.2953382,45.1206443],[-93.2948758,45.1199539],[-93.2944769,45.1194283],[-93.2943749,45.1192584],[-93.2943892,45.1190771],[-93.2945873,45.1187633],[-93.2905434,45.1187128],[-93.2907073,45.1189989],[-93.2910812,45.1193924],[-93.2881091,45.1194524],[-93.2847514,45.1202054],[-93.284189,45.1187693],[-93.2771872,45.1187877],[-93.2799681,45.1245009],[-93.2752624,45.124527],[-93.2689111,45.1245189],[-93.2669844,45.1245279],[-93.2668906,45.1245535],[-93.2667123,45.136664],[-93.2666778,45.1390218],[-93.2664928,45.1534902],[-93.2661761,45.1680195],[-93.2660528,45.1824709],[-93.2658447,45.1969939],[-93.2658604,45.2115206],[-93.2861254,45.2118262],[-93.3023738,45.2119378],[-93.3023707,45.2121066],[-93.3047042,45.2121291],[-93.3054005,45.2121695],[-93.3065246,45.2121803],[-93.3065547,45.2119785],[-93.3065998,45.2120517],[-93.3069235,45.2120563],[-93.3082251,45.2120745],[-93.3083187,45.2120731],[-93.3084528,45.2120712],[-93.3087063,45.2120593],[-93.3089834,45.2120379],[-93.3091657,45.2120139],[-93.3094107,45.2119761],[-93.3095815,45.2119416],[-93.3098661,45.2118996],[-93.3100176,45.2118784],[-93.3102092,45.211869],[-93.3103849,45.2118603],[-93.3105374,45.2118714],[-93.3107048,45.2118844],[-93.310893,45.2119068],[-93.3113494,45.212],[-93.3115916,45.2120357],[-93.3117481,45.2120461],[-93.3133316,45.2120759],[-93.3153758,45.2121146],[-93.3166028,45.2121746],[-93.3166875,45.2121788],[-93.3171702,45.2123289]]]}}]}