{"type":"FeatureCollection","name":"corcoran_border","features":[{"type":"Feature","properties":{"GNIS_FEATURE_ID":2393634,"FEATURE_NAME":"corcoran","CTU_CLASS":"CITY","COUNTY_GNIS_FEATURE_ID":659472,"COUNTY_CODE":"27","COUNTY_NAME":"Hennepin","POPULATION":7430,"SE_ANNO_CAD_DATA":null},"geometry":{"type":"Polygon","coordinates":[[[-93.630378,45.1525979],[-93.6354978,45.152583],[-93.6356254,45.1452822],[-93.6459998,45.1452401],[-93.6459751,45.1380222],[-93.6459939,45.124968],[-93.6459138,45.1235641],[-93.6459137,45.1090744],[-93.6459223,45.0946285],[-93.6457901,45.0801014],[-93.6458536,45.0729548],[-93.6456843,45.0657607],[-93.6252614,45.0656582],[-93.6046983,45.0656137],[-93.5840167,45.065625],[-93.5635522,45.0657536],[-93.5425763,45.0656806],[-93.5220343,45.0656257],[-93.5219716,45.0801293],[-93.522312,45.0946438],[-93.522275,45.1003993],[-93.5236957,45.1004071],[-93.5233592,45.1011268],[-93.5222705,45.101103],[-93.5222554,45.1034589],[-93.5233475,45.1034035],[-93.5242437,45.1035561],[-93.5256446,45.103281],[-93.525697,45.103351],[-93.5257213,45.1034566],[-93.5257153,45.1035872],[-93.525644,45.1039626],[-93.5261045,45.1039983],[-93.5284547,45.1048326],[-93.5281783,45.1050249],[-93.5276317,45.1054053],[-93.5255205,45.104867],[-93.5255602,45.1049625],[-93.5264583,45.1061395],[-93.5247411,45.1073669],[-93.523506,45.1082353],[-93.5230238,45.108579],[-93.5240523,45.1043997],[-93.5235153,45.1042991],[-93.5223469,45.1090501],[-93.5222182,45.1092365],[-93.5220622,45.1238153],[-93.5220601,45.1249705],[-93.5221379,45.1383432],[-93.5219401,45.1455561],[-93.5218352,45.1529077],[-93.5270498,45.1528776],[-93.5320958,45.1528482],[-93.5372566,45.152818],[-93.542561,45.1527866],[-93.5632253,45.1527606],[-93.583828,45.1526919],[-93.6044682,45.1526969],[-93.6251338,45.1525608],[-93.6252627,45.1526125],[-93.630378,45.1525979]]]}}]}