{"type":"FeatureCollection","name":"crystal_border","features":[{"type":"Feature","properties":{"GNIS_FEATURE_ID":2393683,"FEATURE_NAME":"crystal","CTU_CLASS":"CITY","COUNTY_GNIS_FEATURE_ID":659472,"COUNTY_CODE":"27","COUNTY_NAME":"Hennepin","POPULATION":22791,"SE_ANNO_CAD_DATA":null},"geometry":{"type":"MultiPolygon","coordinates":[[[[-93.3396886,45.0657238],[-93.349819,45.065697],[-93.3600751,45.0656689],[-93.3702027,45.0657086],[-93.3702498,45.0630963],[-93.370256,45.0610925],[-93.3706749,45.0610948],[-93.3706659,45.0619478],[-93.372758,45.0619852],[-93.3803647,45.0619761],[-93.3803066,45.0582817],[-93.3783145,45.0582709],[-93.378397,45.0547904],[-93.377271,45.0547762],[-93.3772439,45.0556161],[-93.3767032,45.0556242],[-93.3766409,45.0583809],[-93.375251,45.0583774],[-93.3752907,45.0556081],[-93.3750767,45.0556114],[-93.3750709,45.0547503],[-93.3760995,45.0547612],[-93.3761038,45.0538357],[-93.3757168,45.0538335],[-93.3757708,45.0520504],[-93.3752509,45.0520537],[-93.3747599,45.0520447],[-93.3730702,45.0520127],[-93.3730514,45.0537916],[-93.37283,45.0537897],[-93.3728487,45.0520213],[-93.3728773,45.0472971],[-93.3703972,45.0472901],[-93.3703267,45.0437148],[-93.3727865,45.0437325],[-93.372783,45.0364487],[-93.3710122,45.0364405],[-93.3709888,45.0337218],[-93.3702747,45.0337171],[-93.3701655,45.0218349],[-93.372701,45.0218387],[-93.372753,45.0181777],[-93.3752527,45.0182239],[-93.3777531,45.0182474],[-93.3777151,45.0146615],[-93.3802835,45.0146744],[-93.3802693,45.0200968],[-93.3853953,45.0200892],[-93.3854032,45.0165036],[-93.3904333,45.0165504],[-93.3903843,45.0110397],[-93.3802933,45.0109238],[-93.3752527,45.0109316],[-93.375155,45.0109305],[-93.3751558,45.0136516],[-93.3702679,45.0136268],[-93.3702991,45.0072861],[-93.3601774,45.0072756],[-93.3578282,45.0072658],[-93.3578415,45.0068816],[-93.3564718,45.0068868],[-93.3564585,45.0072601],[-93.3496996,45.0072315],[-93.3496343,45.0169552],[-93.333795,45.0169617],[-93.3337683,45.020566],[-93.3496103,45.0205178],[-93.3496035,45.0216657],[-93.3495587,45.0253419],[-93.3562582,45.0253513],[-93.356267,45.0327106],[-93.3494702,45.0326192],[-93.349436,45.0354357],[-93.3500044,45.0354452],[-93.3500488,45.0399348],[-93.3398359,45.0399975],[-93.339835,45.0403326],[-93.3397904,45.0536447],[-93.3397695,45.0537174],[-93.3397523,45.0537792],[-93.3397379,45.0538323],[-93.3397232,45.0538853],[-93.3397084,45.0539383],[-93.3396934,45.0539913],[-93.3396784,45.0540443],[-93.3396617,45.0541039],[-93.3396416,45.0541768],[-93.3396209,45.0542542],[-93.3396012,45.0543317],[-93.3395843,45.0544027],[-93.3395686,45.0544738],[-93.3395542,45.054545],[-93.3395408,45.0546164],[-93.3395282,45.0546878],[-93.339517,45.0547549],[-93.3395085,45.0548085],[-93.339497,45.0548824],[-93.3394877,45.0549428],[-93.3394796,45.0549965],[-93.3394714,45.0550502],[-93.3394631,45.0551039],[-93.3394546,45.0551576],[-93.3394459,45.0552113],[-93.3394368,45.0552649],[-93.3394258,45.0553274],[-93.3394162,45.0553811],[-93.3394069,45.0554347],[-93.3393976,45.0554884],[-93.3393882,45.0555421],[-93.3393785,45.0555957],[-93.3393683,45.0556493],[-93.3393576,45.0557028],[-93.3393429,45.0557695],[-93.3393256,45.0558404],[-93.339306,45.0559108],[-93.3392817,45.0559806],[-93.3392549,45.0560454],[-93.3392318,45.0560969],[-93.339208,45.0561484],[-93.3391845,45.0561999],[-93.339161,45.0562537],[-93.3387317,45.0567315],[-93.3386728,45.0567726],[-93.3386163,45.0568395],[-93.3385642,45.056917],[-93.3385103,45.0569898],[-93.3384412,45.0570611],[-93.3383499,45.0570794],[-93.3384035,45.0575725],[-93.3384474,45.0582963],[-93.3396074,45.058299],[-93.3396886,45.0657238]],[[-93.3711934,45.0547662],[-93.3708449,45.0547674],[-93.3708468,45.0556809],[-93.369961,45.0556761],[-93.3699866,45.0547707],[-93.3692842,45.0547734],[-93.3693252,45.0537604],[-93.3701523,45.0537673],[-93.3701417,45.0547636],[-93.3703561,45.0547628],[-93.3703668,45.0537691],[-93.3712039,45.0537761],[-93.3711934,45.0547662]],[[-93.3741093,45.056231],[-93.3728264,45.0562241],[-93.3728582,45.0547597],[-93.3741099,45.0547752],[-93.3741093,45.056231]],[[-93.3715428,45.0537789],[-93.372622,45.0537921],[-93.3726118,45.0547574],[-93.3715323,45.054765],[-93.3715428,45.0537789]]],[[[-93.3751458,45.0268829],[-93.3802403,45.0269339],[-93.3802519,45.0219513],[-93.3751328,45.0219234],[-93.3751458,45.0268829]]]]}}]}