{"type":"FeatureCollection","name":"dayton_border","features":[{"type":"Feature","properties":{"GNIS_FEATURE_ID":2394471,"FEATURE_NAME":"dayton","CTU_CLASS":"CITY","COUNTY_GNIS_FEATURE_ID":659472,"COUNTY_CODE":"27","COUNTY_NAME":"Hennepin","POPULATION":9231,"SE_ANNO_CAD_DATA":null},"geometry":{"type":"Polygon","coordinates":[[[-93.5123185,45.245745],[-93.5126067,45.2458389],[-93.5133046,45.2459862],[-93.5147477,45.2462261],[-93.5158967,45.2463652],[-93.5188041,45.2463939],[-93.5204988,45.2464042],[-93.5217671,45.2466064],[-93.5217745,45.246526],[-93.5217965,45.2464576],[-93.5218152,45.2464034],[-93.5218359,45.2463446],[-93.5218543,45.2462922],[-93.5218777,45.2462295],[-93.5219108,45.2461607],[-93.5219205,45.2460786],[-93.5219412,45.2460127],[-93.5219623,45.2459445],[-93.5219791,45.2458895],[-93.5219985,45.2458233],[-93.5220243,45.2457283],[-93.5220433,45.2456507],[-93.5220576,45.2455874],[-93.5220758,45.2455073],[-93.522096,45.245417],[-93.5221167,45.2453199],[-93.5221337,45.2452328],[-93.5221444,45.2451713],[-93.5221536,45.2451109],[-93.5221627,45.2450394],[-93.5221683,45.2449812],[-93.5221722,45.244914],[-93.522172,45.2448423],[-93.5221691,45.2447884],[-93.5221636,45.24473],[-93.522157,45.2446739],[-93.5221486,45.2446121],[-93.5221376,45.2445345],[-93.5221266,45.244448],[-93.5221188,45.2443663],[-93.5221135,45.2442864],[-93.5221056,45.2442102],[-93.5220927,45.2441342],[-93.5220829,45.2440783],[-93.5220727,45.2440177],[-93.5220582,45.2439324],[-93.5220409,45.2438372],[-93.5220232,45.2437501],[-93.5220085,45.2436868],[-93.5220141,45.2436271],[-93.5219856,45.2435676],[-93.5219637,45.2435146],[-93.5219406,45.2434632],[-93.5219115,45.2434004],[-93.5218779,45.243342],[-93.5218408,45.2432842],[-93.5217887,45.243214],[-93.521727,45.2431358],[-93.5216667,45.2430708],[-93.5216153,45.2430211],[-93.5215734,45.2429787],[-93.5215022,45.2429177],[-93.5214365,45.2428621],[-93.5213603,45.242804],[-93.5212853,45.2427524],[-93.5212044,45.2427028],[-93.521111,45.2426446],[-93.5210374,45.2426055],[-93.5209533,45.2425633],[-93.5208774,45.2425274],[-93.5207985,45.2424929],[-93.5207194,45.2424581],[-93.5206113,45.2424172],[-93.5205144,45.242381],[-93.5204324,45.2423579],[-93.5203431,45.2423368],[-93.5202379,45.2423193],[-93.520129,45.2423161],[-93.5200317,45.2423015],[-93.5198544,45.2422514],[-93.5196726,45.2422458],[-93.5181083,45.2421971],[-93.5168804,45.2419385],[-93.5159593,45.2414219],[-93.5149295,45.2401969],[-93.5149789,45.2390133],[-93.5156079,45.238574],[-93.5169858,45.2385698],[-93.5188591,45.2386229],[-93.5192277,45.2385427],[-93.5197361,45.2384321],[-93.5198774,45.2383623],[-93.5199216,45.2383163],[-93.5199914,45.238244],[-93.5200407,45.2381735],[-93.5200817,45.2381226],[-93.5201196,45.2380757],[-93.5201575,45.2380287],[-93.5202061,45.2379679],[-93.5202669,45.2378913],[-93.5203268,45.2378144],[-93.5203736,45.2377531],[-93.5204122,45.2377013],[-93.52047,45.2376413],[-93.5205064,45.2375812],[-93.5205555,45.2375034],[-93.5205971,45.2374396],[-93.5206367,45.2373782],[-93.520671,45.2373249],[-93.5207019,45.2372755],[-93.5207399,45.2372135],[-93.5207714,45.2371642],[-93.5207996,45.2371137],[-93.5208388,45.2370474],[-93.520869,45.2369937],[-93.5209047,45.2369302],[-93.520933,45.2368801],[-93.5209601,45.2368296],[-93.5209941,45.2367668],[-93.5210301,45.2366989],[-93.5210674,45.236627],[-93.5211033,45.2365546],[-93.5211358,45.2364864],[-93.5211591,45.2364346],[-93.5211864,45.2363699],[-93.5212119,45.2363049],[-93.5212319,45.2362483],[-93.5212547,45.236178],[-93.5212757,45.236108],[-93.5213026,45.236025],[-93.5213225,45.2359548],[-93.5213459,45.2359005],[-93.5213469,45.2358215],[-93.5213655,45.2357345],[-93.5213816,45.2356518],[-93.5213956,45.2355735],[-93.5214072,45.235502],[-93.5214179,45.2354304],[-93.5214276,45.2353566],[-93.5214356,45.2352693],[-93.521439,45.2351817],[-93.5214395,45.2351074],[-93.5214384,45.2350353],[-93.5214364,45.2349631],[-93.5214346,45.2349045],[-93.5214327,45.2348368],[-93.5214316,45.2347647],[-93.5214319,45.2346972],[-93.521433,45.2346386],[-93.521435,45.2345666],[-93.521437,45.234508],[-93.5214392,45.2344404],[-93.5214409,45.2343819],[-93.5214422,45.2343144],[-93.5214426,45.2342469],[-93.5214418,45.2341884],[-93.5214393,45.2341165],[-93.5214356,45.2340581],[-93.5214269,45.2339909],[-93.5214143,45.2339237],[-93.5214012,45.2338656],[-93.5213841,45.2337918],[-93.5213657,45.2337047],[-93.5213548,45.2336332],[-93.52135,45.2335618],[-93.5213517,45.2334902],[-93.5213563,45.2334182],[-93.521363,45.2333459],[-93.521372,45.2332734],[-93.521381,45.2332146],[-93.521391,45.2331605],[-93.5214056,45.2330933],[-93.521424,45.2330222],[-93.5214454,45.2329521],[-93.52147,45.2328829],[-93.5215004,45.2328152],[-93.521541,45.232749],[-93.5215902,45.2326848],[-93.5216553,45.2326135],[-93.5217215,45.2325494],[-93.5217864,45.2324952],[-93.5218814,45.2324381],[-93.5219812,45.2323809],[-93.5221181,45.2323036],[-93.522203,45.2243627],[-93.5222678,45.2099906],[-93.5221242,45.20999],[-93.5222887,45.2062978],[-93.5224669,45.1975277],[-93.5221918,45.1886353],[-93.5218774,45.1814668],[-93.5218036,45.1791076],[-93.5216493,45.1741762],[-93.5214264,45.1670471],[-93.5215986,45.1610914],[-93.521633,45.1599012],[-93.5217346,45.1563859],[-93.5218352,45.1529077],[-93.5022211,45.1526931],[-93.5002579,45.1526648],[-93.4821187,45.1524016],[-93.4619222,45.1523088],[-93.4418726,45.1522954],[-93.4216292,45.1522449],[-93.4219785,45.1666603],[-93.4220974,45.1807832],[-93.4223766,45.1952643],[-93.422456,45.2117423],[-93.4227225,45.2120901],[-93.4239553,45.2134922],[-93.4250052,45.2144479],[-93.4260173,45.2150108],[-93.4268168,45.2154556],[-93.4318459,45.2177234],[-93.4330095,45.2180959],[-93.4342687,45.2181826],[-93.4359269,45.2179624],[-93.4390128,45.2171634],[-93.4408593,45.2167401],[-93.4424779,45.2166078],[-93.4445836,45.2168457],[-93.4460967,45.2172798],[-93.4487868,45.2183835],[-93.4508182,45.2192044],[-93.4529841,45.2197231],[-93.4552143,45.2199777],[-93.4570165,45.2202584],[-93.4590163,45.2211616],[-93.4616329,45.2227932],[-93.4632792,45.2241851],[-93.4650218,45.2251976],[-93.4667685,45.2256541],[-93.4699396,45.2259663],[-93.4721727,45.2258684],[-93.4744065,45.2256604],[-93.4765797,45.2252264],[-93.4789992,45.2251454],[-93.4816202,45.2251529],[-93.483757,45.2254562],[-93.4854027,45.2259288],[-93.4868198,45.2268354],[-93.4887546,45.2282278],[-93.4906831,45.2294329],[-93.4931361,45.2313],[-93.4950079,45.2328351],[-93.4963301,45.2340165],[-93.4974167,45.235511],[-93.497755,45.2361118],[-93.4982047,45.2374889],[-93.4986729,45.2384203],[-93.4995676,45.2395619],[-93.5002578,45.2405137],[-93.5003561,45.2406241],[-93.5013102,45.2414224],[-93.5017732,45.2417004],[-93.5029011,45.2422796],[-93.5048818,45.2430512],[-93.50759,45.2440913],[-93.5097261,45.2448858],[-93.5123185,45.245745]]]}}]}