{"type":"FeatureCollection","name":"deephaven_border","features":[{"type":"Feature","properties":{"GNIS_FEATURE_ID":2394486,"FEATURE_NAME":"deephaven","CTU_CLASS":"CITY","COUNTY_GNIS_FEATURE_ID":659472,"COUNTY_CODE":"27","COUNTY_NAME":"Hennepin","POPULATION":3840,"SE_ANNO_CAD_DATA":null},"geometry":{"type":"MultiPolygon","coordinates":[[[[-93.5490815,44.9205153],[-93.5491158,44.9203778],[-93.5487692,44.9203739],[-93.5483726,44.9203394],[-93.5477967,44.920333],[-93.5478039,44.9201946],[-93.547804,44.9201945],[-93.5477014,44.9201935],[-93.5477065,44.9196365],[-93.5465545,44.9200594],[-93.5465289,44.9206235],[-93.538329,44.9205369],[-93.5383604,44.9169111],[-93.5332851,44.9168762],[-93.5335277,44.9099645],[-93.5320833,44.9103345],[-93.5298586,44.9107042],[-93.5284281,44.9109383],[-93.5284233,44.9094639],[-93.5277003,44.90973],[-93.5258175,44.9103921],[-93.5250413,44.9107153],[-93.5240628,44.9111578],[-93.5233276,44.9113896],[-93.5233393,44.9118908],[-93.5233921,44.9167727],[-93.520824,44.916696],[-93.520668,44.9203607],[-93.5183044,44.9203945],[-93.5183238,44.9258746],[-93.5130604,44.9272841],[-93.5130262,44.9276577],[-93.5117881,44.9276525],[-93.5078164,44.928801],[-93.5076133,44.9344953],[-93.5074258,44.9347143],[-93.5069586,44.9350422],[-93.5064297,44.9353478],[-93.5061257,44.9355049],[-93.5050122,44.9356912],[-93.5051294,44.9358784],[-93.5044733,44.936065],[-93.5038839,44.9362163],[-93.5032949,44.9363017],[-93.5023951,44.9363235],[-93.502346,44.938261],[-93.5023414,44.9391892],[-93.5074496,44.9392112],[-93.5072715,44.9456091],[-93.5193664,44.9457061],[-93.5193329,44.945595],[-93.5193122,44.94542],[-93.5192947,44.9451996],[-93.5193319,44.9449678],[-93.5194539,44.944767],[-93.5196408,44.9445623],[-93.5202259,44.9440418],[-93.5205093,44.9437039],[-93.5207232,44.9434002],[-93.5209966,44.9431407],[-93.5214153,44.9430045],[-93.5221405,44.9428824],[-93.5226455,44.9428416],[-93.5236568,44.9430089],[-93.5237082,44.9431434],[-93.5238161,44.9433038],[-93.5242397,44.9433641],[-93.5248258,44.9434112],[-93.5252745,44.9434284],[-93.5259628,44.94347],[-93.526181,44.9435567],[-93.5263508,44.9435901],[-93.5265479,44.9434728],[-93.5268668,44.943367],[-93.527135,44.9433535],[-93.5274929,44.9434156],[-93.5276429,44.9434881],[-93.5276161,44.9435545],[-93.5275331,44.9435604],[-93.5270325,44.9435314],[-93.5267196,44.9435496],[-93.5266687,44.943649],[-93.5267756,44.9437912],[-93.5273416,44.9438034],[-93.5277599,44.9438157],[-93.528231,44.9438601],[-93.5287514,44.9439285],[-93.5290284,44.9439711],[-93.5293063,44.9440443],[-93.5294783,44.9440948],[-93.5295519,44.9440545],[-93.5294371,44.9438795],[-93.5291957,44.9434605],[-93.529148,44.9429659],[-93.5291902,44.9426256],[-93.5296134,44.9418236],[-93.5297015,44.9416746],[-93.5297551,44.9415734],[-93.5297872,44.9415056],[-93.5298208,44.9414202],[-93.529824,44.9413664],[-93.5297934,44.9412731],[-93.5298069,44.9412107],[-93.5298926,44.9411709],[-93.5299687,44.9411243],[-93.52999,44.9410738],[-93.5300054,44.9409998],[-93.5300347,44.9409505],[-93.5301019,44.9408752],[-93.530161,44.9408166],[-93.5303966,44.9406008],[-93.5304495,44.9405428],[-93.5304108,44.9404791],[-93.5303579,44.9404351],[-93.5302806,44.9403784],[-93.5302485,44.9403232],[-93.5303427,44.940311],[-93.5304098,44.9403357],[-93.5305731,44.9403986],[-93.5306355,44.9403394],[-93.5306587,44.9401952],[-93.5306804,44.940125],[-93.5307228,44.9400407],[-93.5307814,44.9399413],[-93.5309523,44.9396789],[-93.5310137,44.9395799],[-93.5310515,44.9395133],[-93.5310854,44.9394457],[-93.531111,44.939376],[-93.5311295,44.9393048],[-93.5311497,44.9391974],[-93.531158,44.9391257],[-93.5311563,44.9390353],[-93.5311373,44.93891],[-93.5311017,44.9387314],[-93.5310148,44.9383387],[-93.5309808,44.9381602],[-93.5309648,44.9380531],[-93.5309564,44.9379816],[-93.5309502,44.9379102],[-93.5309471,44.9378209],[-93.5309522,44.9377315],[-93.5309676,44.9376242],[-93.5309898,44.9375169],[-93.531032,44.9373381],[-93.5310548,44.9372309],[-93.5312537,44.9361235],[-93.5313317,44.9356578],[-93.5313412,44.9355673],[-93.5313369,44.9354958],[-93.5313124,44.9354084],[-93.5312831,44.9353391],[-93.5311781,44.9351327],[-93.531147,44.9350639],[-93.5311183,44.9349775],[-93.5311079,44.9349077],[-93.5311183,44.9348373],[-93.5311869,44.9346595],[-93.531202,44.9345886],[-93.5312014,44.9345353],[-93.5311915,44.9344436],[-93.5311726,44.934351],[-93.5311549,44.9342969],[-93.5311231,44.9342281],[-93.5310799,44.9341651],[-93.5310399,44.9341216],[-93.5309597,44.9340519],[-93.5308675,44.9339857],[-93.5307872,44.9339367],[-93.5307033,44.9338918],[-93.5306178,44.9338519],[-93.5305106,44.9338114],[-93.5304138,44.9338003],[-93.5303076,44.9338105],[-93.5301567,44.9338436],[-93.5300818,44.9338675],[-93.5300127,44.9338989],[-93.5299494,44.9339488],[-93.5299413,44.9340138],[-93.5299648,44.9340705],[-93.5300011,44.934122],[-93.530044,44.934168],[-93.5301,44.9342093],[-93.5301854,44.9342447],[-93.5302813,44.9342483],[-93.530437,44.9342289],[-93.5305352,44.9342612],[-93.5304912,44.9343302],[-93.5304059,44.9343686],[-93.5302801,44.934365],[-93.5301764,44.9343511],[-93.5300749,44.9343413],[-93.529979,44.9343418],[-93.5298985,44.9343821],[-93.5298543,44.9344503],[-93.5298312,44.9345199],[-93.5297967,44.9346637],[-93.5297699,44.9347326],[-93.5297233,44.9347968],[-93.5296581,44.9348532],[-93.5295827,44.9349007],[-93.5293369,44.9350302],[-93.529262,44.9350776],[-93.5292054,44.9351374],[-93.5291677,44.9352051],[-93.5291368,44.9352735],[-93.5291085,44.9353426],[-93.5290038,44.9356215],[-93.5289626,44.9357654],[-93.5289392,44.9358362],[-93.528908,44.9359037],[-93.5288639,44.9359659],[-93.5287979,44.9360192],[-93.5286379,44.9361139],[-93.5285701,44.9361662],[-93.5285402,44.9362338],[-93.5285199,44.9363059],[-93.5284629,44.9364454],[-93.5284327,44.9365145],[-93.5283984,44.9365819],[-93.5283563,44.9366473],[-93.5282839,44.9367058],[-93.5281923,44.9367134],[-93.5280859,44.9366938],[-93.5279929,44.9366598],[-93.527954,44.9366004],[-93.5279869,44.9365279],[-93.5281295,44.9364047],[-93.5279193,44.9363216],[-93.5276354,44.9362395],[-93.5274481,44.936183],[-93.5273567,44.9361527],[-93.5272674,44.9361203],[-93.527181,44.9360848],[-93.5271046,44.936037],[-93.5270402,44.9359788],[-93.5269876,44.9359168],[-93.5269412,44.935851],[-93.5269072,44.9357805],[-93.5268997,44.9357092],[-93.5269143,44.935639],[-93.5269306,44.9355688],[-93.5269673,44.9354282],[-93.5270305,44.9352171],[-93.5271005,44.9350058],[-93.5273413,44.9343035],[-93.52755,44.9337455],[-93.527625,44.9335359],[-93.5276932,44.9333257],[-93.527733,44.9331849],[-93.5277509,44.9331142],[-93.5277673,44.9330434],[-93.5277939,44.9329008],[-93.5278044,44.9328291],[-93.5278206,44.932685],[-93.5278314,44.9325404],[-93.527838,44.9323958],[-93.5278439,44.9320364],[-93.5278197,44.9319645],[-93.5277616,44.9319053],[-93.5276832,44.9318623],[-93.5275057,44.931788],[-93.5274227,44.9317463],[-93.527341,44.9317032],[-93.5272614,44.9316583],[-93.5271857,44.9316106],[-93.5271164,44.9315582],[-93.5269302,44.931385],[-93.5268613,44.9313341],[-93.5267723,44.931303],[-93.5266726,44.9312816],[-93.5264749,44.9312287],[-93.5263891,44.9311925],[-93.5263296,44.9311386],[-93.5262765,44.9310789],[-93.5262265,44.9310162],[-93.5261797,44.9309511],[-93.5261366,44.9308842],[-93.5260974,44.9308159],[-93.5260626,44.9307468],[-93.5260324,44.9306774],[-93.5260072,44.9306082],[-93.5259877,44.9305384],[-93.5259733,44.9304677],[-93.525963,44.9303961],[-93.5259556,44.9303241],[-93.5259403,44.9301065],[-93.5259252,44.9299621],[-93.5259129,44.9298908],[-93.525891,44.9298207],[-93.5258585,44.9297521],[-93.5256795,44.929415],[-93.5254232,44.9289448],[-93.5252324,44.9286095],[-93.5251582,44.928475],[-93.5250894,44.9283399],[-93.5250289,44.9282038],[-93.5250098,44.9281335],[-93.5250088,44.9280603],[-93.5250209,44.9279874],[-93.5250408,44.9279171],[-93.5250641,44.9278463],[-93.5250919,44.9277758],[-93.5251266,44.9277072],[-93.52517,44.9276421],[-93.5252234,44.9275817],[-93.5253373,44.9274634],[-93.5255165,44.9272882],[-93.5256414,44.9271736],[-93.5257054,44.9271171],[-93.5258365,44.9270063],[-93.5259036,44.926952],[-93.5260407,44.926846],[-93.5261107,44.9267944],[-93.5261824,44.926744],[-93.5262563,44.926695],[-93.5263321,44.9266471],[-93.5264889,44.926555],[-93.5266512,44.9264672],[-93.5268174,44.9263835],[-93.527071,44.9262645],[-93.5272436,44.9261885],[-93.5274195,44.9261156],[-93.5275983,44.926046],[-93.5277797,44.9259806],[-93.5279633,44.9259198],[-93.5280558,44.9258912],[-93.528149,44.9258643],[-93.5282446,44.9258404],[-93.5283422,44.9258197],[-93.5284415,44.9258021],[-93.5285418,44.9257874],[-93.5286427,44.9257756],[-93.5287436,44.9257664],[-93.528844,44.9257598],[-93.5289445,44.9257568],[-93.5290454,44.9257577],[-93.5291468,44.9257619],[-93.5293499,44.9257764],[-93.5295521,44.9257941],[-93.529653,44.9258045],[-93.5297544,44.9258192],[-93.5299565,44.9258521],[-93.5300561,44.9258653],[-93.5301538,44.9258729],[-93.5302476,44.9258662],[-93.5303267,44.9258154],[-93.5303919,44.9257568],[-93.5303999,44.9256881],[-93.5303716,44.9256174],[-93.5303566,44.9255449],[-93.5303359,44.9254743],[-93.5302923,44.9254112],[-93.530227,44.9253554],[-93.5301578,44.9253007],[-93.530103,44.9252412],[-93.5300667,44.9251742],[-93.5300433,44.925103],[-93.530032,44.9250309],[-93.5300305,44.9249592],[-93.5300351,44.9248869],[-93.5300591,44.9246695],[-93.5300618,44.9245975],[-93.5300575,44.9245262],[-93.530044,44.9244558],[-93.5300227,44.9243862],[-93.5299955,44.9243172],[-93.5299641,44.9242485],[-93.5298607,44.9240434],[-93.5298287,44.9239747],[-93.5297741,44.923836],[-93.5296752,44.9235542],[-93.5296698,44.9234374],[-93.5296319,44.9233939],[-93.5294454,44.9233982],[-93.5292706,44.9234206],[-93.5290216,44.9234583],[-93.5289096,44.9234738],[-93.5287788,44.9234872],[-93.5286964,44.923487],[-93.5286087,44.9234729],[-93.5285278,44.9234475],[-93.5284593,44.9234224],[-93.5283714,44.9233843],[-93.5282777,44.9233324],[-93.5282334,44.923284],[-93.5281883,44.923184],[-93.5281147,44.9229499],[-93.5280796,44.9228544],[-93.5280459,44.9227865],[-93.5279901,44.9227166],[-93.5279144,44.9226724],[-93.5278276,44.9226549],[-93.5277275,44.9226455],[-93.5274934,44.9226341],[-93.5273095,44.9226077],[-93.5272286,44.922529],[-93.5271613,44.9224338],[-93.5271088,44.9223518],[-93.5269346,44.9220675],[-93.5268678,44.9219698],[-93.5267871,44.9218713],[-93.5267291,44.9218212],[-93.5265464,44.921694],[-93.5264706,44.9216426],[-93.526448,44.9215786],[-93.5264507,44.9212805],[-93.5264179,44.9211426],[-93.526388,44.9210456],[-93.5263408,44.9209433],[-93.5263565,44.9208658],[-93.5264026,44.9208089],[-93.5264797,44.9207519],[-93.5265901,44.9207112],[-93.5267583,44.9206829],[-93.5268869,44.920672],[-93.5270027,44.9206754],[-93.5270998,44.9206956],[-93.5272734,44.9207656],[-93.5273641,44.9207926],[-93.5275423,44.9208189],[-93.5276295,44.9208374],[-93.527736,44.9208793],[-93.5278791,44.9209556],[-93.5280417,44.9210268],[-93.5281304,44.9210631],[-93.5282089,44.9210926],[-93.5283034,44.9211216],[-93.528463,44.9211281],[-93.5285616,44.9211464],[-93.5286587,44.9211712],[-93.528761,44.9212102],[-93.5288459,44.9212651],[-93.5289623,44.9213711],[-93.5291313,44.9215014],[-93.5292265,44.9215797],[-93.5293311,44.9216914],[-93.5294314,44.9217565],[-93.5295223,44.9217984],[-93.5296226,44.9218285],[-93.5297205,44.9218227],[-93.5298771,44.9217449],[-93.5299859,44.9217338],[-93.5300687,44.9217742],[-93.5301149,44.9218638],[-93.5300957,44.9219613],[-93.5301697,44.9220134],[-93.5302433,44.9220386],[-93.5303382,44.9220602],[-93.5304416,44.9220708],[-93.5305696,44.9220772],[-93.5307558,44.9220822],[-93.5308394,44.9221255],[-93.530887,44.9221724],[-93.5309823,44.9222847],[-93.531036,44.9223358],[-93.5311291,44.9224097],[-93.5312367,44.9224865],[-93.5313665,44.9225652],[-93.5315026,44.9226245],[-93.5315923,44.9226701],[-93.5316718,44.9227255],[-93.5317223,44.9227721],[-93.5317355,44.9228398],[-93.5316175,44.9228981],[-93.5314975,44.9229328],[-93.5314359,44.9229701],[-93.5313796,44.923054],[-93.5313156,44.9231328],[-93.5312414,44.923196],[-93.5310915,44.9232643],[-93.5310081,44.9233391],[-93.5309638,44.9234058],[-93.5309417,44.9234812],[-93.5309601,44.9235919],[-93.530981,44.923663],[-93.5310102,44.9237161],[-93.5310302,44.9237682],[-93.5310092,44.9238359],[-93.5309685,44.923889],[-93.5308695,44.9239931],[-93.5308331,44.9240375],[-93.5308469,44.9240887],[-93.5310526,44.9240593],[-93.5312802,44.9240441],[-93.5314056,44.9240275],[-93.5315317,44.9240055],[-93.5316234,44.9239788],[-93.5316922,44.9239293],[-93.5317333,44.9238611],[-93.5317564,44.9237536],[-93.5317864,44.9237041],[-93.5318297,44.9236554],[-93.5319046,44.9236084],[-93.5319963,44.923587],[-93.532119,44.9235711],[-93.5322212,44.9235633],[-93.5325049,44.9235472],[-93.53274,44.9235223],[-93.5328157,44.9235186],[-93.5329267,44.9235466],[-93.5329814,44.92362],[-93.5330974,44.9237166],[-93.5331708,44.9237666],[-93.5332305,44.9237996],[-93.533358,44.9238593],[-93.5334933,44.9239112],[-93.5336331,44.9239508],[-93.5337322,44.923961],[-93.5339121,44.9239609],[-93.534217,44.9239678],[-93.5343435,44.923966],[-93.5344951,44.9239557],[-93.5346222,44.9239395],[-93.5346954,44.9239242],[-93.5347866,44.9238959],[-93.5348711,44.9238568],[-93.5349307,44.9238218],[-93.5349856,44.9237828],[-93.5350511,44.9237275],[-93.5351052,44.9236676],[-93.5352173,44.9235047],[-93.5352693,44.923443],[-93.535347,44.9233723],[-93.535534,44.9232236],[-93.5356272,44.9231283],[-93.5356979,44.9230811],[-93.5357857,44.9230644],[-93.5358868,44.9230661],[-93.5359927,44.92308],[-93.5361195,44.9231078],[-93.5361838,44.923132],[-93.5362363,44.9231706],[-93.5362854,44.923215],[-93.5363637,44.9232602],[-93.5364303,44.9232856],[-93.53657,44.9233301],[-93.5366613,44.9233618],[-93.5367679,44.92341],[-93.5368697,44.9234639],[-93.5370054,44.9235455],[-93.5370601,44.9235833],[-93.5371631,44.9236648],[-93.5372336,44.9237166],[-93.537291,44.9237504],[-93.537378,44.923786],[-93.5374757,44.9238101],[-93.5375758,44.9238233],[-93.5376787,44.9238118],[-93.5377774,44.9238029],[-93.5378652,44.9238325],[-93.5379286,44.9238666],[-93.5379842,44.9239073],[-93.5380389,44.9239663],[-93.5380653,44.9240338],[-93.5380726,44.9240892],[-93.5380831,44.9242718],[-93.5380832,44.9243803],[-93.5380753,44.9244698],[-93.5380593,44.9245422],[-93.5380247,44.9246102],[-93.5379641,44.9246664],[-93.5379044,44.9247025],[-93.5378381,44.9247295],[-93.5377324,44.92474],[-93.5376333,44.9247485],[-93.5375913,44.924803],[-93.5375754,44.924921],[-93.5375369,44.9249752],[-93.5374054,44.9249705],[-93.5373027,44.9249655],[-93.5372277,44.924969],[-93.5371554,44.9249831],[-93.5370606,44.9250079],[-93.5368261,44.9250787],[-93.5364493,44.9251852],[-93.5362621,44.9252407],[-93.5360432,44.9253008],[-93.5359532,44.9253329],[-93.535879,44.9253751],[-93.5358451,44.9254207],[-93.5358192,44.9254945],[-93.5357891,44.925545],[-93.5357323,44.9256058],[-93.5356615,44.9256568],[-93.5355974,44.9256835],[-93.5355006,44.9257084],[-93.5354312,44.9257311],[-93.5353262,44.925781],[-93.5352046,44.9258464],[-93.5344853,44.9261926],[-93.5344068,44.9262309],[-93.5339667,44.9263594],[-93.5337536,44.9264181],[-93.5335624,44.9264657],[-93.533381,44.9265045],[-93.5332336,44.9265291],[-93.5330716,44.9265497],[-93.5326689,44.92659],[-93.5324679,44.9266129],[-93.5322582,44.9266296],[-93.5321811,44.9266377],[-93.5320814,44.9266551],[-93.5319673,44.9267005],[-93.5319074,44.9267619],[-93.5318567,44.9268514],[-93.5317905,44.9269593],[-93.5316886,44.9271446],[-93.5316323,44.9272349],[-93.531588,44.927294],[-93.5315209,44.9273646],[-93.5314727,44.9274068],[-93.5314041,44.9274607],[-93.5312169,44.927595],[-93.5310069,44.9277386],[-93.5304991,44.9280781],[-93.5304264,44.9281143],[-93.5303367,44.9281509],[-93.5301536,44.9282216],[-93.5300438,44.9282685],[-93.5299436,44.9283209],[-93.5298733,44.9283687],[-93.5298122,44.9284244],[-93.5297596,44.9284882],[-93.5297168,44.9285573],[-93.5296929,44.9286112],[-93.5296717,44.9286832],[-93.5296663,44.9287359],[-93.5296725,44.9288051],[-93.5296864,44.9288572],[-93.5297066,44.9289096],[-93.5297912,44.9290854],[-93.5298141,44.9291383],[-93.5298366,44.9292087],[-93.5298462,44.9292789],[-93.5298417,44.9293491],[-93.5298214,44.9294371],[-93.5297893,44.9295251],[-93.5297034,44.9297173],[-93.5296433,44.9298608],[-93.5295924,44.9299199],[-93.5295013,44.9299504],[-93.5293567,44.9299658],[-93.5292817,44.9299896],[-93.5292915,44.9300548],[-93.5293474,44.9301128],[-93.5294443,44.9301549],[-93.5295632,44.9301803],[-93.5296651,44.9301946],[-93.5297696,44.930204],[-93.5298741,44.9302088],[-93.5299757,44.9302093],[-93.5300777,44.9302055],[-93.5301818,44.9301962],[-93.5302588,44.9301847],[-93.5303804,44.9301562],[-93.530467,44.9301233],[-93.5305431,44.9300801],[-93.5306119,44.9300285],[-93.5306601,44.9299857],[-93.5307843,44.9298666],[-93.5308325,44.9298238],[-93.5310984,44.9296062],[-93.5312338,44.929499],[-93.5313385,44.9294207],[-93.5314457,44.9293441],[-93.5317007,44.9291687],[-93.531757,44.9291324],[-93.5319743,44.9290084],[-93.5324687,44.9287312],[-93.5328136,44.9285796],[-93.533043,44.9284832],[-93.5333051,44.9283663],[-93.5333714,44.9283388],[-93.5334497,44.9283091],[-93.5335178,44.9282866],[-93.5335872,44.9282673],[-93.5336579,44.928252],[-93.5337307,44.9282409],[-93.5338054,44.9282337],[-93.5338815,44.9282299],[-93.5339586,44.9282289],[-93.5340363,44.9282303],[-93.5341398,44.9282349],[-93.5342422,44.9282414],[-93.5343885,44.9282565],[-93.5344765,44.9282746],[-93.5346693,44.9283233],[-93.5347491,44.9283374],[-93.534843,44.9283459],[-93.5350326,44.9283525],[-93.5357653,44.9283933],[-93.5362964,44.9284196],[-93.5365613,44.9284369],[-93.5367499,44.9284533],[-93.5369505,44.9284738],[-93.5375242,44.9285393],[-93.5378982,44.9285802],[-93.53804,44.9286029],[-93.5382246,44.9286439],[-93.5386733,44.9287732],[-93.5389141,44.9288363],[-93.5390232,44.9288811],[-93.539121,44.9290406],[-93.5391756,44.9291223],[-93.5392813,44.9292509],[-93.5393157,44.9293034],[-93.539331,44.9293779],[-93.5392502,44.9295432],[-93.5392381,44.9296341],[-93.539239,44.9297148],[-93.5392454,44.9298138],[-93.5392571,44.9299222],[-93.5392846,44.9301295],[-93.5392909,44.9302308],[-93.5393033,44.9302817],[-93.539361,44.9303344],[-93.5394908,44.930358],[-93.5396015,44.9303577],[-93.5398514,44.9303494],[-93.5399528,44.9303406],[-93.5400398,44.9303281],[-93.5402109,44.9302926],[-93.5402842,44.9302752],[-93.5403797,44.9302487],[-93.5404711,44.9302179],[-93.5405721,44.9301708],[-93.540638,44.9301262],[-93.540703,44.9300693],[-93.5408705,44.9299094],[-93.5409429,44.9298354],[-93.5410269,44.9297453],[-93.5411008,44.9296614],[-93.541191,44.9295424],[-93.5412288,44.9294956],[-93.5412702,44.9294499],[-93.5413857,44.9293299],[-93.5414251,44.9292838],[-93.5414661,44.929224],[-93.5414891,44.9291735],[-93.5415046,44.9291162],[-93.5415276,44.9289853],[-93.5416991,44.9288127],[-93.5417649,44.9287467],[-93.5418375,44.9286623],[-93.5420562,44.928388],[-93.5421257,44.9282919],[-93.5424551,44.9278051],[-93.5425591,44.9276419],[-93.5427523,44.9273654],[-93.5427999,44.9273012],[-93.5428506,44.927239],[-93.5429129,44.9271725],[-93.5429713,44.9271211],[-93.5430503,44.9270696],[-93.5431125,44.9270373],[-93.5431787,44.9270081],[-93.5432467,44.9269816],[-93.5433547,44.9269446],[-93.5434682,44.926917],[-93.5437283,44.9268717],[-93.5438028,44.926861],[-93.5439529,44.9268431],[-93.5441027,44.9268229],[-93.5442066,44.9268034],[-93.5442932,44.9267765],[-93.5444722,44.926708],[-93.5447097,44.9265866],[-93.5448718,44.9265001],[-93.5451125,44.9263679],[-93.5453684,44.926219],[-93.5454892,44.9261533],[-93.5455725,44.926113],[-93.5456589,44.9260761],[-93.5457924,44.9260242],[-93.5459065,44.9259837],[-93.5460695,44.9259321],[-93.5462117,44.9258932],[-93.5463556,44.92586],[-93.5464533,44.9258427],[-93.5465526,44.925829],[-93.5466278,44.9258205],[-93.5469309,44.925792],[-93.5470816,44.925776],[-93.5472329,44.9257627],[-93.5473329,44.9257513],[-93.5476099,44.9257063],[-93.5477101,44.9256868],[-93.5478053,44.9256625],[-93.5478707,44.925639],[-93.5479504,44.9255978],[-93.5480061,44.9255565],[-93.5480546,44.9255084],[-93.5480913,44.9254576],[-93.5481172,44.9253921],[-93.5480939,44.9253266],[-93.5479697,44.9252066],[-93.547809,44.9250014],[-93.5477332,44.9249078],[-93.5476923,44.9248622],[-93.5475506,44.9247123],[-93.5474869,44.9246348],[-93.5474116,44.9245212],[-93.5473452,44.9244042],[-93.5472243,44.9241668],[-93.5471338,44.9239794],[-93.5470494,44.9237906],[-93.5469425,44.9235307],[-93.546903,44.9234258],[-93.5468762,44.9233379],[-93.5468581,44.9232494],[-93.5468483,44.9231599],[-93.5468458,44.9231056],[-93.5468466,44.9230329],[-93.5468503,44.9229784],[-93.5468566,44.9229243],[-93.5468656,44.9228706],[-93.5468819,44.9228],[-93.5469019,44.9227287],[-93.5469263,44.9226572],[-93.5469484,44.9226043],[-93.5469742,44.9225527],[-93.5470158,44.9224871],[-93.5470661,44.9224262],[-93.5471417,44.9223565],[-93.5472106,44.9223044],[-93.5472845,44.9222546],[-93.547477,44.9221333],[-93.5475518,44.9220836],[-93.5478929,44.9218411],[-93.5479794,44.9217754],[-93.5480459,44.9217213],[-93.5481089,44.9216653],[-93.5481672,44.9216066],[-93.5482348,44.9215305],[-93.5483655,44.9213755],[-93.5484647,44.9212711],[-93.5485283,44.9212151],[-93.5486825,44.921095],[-93.548764,44.9210263],[-93.5488529,44.9209385],[-93.548952,44.9208323],[-93.5490033,44.9207697],[-93.5490378,44.9207216],[-93.5490418,44.9206501],[-93.5490602,44.9205841],[-93.5490815,44.9205153]],[[-93.5061257,44.9355049],[-93.5058389,44.9356531],[-93.505572,44.9357409],[-93.5053775,44.9357328],[-93.5061257,44.9355049]]],[[[-93.5316883,44.93312],[-93.5316835,44.9329989],[-93.5316377,44.9329431],[-93.5315641,44.9329066],[-93.5314681,44.9328755],[-93.5313763,44.9328542],[-93.5312839,44.932842],[-93.5312077,44.9328375],[-93.5310543,44.9328327],[-93.530902,44.9328269],[-93.5308165,44.9328645],[-93.5307734,44.9329053],[-93.5307357,44.9329557],[-93.5307036,44.9330147],[-93.5306824,44.933085],[-93.5306709,44.9331576],[-93.5306654,44.933239],[-93.530673,44.9332954],[-93.5307066,44.9333438],[-93.5307863,44.9333618],[-93.5311207,44.9334602],[-93.5313005,44.9335366],[-93.5313957,44.933561],[-93.5315297,44.9335648],[-93.5315947,44.9335237],[-93.5316339,44.9334525],[-93.5316541,44.9333986],[-93.5316748,44.9333182],[-93.5316858,44.9332286],[-93.5316883,44.93312]]],[[[-93.5294604,44.9319555],[-93.5294378,44.9318831],[-93.5293385,44.9317837],[-93.5292449,44.9317543],[-93.5290492,44.9317102],[-93.5289501,44.9317259],[-93.528889,44.9318245],[-93.5288223,44.9320422],[-93.5287909,44.9321267],[-93.528803,44.9321911],[-93.5288708,44.9322321],[-93.5290065,44.9322293],[-93.5291135,44.9322047],[-93.5291824,44.9321806],[-93.5292731,44.9321365],[-93.5293638,44.9320699],[-93.529441,44.9320184],[-93.5294604,44.9319555]]]]}}]}