{"type":"FeatureCollection","name":"delano_border","features":[{"type":"Feature","properties":{"GNIS_FEATURE_ID":2394495,"FEATURE_NAME":"delano","CTU_CLASS":"CITY","COUNTY_GNIS_FEATURE_ID":659530,"COUNTY_CODE":"86","COUNTY_NAME":"Wright","POPULATION":7023,"SE_ANNO_CAD_DATA":null},"geometry":{"type":"MultiPolygon","coordinates":[[[[-93.8200505,45.0357337],[-93.8200402,45.0321174],[-93.8174841,45.0320999],[-93.817451,45.0248766],[-93.8123144,45.02486],[-93.8123721,45.0320647],[-93.8072599,45.0320293],[-93.8072257,45.0290274],[-93.8056614,45.0290288],[-93.8056546,45.0284376],[-93.8022146,45.0284408],[-93.8021884,45.0248504],[-93.8072763,45.0248503],[-93.8072181,45.0219723],[-93.8069635,45.0212445],[-93.8072034,45.0212446],[-93.8078148,45.0139987],[-93.8026951,45.0139876],[-93.8027899,45.0101017],[-93.8017986,45.0100402],[-93.7976824,45.010029],[-93.797674,45.0103369],[-93.7925103,45.0103287],[-93.7924487,45.0139641],[-93.793405,45.0139665],[-93.7936898,45.0142787],[-93.7941327,45.0148301],[-93.7944492,45.0153248],[-93.7945439,45.0156505],[-93.7944497,45.0162286],[-93.7941936,45.0166193],[-93.7938443,45.0170101],[-93.7932884,45.0174704],[-93.7931899,45.0175971],[-93.7923865,45.0175955],[-93.7923611,45.0191134],[-93.8018798,45.0191284],[-93.8018798,45.0191284],[-93.8002973,45.0212392],[-93.7973792,45.0212371],[-93.7973512,45.0284412],[-93.7983838,45.0284428],[-93.7983804,45.0292985],[-93.7973478,45.0292968],[-93.797337,45.0320517],[-93.7947805,45.0320557],[-93.7947948,45.0284373],[-93.791791,45.0284326],[-93.7912084,45.0288553],[-93.7911782,45.0288775],[-93.7911484,45.0288999],[-93.7911189,45.0289226],[-93.7910898,45.0289455],[-93.7910611,45.0289687],[-93.7910328,45.0289921],[-93.7910033,45.0290172],[-93.7909718,45.0290446],[-93.7909426,45.0290708],[-93.7909138,45.0290972],[-93.7908855,45.0291239],[-93.7908577,45.0291509],[-93.7908303,45.0291781],[-93.7908035,45.0292056],[-93.7907772,45.0292333],[-93.7907514,45.0292612],[-93.7907261,45.0292894],[-93.7907013,45.0293179],[-93.7906771,45.0293465],[-93.7906533,45.0293754],[-93.7906301,45.0294044],[-93.7906074,45.0294337],[-93.7905853,45.0294632],[-93.7905637,45.0294929],[-93.7905426,45.0295228],[-93.7905221,45.0295529],[-93.7872098,45.0295476],[-93.7872149,45.0288259],[-93.7872176,45.0284254],[-93.786118,45.0284197],[-93.7857903,45.0289207],[-93.7857138,45.0291503],[-93.7857204,45.0293073],[-93.785817,45.029476],[-93.7859689,45.0296672],[-93.7862352,45.0298023],[-93.7865393,45.029845],[-93.7868001,45.0299016],[-93.7870416,45.0299982],[-93.7872057,45.0301341],[-93.7872014,45.03075],[-93.7870442,45.0310931],[-93.7867683,45.0314131],[-93.7863681,45.0320569],[-93.7855736,45.032056],[-93.7846761,45.0296832],[-93.7846282,45.0295503],[-93.7845897,45.0294159],[-93.7845611,45.0292803],[-93.7845426,45.0291438],[-93.7845341,45.0290068],[-93.7845359,45.0288697],[-93.7845477,45.0287328],[-93.7845696,45.0285965],[-93.7846016,45.0284613],[-93.7846157,45.028412],[-93.7770418,45.0283726],[-93.7770583,45.026569],[-93.7770747,45.0247655],[-93.7872397,45.0248209],[-93.787271,45.0212165],[-93.7771076,45.0211583],[-93.7720016,45.0211195],[-93.7719665,45.0265393],[-93.7719548,45.0283459],[-93.7668327,45.0283193],[-93.7668223,45.0291939],[-93.7680422,45.0291964],[-93.7680405,45.0296078],[-93.7670933,45.0302943],[-93.7668194,45.0302829],[-93.7668173,45.0321103],[-93.7668112,45.0335077],[-93.7668061,45.0354708],[-93.7668044,45.0363128],[-93.7668104,45.0392562],[-93.771493,45.0394162],[-93.7715539,45.0395251],[-93.7769196,45.039724],[-93.7769166,45.0400458],[-93.7714705,45.0399009],[-93.7714462,45.0400022],[-93.7668116,45.0398428],[-93.7668325,45.0500157],[-93.7770091,45.0501017],[-93.776932,45.0553933],[-93.7789301,45.0546154],[-93.7795937,45.0570711],[-93.779864,45.0569291],[-93.7801309,45.0567661],[-93.7804036,45.0565521],[-93.7807245,45.0562723],[-93.7809561,45.0560463],[-93.7810988,45.0558704],[-93.7813839,45.0555983],[-93.7817042,45.0553934],[-93.7821544,45.0552517],[-93.7825392,45.0551895],[-93.7828292,45.0551942],[-93.7830823,45.0552347],[-93.7834217,45.0553144],[-93.7837985,45.05535],[-93.7841339,45.0553008],[-93.7845037,45.055189],[-93.7848121,45.0550008],[-93.7850738,45.054649],[-93.7853708,45.0543266],[-93.7854946,45.0541994],[-93.785716,45.0540164],[-93.7858409,45.0538423],[-93.7859117,45.0536734],[-93.7859654,45.0535393],[-93.7860535,45.0534056],[-93.7862093,45.0533087],[-93.7863558,45.0532448],[-93.7865267,45.0532084],[-93.7868819,45.0533013],[-93.787155,45.0535125],[-93.7871565,45.0537789],[-93.7947102,45.053803],[-93.7947435,45.0574142],[-93.7972656,45.0574323],[-93.7972622,45.0569688],[-93.7986159,45.0569784],[-93.7985466,45.0512516],[-93.7985471,45.0510106],[-93.8003237,45.0510192],[-93.7998293,45.0502022],[-93.7999897,45.0502031],[-93.7993554,45.0491715],[-93.7992384,45.049044],[-93.7990229,45.0487885],[-93.7988507,45.0485685],[-93.7986673,45.0483707],[-93.7984891,45.048175],[-93.7985028,45.0482303],[-93.7987196,45.0491065],[-93.798554,45.0501961],[-93.7985491,45.0507717],[-93.7951718,45.0507554],[-93.7951677,45.0501914],[-93.7953936,45.0501318],[-93.7956998,45.049987],[-93.7957693,45.0499413],[-93.7958364,45.0498949],[-93.7959137,45.0498392],[-93.7959941,45.0497787],[-93.7960618,45.049726],[-93.7961109,45.0496873],[-93.7961759,45.0496367],[-93.796257,45.0495739],[-93.7963309,45.0495165],[-93.7964116,45.0494528],[-93.7964789,45.0493985],[-93.7965427,45.0493453],[-93.7966048,45.0492913],[-93.7966668,45.0492346],[-93.7967263,45.0491768],[-93.7967795,45.0491213],[-93.7968217,45.0490736],[-93.7968743,45.0490089],[-93.7969328,45.0489294],[-93.7969785,45.0488605],[-93.7970089,45.0488105],[-93.7970434,45.0487486],[-93.7970791,45.0486781],[-93.7971109,45.0486044],[-93.7971343,45.0485313],[-93.7971483,45.0484491],[-93.7971477,45.0483849],[-93.7971311,45.0483214],[-93.7970928,45.0482506],[-93.7970235,45.0481685],[-93.7969475,45.0481045],[-93.7968649,45.0480567],[-93.7968015,45.0480307],[-93.7967262,45.0480069],[-93.7966208,45.0479812],[-93.796498,45.0479598],[-93.7963943,45.0479482],[-93.7962877,45.0479424],[-93.7961732,45.0479593],[-93.7960876,45.0480051],[-93.7960071,45.0480535],[-93.7959124,45.0481194],[-93.7958618,45.0481786],[-93.7958235,45.0482367],[-93.7957788,45.0483093],[-93.7957418,45.0483678],[-93.7957082,45.0484163],[-93.7956696,45.0484654],[-93.7956312,45.048513],[-93.7955889,45.0485675],[-93.7955487,45.0486192],[-93.7955039,45.0486748],[-93.7954486,45.0487376],[-93.7953832,45.0488009],[-93.795293,45.0488669],[-93.7951876,45.0489142],[-93.7951013,45.0489318],[-93.7949707,45.0489416],[-93.7948597,45.0489394],[-93.7947527,45.0489295],[-93.79465,45.0489133],[-93.7945624,45.0488952],[-93.7944683,45.0488707],[-93.7943731,45.0488413],[-93.7943039,45.0488165],[-93.794232,45.0487872],[-93.7941449,45.0487469],[-93.7940558,45.0487012],[-93.7939465,45.0486403],[-93.7938711,45.0485955],[-93.7938087,45.0485569],[-93.7937516,45.0485207],[-93.7936888,45.0484801],[-93.7936156,45.0484323],[-93.7935494,45.0483887],[-93.793463,45.0483323],[-93.7933823,45.0482805],[-93.7933096,45.0482335],[-93.7932431,45.0481884],[-93.7931913,45.0481519],[-93.7931329,45.0481106],[-93.7930712,45.0480669],[-93.793017,45.0480209],[-93.7929546,45.0479694],[-93.7928819,45.0479087],[-93.7928306,45.0478574],[-93.7927918,45.0477981],[-93.7927651,45.0477304],[-93.7927489,45.0476782],[-93.7927362,45.0476273],[-93.7927253,45.0475734],[-93.7927169,45.047519],[-93.7927097,45.0474541],[-93.7927049,45.0473762],[-93.7927035,45.0473023],[-93.7927045,45.0472392],[-93.7927089,45.0471722],[-93.7927154,45.0471186],[-93.792726,45.0470594],[-93.7927423,45.0469869],[-93.7927619,45.0469146],[-93.7927851,45.0468381],[-93.7928051,45.0467759],[-93.7928313,45.0467001],[-93.7928755,45.0466236],[-93.7929218,45.0465669],[-93.7931961,45.0465518],[-93.7933186,45.0462321],[-93.7945997,45.0461809],[-93.7960301,45.0460551],[-93.7967221,45.0460369],[-93.7973346,45.0465532],[-93.797305,45.0465709],[-93.7978771,45.0470531],[-93.7982268,45.0470814],[-93.7986249,45.0469557],[-93.7999642,45.0465328],[-93.8000283,45.0465131],[-93.800033,45.0460151],[-93.8000523,45.0439804],[-93.8000619,45.0429633],[-93.7999912,45.0429636],[-93.7999628,45.0440125],[-93.7982107,45.0439963],[-93.7982059,45.0444968],[-93.7972646,45.0444923],[-93.7972937,45.0405986],[-93.7976692,45.0406745],[-93.7979409,45.0407397],[-93.798226,45.0408142],[-93.7984104,45.0408653],[-93.7987794,45.0409822],[-93.7990743,45.0410848],[-93.7993905,45.0412115],[-93.7997267,45.0413535],[-93.8003773,45.0416355],[-93.8011987,45.0420124],[-93.802757,45.0427278],[-93.8073753,45.0448629],[-93.8073723,45.0444961],[-93.8124613,45.0445037],[-93.8124027,45.035943],[-93.8140434,45.0358068],[-93.8161318,45.0357104],[-93.8200505,45.0357337]],[[-93.7981098,45.0512507],[-93.7977853,45.0509051],[-93.7978485,45.0509054],[-93.7981098,45.0512507]],[[-93.7796932,45.0349897],[-93.7797008,45.0355799],[-93.7791506,45.0355783],[-93.7791528,45.0349886],[-93.7796932,45.0349897]],[[-93.803358,45.0350982],[-93.8033639,45.0356173],[-93.8022257,45.0356157],[-93.8022304,45.0351013],[-93.803358,45.0350982]],[[-93.7903887,45.0313557],[-93.7905069,45.0320614],[-93.7871923,45.0320578],[-93.7871972,45.0313565],[-93.7903887,45.0313557]]],[[[-93.817887,45.0646525],[-93.8178783,45.0641773],[-93.8177831,45.064177],[-93.8177238,45.0607469],[-93.8148607,45.0607606],[-93.8148044,45.0574704],[-93.8176676,45.0574567],[-93.8176314,45.0553351],[-93.8175964,45.0532917],[-93.8175436,45.0502089],[-93.8175435,45.0501049],[-93.8124623,45.0477657],[-93.8124626,45.0476841],[-93.8074046,45.0453551],[-93.8074186,45.0502586],[-93.8075055,45.0612238],[-93.8077449,45.0614476],[-93.8080201,45.0616878],[-93.8104108,45.0631921],[-93.8126548,45.0640075],[-93.8130889,45.0641655],[-93.8136502,45.0642948],[-93.8145487,45.0644567],[-93.8152123,45.0645433],[-93.8160491,45.064613],[-93.8165543,45.0646341],[-93.8168071,45.0646391],[-93.817887,45.0646525]],[[-93.8124602,45.0484074],[-93.8124572,45.0492699],[-93.8113081,45.0492732],[-93.8113111,45.0484107],[-93.8124602,45.0484074]]],[[[-93.8023971,45.0609954],[-93.8023677,45.0574686],[-93.7972656,45.0574323],[-93.7972916,45.0609494],[-93.8023971,45.0609954]]],[[[-93.8056828,45.0510396],[-93.8056711,45.05023],[-93.8055475,45.0502294],[-93.8055595,45.0489547],[-93.8001533,45.048929],[-93.8001246,45.0465816],[-93.7984163,45.0471271],[-93.7985087,45.0474897],[-93.7986579,45.0476296],[-93.7988499,45.0478196],[-93.7990341,45.0480135],[-93.7992103,45.0482111],[-93.7994593,45.0485141],[-93.7996894,45.0488244],[-93.7998322,45.0490352],[-93.8005385,45.0502056],[-93.8023206,45.0531655],[-93.8022971,45.0510235],[-93.8056828,45.0510396]]],[[[-93.8175394,45.0473061],[-93.8174056,45.047303],[-93.8172722,45.0472957],[-93.8159738,45.0472033],[-93.8157592,45.0471914],[-93.8155439,45.0471863],[-93.8153286,45.0471879],[-93.8151136,45.0471962],[-93.8148994,45.0472113],[-93.8146862,45.0472331],[-93.8144747,45.0472615],[-93.8142651,45.0472965],[-93.8132633,45.0474807],[-93.8131786,45.0474985],[-93.8130958,45.0475203],[-93.8130152,45.047546],[-93.8129373,45.0475756],[-93.8175429,45.0496959],[-93.8175394,45.0473061]]],[[[-93.7915212,45.0284322],[-93.7905901,45.0284308],[-93.7905893,45.0287032],[-93.7909897,45.0288196],[-93.7915212,45.0284322]]]]}}]}