{"type":"FeatureCollection","name":"dellwood_border","features":[{"type":"Feature","properties":{"GNIS_FEATURE_ID":2394503,"FEATURE_NAME":"dellwood","CTU_CLASS":"CITY","COUNTY_GNIS_FEATURE_ID":659526,"COUNTY_CODE":"82","COUNTY_NAME":"Washington","POPULATION":1156,"SE_ANNO_CAD_DATA":null},"geometry":{"type":"Polygon","coordinates":[[[-92.9551331,45.1159445],[-92.9600258,45.1159803],[-92.9599708,45.1188791],[-92.9652082,45.1189414],[-92.9652813,45.1104542],[-92.9754911,45.1105509],[-92.9755136,45.1118796],[-92.9806058,45.1120178],[-92.9806708,45.1156432],[-92.9845459,45.1157375],[-92.9845036,45.1085104],[-92.984556,45.1009962],[-92.9845201,45.0967452],[-92.9843737,45.0966049],[-92.9842914,45.0965612],[-92.98421,45.096517],[-92.9841375,45.0964733],[-92.9840842,45.0964354],[-92.984036,45.0963943],[-92.9839898,45.0963517],[-92.9839333,45.0962973],[-92.9838746,45.0962381],[-92.9838177,45.0961777],[-92.9837629,45.0961163],[-92.9837102,45.096054],[-92.9836598,45.0959911],[-92.9836147,45.0959316],[-92.9835803,45.0958837],[-92.9835396,45.0958227],[-92.9835092,45.0957709],[-92.9834834,45.0957166],[-92.9834589,45.0956434],[-92.9834504,45.0955767],[-92.9834697,45.0955037],[-92.9835374,45.0954269],[-92.9836116,45.095372],[-92.983686,45.0953172],[-92.9837647,45.0952146],[-92.9838178,45.0951328],[-92.9838709,45.095051],[-92.9839244,45.0949694],[-92.9839786,45.0948879],[-92.9840372,45.0948074],[-92.9840973,45.0947273],[-92.984153,45.0946463],[-92.9841986,45.0945634],[-92.984232,45.0944711],[-92.9842317,45.0943803],[-92.9841753,45.0943067],[-92.984086,45.0942404],[-92.9839801,45.0941826],[-92.9838717,45.0941345],[-92.9837618,45.0940876],[-92.9836496,45.0940417],[-92.9835352,45.0939986],[-92.9834185,45.0939602],[-92.9832999,45.0939285],[-92.9831793,45.0939054],[-92.9830562,45.0938928],[-92.9829297,45.0938902],[-92.982801,45.0938946],[-92.9826711,45.0939029],[-92.9825411,45.0939122],[-92.982412,45.0939192],[-92.9822849,45.0939212],[-92.9821609,45.0939149],[-92.9820414,45.0938959],[-92.981928,45.0938582],[-92.98182,45.0938071],[-92.9817163,45.0937493],[-92.9816159,45.0936914],[-92.9815168,45.0936348],[-92.9814189,45.093576],[-92.9813246,45.0935143],[-92.9812361,45.0934493],[-92.9811556,45.0933804],[-92.9810863,45.0933064],[-92.9810286,45.0932267],[-92.980977,45.0931436],[-92.9809265,45.09306],[-92.9808714,45.0929783],[-92.9808072,45.0929008],[-92.9807376,45.0928257],[-92.980665,45.0927517],[-92.9805901,45.0926789],[-92.9805131,45.092607],[-92.9804347,45.0925359],[-92.9803553,45.0924655],[-92.9802755,45.0923955],[-92.9801953,45.0923256],[-92.9801145,45.092256],[-92.9800331,45.0921867],[-92.979951,45.0921179],[-92.9798681,45.0920496],[-92.9797842,45.0919818],[-92.9796994,45.0919149],[-92.9796134,45.0918487],[-92.9795261,45.0917835],[-92.9794365,45.0917196],[-92.9793444,45.0916573],[-92.9792498,45.0915967],[-92.979153,45.0915381],[-92.979054,45.0914815],[-92.9789532,45.0914272],[-92.9788494,45.0913754],[-92.9787428,45.0913262],[-92.978634,45.0912792],[-92.9785234,45.0912343],[-92.9784116,45.0911913],[-92.9782985,45.0911504],[-92.978183,45.0911127],[-92.9780659,45.0910772],[-92.9779482,45.0910424],[-92.9778308,45.0910073],[-92.9777147,45.0909706],[-92.9776008,45.0909311],[-92.9774902,45.0908875],[-92.977382,45.0908408],[-92.9772756,45.0907917],[-92.9771708,45.0907407],[-92.9770672,45.0906882],[-92.9769647,45.0906345],[-92.9768629,45.0905801],[-92.9767618,45.0905254],[-92.9766611,45.0904706],[-92.9765611,45.090415],[-92.9764621,45.0903584],[-92.9763641,45.0903009],[-92.9762672,45.0902424],[-92.9761716,45.0901831],[-92.9760772,45.0901229],[-92.9759852,45.0900611],[-92.9758997,45.0899946],[-92.9758184,45.0899251],[-92.9757378,45.0898553],[-92.9756601,45.0897841],[-92.9755836,45.0897121],[-92.9755036,45.0896422],[-92.9754217,45.0895715],[-92.9753412,45.0894978],[-92.9752596,45.0894247],[-92.9751749,45.0893559],[-92.9750849,45.089295],[-92.9749873,45.0892456],[-92.9748721,45.0892187],[-92.974741,45.0892138],[-92.9746065,45.0892209],[-92.9744796,45.0892318],[-92.9743571,45.0892547],[-92.9742355,45.0892838],[-92.9741129,45.0893092],[-92.9739857,45.0893267],[-92.9738536,45.0893404],[-92.9737303,45.0893315],[-92.9736213,45.0892935],[-92.9735158,45.0892453],[-92.9734135,45.0891898],[-92.9733144,45.0891297],[-92.9732183,45.0890675],[-92.9731251,45.0890056],[-92.9730335,45.0889426],[-92.9729446,45.0888769],[-92.9728607,45.0888083],[-92.9727841,45.0887364],[-92.9727169,45.088661],[-92.9726581,45.0885819],[-92.9726057,45.0884995],[-92.9725592,45.0884148],[-92.9725179,45.0883287],[-92.9724812,45.0882421],[-92.9724508,45.0881555],[-92.9724375,45.0880663],[-92.9724331,45.0879756],[-92.9724261,45.0878851],[-92.972412,45.0877957],[-92.9723983,45.0877061],[-92.972385,45.0876165],[-92.9723718,45.0875268],[-92.9723588,45.0874371],[-92.9723456,45.0873474],[-92.9723321,45.0872578],[-92.9723182,45.0871682],[-92.9723037,45.0870787],[-92.9722885,45.0869893],[-92.9722723,45.0869],[-92.9722551,45.086811],[-92.9722366,45.086722],[-92.9722168,45.0866333],[-92.9721953,45.0865449],[-92.9721708,45.0864563],[-92.9721425,45.0863679],[-92.9721102,45.08628],[-92.972074,45.0861929],[-92.9720339,45.0861071],[-92.9719899,45.0860229],[-92.9719418,45.0859407],[-92.9718785,45.085863],[-92.9717943,45.085793],[-92.9716978,45.0857328],[-92.9715948,45.085682],[-92.9714856,45.0856365],[-92.9713724,45.0855944],[-92.9712577,45.0855539],[-92.9711438,45.0855129],[-92.9710314,45.0854709],[-92.9709187,45.0854293],[-92.9708055,45.0853883],[-92.9706919,45.0853479],[-92.9705778,45.0853083],[-92.9704626,45.0852703],[-92.9703427,45.0852386],[-92.9702234,45.0852066],[-92.9701121,45.0851649],[-92.9700016,45.0851152],[-92.9698967,45.0850591],[-92.9698117,45.0849939],[-92.9697535,45.0849174],[-92.969708,45.084832],[-92.9696757,45.0847416],[-92.9696589,45.0846499],[-92.9696595,45.0845605],[-92.9696711,45.084472],[-92.9696886,45.0843824],[-92.9697119,45.0842925],[-92.9697408,45.0842031],[-92.9697755,45.0841148],[-92.9698159,45.0840285],[-92.9698618,45.0839448],[-92.969914,45.0838645],[-92.9699766,45.0837869],[-92.9700489,45.083712],[-92.9701287,45.0836401],[-92.9702141,45.0835711],[-92.9703032,45.0835054],[-92.9703938,45.083443],[-92.9704905,45.0833855],[-92.9705954,45.0833338],[-92.9707061,45.0832873],[-92.9708202,45.0832456],[-92.9709357,45.0832081],[-92.9710522,45.083173],[-92.97117,45.0831395],[-92.9712888,45.0831075],[-92.9714086,45.0830768],[-92.971529,45.0830473],[-92.9716498,45.0830187],[-92.971771,45.0829909],[-92.9718924,45.0829637],[-92.9720136,45.0829373],[-92.9721365,45.082915],[-92.9722609,45.0828964],[-92.9723859,45.0828793],[-92.9725106,45.0828612],[-92.9726341,45.0828399],[-92.9727563,45.0828156],[-92.972878,45.0827896],[-92.9729995,45.082763],[-92.973121,45.0827365],[-92.973243,45.0827112],[-92.9733656,45.0826878],[-92.9734892,45.0826673],[-92.9736137,45.0826492],[-92.9737386,45.0826324],[-92.9738637,45.082616],[-92.9739885,45.082599],[-92.9741128,45.0825802],[-92.9742362,45.082559],[-92.97436,45.0825374],[-92.9744838,45.0825151],[-92.9746068,45.0824912],[-92.9747284,45.0824648],[-92.9748479,45.0824352],[-92.9749652,45.0824016],[-92.9750826,45.0823639],[-92.9751973,45.0823211],[-92.9753052,45.082272],[-92.9754019,45.0822153],[-92.9754881,45.0821505],[-92.9755694,45.0820789],[-92.9756441,45.0820025],[-92.9757101,45.0819232],[-92.9757657,45.0818429],[-92.9758028,45.0817619],[-92.9757797,45.081672],[-92.975735,45.0815832],[-92.9756578,45.0815055],[-92.9756717,45.0814218],[-92.9757019,45.0813357],[-92.9757374,45.0812488],[-92.9757778,45.0811619],[-92.9758228,45.0810759],[-92.9758718,45.0809914],[-92.9759246,45.0809092],[-92.9759828,45.08083],[-92.9760482,45.0807533],[-92.976119,45.0806783],[-92.9761931,45.0806046],[-92.9762684,45.0805314],[-92.976343,45.080458],[-92.9764166,45.0803844],[-92.9764957,45.0803129],[-92.9765767,45.0802423],[-92.9766542,45.0801704],[-92.9767227,45.0800954],[-92.9767776,45.0800155],[-92.9768228,45.0799323],[-92.9768617,45.079847],[-92.9768962,45.07976],[-92.9769285,45.0796723],[-92.9769605,45.0795844],[-92.9769943,45.0794971],[-92.9770317,45.0794109],[-92.9770715,45.0793254],[-92.9771127,45.0792401],[-92.9771547,45.079155],[-92.9771968,45.0790699],[-92.9772384,45.0789846],[-92.9772789,45.0788993],[-92.9773176,45.0788136],[-92.977354,45.0787275],[-92.9773875,45.0786409],[-92.9774176,45.0785536],[-92.9774452,45.0784657],[-92.9774703,45.0783773],[-92.9774931,45.0782885],[-92.9775136,45.0781994],[-92.9775321,45.0781101],[-92.9775486,45.0780207],[-92.9775632,45.0779313],[-92.9775758,45.0778421],[-92.9775793,45.0777521],[-92.977573,45.0776617],[-92.9775598,45.0775717],[-92.9775423,45.0774818],[-92.9775147,45.0773884],[-92.9774618,45.077312],[-92.9773403,45.0772849],[-92.9772108,45.0772927],[-92.9770831,45.0773025],[-92.9769548,45.0773143],[-92.9768282,45.0773307],[-92.9767054,45.077354],[-92.9765889,45.0773866],[-92.9764767,45.0774263],[-92.9763656,45.0774691],[-92.9762559,45.0775146],[-92.9761475,45.0775627],[-92.9760406,45.0776129],[-92.9759353,45.0776651],[-92.9758319,45.0777188],[-92.9757303,45.0777738],[-92.9756306,45.0778298],[-92.9755335,45.0778869],[-92.9754429,45.077949],[-92.9753581,45.0780159],[-92.9752769,45.0780857],[-92.9751974,45.0781569],[-92.9751175,45.0782277],[-92.9750352,45.0782965],[-92.9749503,45.0783637],[-92.9748641,45.0784303],[-92.9747783,45.0784971],[-92.9746943,45.0785648],[-92.9746137,45.0786342],[-92.9745379,45.078706],[-92.9744671,45.0787804],[-92.9743994,45.0788566],[-92.9743345,45.0789343],[-92.9742725,45.0790133],[-92.9742134,45.0790934],[-92.9741569,45.0791742],[-92.9741031,45.0792555],[-92.9740542,45.0793383],[-92.9740116,45.0794232],[-92.9739738,45.0795095],[-92.9739394,45.0795965],[-92.973907,45.0796836],[-92.9738805,45.0797715],[-92.9738593,45.0798604],[-92.9738386,45.0799494],[-92.9738137,45.0800377],[-92.9737828,45.0801251],[-92.973752,45.0802133],[-92.9737199,45.0803014],[-92.9736844,45.0803885],[-92.9736435,45.0804736],[-92.973595,45.0805557],[-92.9735346,45.0806332],[-92.973459,45.080705],[-92.9733742,45.0807733],[-92.9732868,45.0808405],[-92.9732031,45.0809087],[-92.9731216,45.0809778],[-92.9730402,45.081047],[-92.9729588,45.0811163],[-92.9728771,45.0811853],[-92.9727948,45.081254],[-92.9727117,45.0813221],[-92.9726275,45.0813894],[-92.972542,45.0814559],[-92.972455,45.0815214],[-92.9723672,45.0815868],[-92.9722785,45.0816521],[-92.9721884,45.0817165],[-92.9720965,45.0817793],[-92.9720022,45.0818399],[-92.9719051,45.0818975],[-92.9718048,45.0819516],[-92.9717005,45.0820025],[-92.9715921,45.0820508],[-92.9714803,45.0820959],[-92.9713655,45.0821373],[-92.9712486,45.0821743],[-92.9711301,45.0822063],[-92.9710103,45.0822324],[-92.9708876,45.0822508],[-92.970762,45.0822623],[-92.9706344,45.0822691],[-92.9705058,45.0822731],[-92.9703773,45.0822762],[-92.9702498,45.0822806],[-92.9701229,45.0822854],[-92.9699959,45.0822887],[-92.9698688,45.0822908],[-92.9697417,45.0822919],[-92.9696146,45.0822921],[-92.9694876,45.0822917],[-92.9693606,45.0822904],[-92.9692335,45.0822881],[-92.9691065,45.082285],[-92.9689795,45.0822814],[-92.9688526,45.0822773],[-92.9676455,45.0822097],[-92.9674501,45.0821869],[-92.96729,45.0821655],[-92.9671911,45.0821506],[-92.9670925,45.0821346],[-92.9669944,45.0821173],[-92.9669077,45.0821008],[-92.9661708,45.0819464],[-92.9656506,45.0817848],[-92.9654361,45.0817052],[-92.9652906,45.0816341],[-92.965173,45.081563],[-92.9650715,45.0815102],[-92.9649995,45.0814603],[-92.9648797,45.0813773],[-92.9647756,45.0812671],[-92.9647465,45.0812337],[-92.9646961,45.0811717],[-92.9646582,45.0811198],[-92.9645874,45.0810302],[-92.9645276,45.0809251],[-92.9644861,45.0808314],[-92.9644618,45.0807324],[-92.9644587,45.0806487],[-92.9644842,45.0805801],[-92.9645259,45.0804999],[-92.9645851,45.0803871],[-92.9646488,45.0802563],[-92.9646901,45.0801488],[-92.96475,45.0799379],[-92.9647714,45.0798172],[-92.9647777,45.0797182],[-92.964789,45.0795351],[-92.9648048,45.0793057],[-92.96481,45.0791719],[-92.9648085,45.079068],[-92.9647975,45.0790215],[-92.9647732,45.0789191],[-92.9647406,45.0787225],[-92.9647319,45.0786412],[-92.9646822,45.0784713],[-92.9646363,45.0783293],[-92.9645886,45.0782037],[-92.9645206,45.0780342],[-92.9644788,45.077931],[-92.9644295,45.0778273],[-92.9644143,45.0777915],[-92.964401,45.0777509],[-92.9643622,45.0776668],[-92.9620085,45.0778457],[-92.9619788,45.0774368],[-92.9591148,45.0774433],[-92.9632703,45.0806743],[-92.9608092,45.082217],[-92.9607912,45.0833044],[-92.9547278,45.0832565],[-92.9547213,45.0830673],[-92.9545195,45.0814815],[-92.9545264,45.0813278],[-92.9545446,45.0812726],[-92.9494518,45.0812027],[-92.9494211,45.082938],[-92.9444393,45.0828982],[-92.9445233,45.0881704],[-92.9445762,45.0882185],[-92.9446912,45.0883496],[-92.9447626,45.0884828],[-92.9448302,45.0886358],[-92.9448631,45.0887934],[-92.9448666,45.0888598],[-92.9469115,45.0892761],[-92.9472146,45.0893173],[-92.9474135,45.0893304],[-92.9476407,45.0893316],[-92.9479062,45.08931],[-92.953352,45.0886916],[-92.9532593,45.0889244],[-92.9536812,45.0888765],[-92.9540394,45.088853],[-92.95435,45.0888535],[-92.954727,45.0888793],[-92.9550656,45.0889105],[-92.9553172,45.0889507],[-92.9555525,45.0890178],[-92.9557457,45.0890752],[-92.9559747,45.0891635],[-92.9569003,45.0895763],[-92.9572316,45.0897263],[-92.95767,45.0898859],[-92.9580372,45.0900288],[-92.9583925,45.0901455],[-92.9589123,45.0903036],[-92.9597033,45.0905558],[-92.9597582,45.0938546],[-92.9648854,45.0938101],[-92.9648906,45.093992],[-92.9644602,45.0945919],[-92.9637835,45.0957126],[-92.9643453,45.0962173],[-92.9633652,45.0970378],[-92.9635835,45.0973503],[-92.9649642,45.0965504],[-92.9650882,45.1008607],[-92.9548457,45.1009488],[-92.9549291,45.1053255],[-92.9516096,45.1061285],[-92.9510481,45.1062594],[-92.9505635,45.1064036],[-92.9502478,45.1065088],[-92.9498003,45.1066879],[-92.9493996,45.1068423],[-92.9489391,45.1070291],[-92.9462256,45.1081225],[-92.9476561,45.1081239],[-92.9476432,45.108684],[-92.9508407,45.1086886],[-92.9508402,45.1085843],[-92.9550597,45.1085756],[-92.9551331,45.1159445]]]}}]}