{"type":"FeatureCollection","name":"eagan_border","features":[{"type":"Feature","properties":{"GNIS_FEATURE_ID":2394586,"FEATURE_NAME":"eagan","CTU_CLASS":"CITY","COUNTY_GNIS_FEATURE_ID":659464,"COUNTY_CODE":"19","COUNTY_NAME":"Dakota","POPULATION":68889,"SE_ANNO_CAD_DATA":null},"geometry":{"type":"Polygon","coordinates":[[[-93.1061217,44.8619109],[-93.1106058,44.8619884],[-93.1108402,44.8620007],[-93.1209076,44.8620334],[-93.1212977,44.8620154],[-93.1216842,44.8619887],[-93.1220131,44.861962],[-93.1222392,44.8619319],[-93.1262445,44.8619139],[-93.1467503,44.8619257],[-93.1533491,44.8619316],[-93.1544822,44.8617559],[-93.1551042,44.8617135],[-93.1597748,44.8617108],[-93.1609594,44.8618256],[-93.1616988,44.8618498],[-93.1625527,44.8618789],[-93.1627134,44.8619394],[-93.1672705,44.8619429],[-93.1979115,44.8619172],[-93.1976088,44.861237],[-93.1975668,44.860314],[-93.197608,44.8594688],[-93.1981845,44.8584648],[-93.1991323,44.8573991],[-93.2007581,44.8556984],[-93.2015231,44.8547862],[-93.2025775,44.8534618],[-93.2033786,44.8523999],[-93.20416,44.8511841],[-93.2051632,44.8493117],[-93.2059718,44.8478928],[-93.2065983,44.8463348],[-93.2072937,44.8447994],[-93.2082517,44.8428715],[-93.209065,44.8419525],[-93.2103063,44.8408405],[-93.2119442,44.8399252],[-93.2131409,44.8394662],[-93.2149776,44.8389869],[-93.2164788,44.838707],[-93.2190021,44.8389327],[-93.2201673,44.8388742],[-93.2211082,44.8384782],[-93.2218254,44.8377173],[-93.2219887,44.8369118],[-93.2219708,44.836291],[-93.2217794,44.8354927],[-93.2214003,44.834824],[-93.2207425,44.8338447],[-93.219946,44.8328639],[-93.2197902,44.8322086],[-93.2200421,44.8315854],[-93.220745,44.8311373],[-93.2219677,44.8305304],[-93.2233779,44.8301615],[-93.2263979,44.8294963],[-93.2274515,44.8292014],[-93.2276115,44.8291388],[-93.2277019,44.8192229],[-93.2277701,44.8049242],[-93.2278285,44.7902411],[-93.2278462,44.7757671],[-93.222805,44.7758341],[-93.2172264,44.775895],[-93.2079037,44.7758736],[-93.1977491,44.7759111],[-93.187564,44.775864],[-93.1767025,44.7757736],[-93.1667272,44.7757631],[-93.1564168,44.7757685],[-93.1470774,44.7758048],[-93.1363086,44.7757488],[-93.1266868,44.7756496],[-93.1252401,44.7756327],[-93.1163334,44.7756755],[-93.1061337,44.7756916],[-93.1061865,44.7901308],[-93.1061789,44.7973765],[-93.1061738,44.8012886],[-93.1061416,44.8013508],[-93.1061023,44.8014389],[-93.1060378,44.8016113],[-93.1060048,44.8017202],[-93.1059657,44.8018889],[-93.1059456,44.8020133],[-93.1059305,44.8021828],[-93.1059283,44.8023098],[-93.1059382,44.8024903],[-93.1059829,44.8027246],[-93.1060434,44.8029675],[-93.1061236,44.8032247],[-93.1061711,44.8033619],[-93.1061632,44.8050154],[-93.1062246,44.8051829],[-93.1063927,44.8056447],[-93.1064495,44.8058586],[-93.1064745,44.806025],[-93.1064832,44.8061926],[-93.1064802,44.8062973],[-93.1064682,44.8064227],[-93.1064471,44.8065475],[-93.1063915,44.8067532],[-93.1063461,44.8068746],[-93.1062622,44.8070517],[-93.1061971,44.8071647],[-93.1061309,44.8072654],[-93.1061309,44.8072654],[-93.1061197,44.8080413],[-93.1061299,44.8182702],[-93.1061366,44.8334431],[-93.1061313,44.8406295],[-93.1060349,44.8406297],[-93.1060345,44.8410543],[-93.1058027,44.8417867],[-93.10613,44.8418696],[-93.1061275,44.8479348],[-93.1061217,44.8619109]]]}}]}