{"type":"FeatureCollection","name":"east_bethel_border","features":[{"type":"Feature","properties":{"GNIS_FEATURE_ID":2394596,"FEATURE_NAME":"east_bethel","CTU_CLASS":"CITY","COUNTY_GNIS_FEATURE_ID":659447,"COUNTY_CODE":"02","COUNTY_NAME":"Anoka","POPULATION":11961,"SE_ANNO_CAD_DATA":null},"geometry":{"type":"Polygon","coordinates":[[[-93.1422443,45.4137264],[-93.1629453,45.4142719],[-93.1835516,45.4140832],[-93.2041751,45.4140337],[-93.2248205,45.4138705],[-93.2453814,45.4137975],[-93.2502536,45.4137972],[-93.2644783,45.4137527],[-93.2653805,45.4136998],[-93.2653787,45.4127836],[-93.2653752,45.4109751],[-93.2653737,45.4101524],[-93.2652881,45.4101522],[-93.2652461,45.4101522],[-93.264875,45.4101515],[-93.2648748,45.4101515],[-93.2645916,45.4101512],[-93.2629697,45.4101478],[-93.2608429,45.4101437],[-93.2608357,45.4099626],[-93.2607903,45.4088546],[-93.2607512,45.4078673],[-93.2607379,45.4075381],[-93.2607001,45.4066645],[-93.2606946,45.406574],[-93.2604712,45.4011041],[-93.2604466,45.4005066],[-93.2604334,45.400186],[-93.2604029,45.3994454],[-93.2604007,45.3993905],[-93.2603925,45.399171],[-93.2603906,45.3991162],[-93.2603643,45.3983298],[-93.2603382,45.3975512],[-93.2603123,45.3967801],[-93.2602872,45.3960301],[-93.2602767,45.3957155],[-93.2619419,45.3957301],[-93.2623915,45.3957341],[-93.2628302,45.3957379],[-93.2632022,45.3957412],[-93.2635742,45.3957444],[-93.2639462,45.3957477],[-93.2643183,45.3957509],[-93.2652036,45.3957587],[-93.2654743,45.3957595],[-93.265314,45.3847551],[-93.2655012,45.3749661],[-93.2655312,45.3705658],[-93.2657412,45.3560525],[-93.2657351,45.3417101],[-93.2659175,45.333978],[-93.2658203,45.3271476],[-93.2655885,45.3127675],[-93.2656269,45.3054368],[-93.2653775,45.2980632],[-93.2502531,45.2980682],[-93.2445203,45.2980878],[-93.2240876,45.2980186],[-93.203693,45.2978248],[-93.1881739,45.2977176],[-93.1619408,45.2975443],[-93.1424489,45.2973325],[-93.1423675,45.304531],[-93.1427546,45.3117771],[-93.1427721,45.319674],[-93.1425764,45.3197107],[-93.1424732,45.3197396],[-93.1423867,45.3197737],[-93.1423003,45.3198162],[-93.1422019,45.3198689],[-93.1421228,45.3199231],[-93.1419921,45.3200327],[-93.1418949,45.320127],[-93.1418375,45.320205],[-93.1418088,45.3202576],[-93.1417898,45.3203085],[-93.1417659,45.3204],[-93.1417554,45.3204958],[-93.1417712,45.3205865],[-93.1418027,45.3206848],[-93.1418704,45.3208509],[-93.1419163,45.320939],[-93.1419501,45.3210017],[-93.141996,45.3210745],[-93.1420538,45.3211524],[-93.142102,45.3212168],[-93.1421767,45.3212946],[-93.1422609,45.3213726],[-93.1426004,45.3216078],[-93.1427111,45.3216941],[-93.1427787,45.3217567],[-93.1427842,45.3262628],[-93.1431424,45.3389521],[-93.1431674,45.3398853],[-93.14319,45.3407587],[-93.1435687,45.3554301],[-93.1438178,45.3698872],[-93.143315,45.3749679],[-93.1421591,45.3851122],[-93.1422208,45.3993917],[-93.142243,45.4129298],[-93.1422439,45.4134897],[-93.1422443,45.4137264]]]}}]}