{"type":"FeatureCollection","name":"edina_border","features":[{"type":"Feature","properties":{"GNIS_FEATURE_ID":2394621,"FEATURE_NAME":"edina","CTU_CLASS":"CITY","COUNTY_GNIS_FEATURE_ID":659472,"COUNTY_CODE":"27","COUNTY_NAME":"Hennepin","POPULATION":54048,"SE_ANNO_CAD_DATA":null},"geometry":{"type":"Polygon","coordinates":[[[-93.3289574,44.9305883],[-93.3339622,44.9305819],[-93.3392149,44.9305907],[-93.3392308,44.9294755],[-93.3391832,44.9234507],[-93.3402711,44.9234515],[-93.339046,44.9207032],[-93.3391385,44.9206916],[-93.3389802,44.920299],[-93.3395126,44.9201757],[-93.3393212,44.9196976],[-93.349597,44.9197384],[-93.3495983,44.9204913],[-93.3609159,44.9205296],[-93.3706313,44.9205031],[-93.3745972,44.920492],[-93.374572,44.9203756],[-93.3752502,44.9203584],[-93.385839,44.9203389],[-93.3858398,44.9205192],[-93.3921744,44.9205229],[-93.3921637,44.9207588],[-93.3960964,44.9208013],[-93.3961263,44.9204099],[-93.4012788,44.920446],[-93.4013848,44.9061374],[-93.4016229,44.8916433],[-93.3996287,44.8916145],[-93.3989701,44.8765573],[-93.3989109,44.8749707],[-93.3988687,44.8744039],[-93.3987788,44.8733677],[-93.398655,44.871708],[-93.3985546,44.8707394],[-93.3984385,44.8688415],[-93.3984996,44.8665393],[-93.3985492,44.8653221],[-93.3986971,44.8628641],[-93.3987952,44.8620377],[-93.3953573,44.8620251],[-93.3951949,44.8617128],[-93.3950981,44.861691],[-93.3949825,44.8616659],[-93.39488,44.8616421],[-93.3948031,44.8616217],[-93.3947083,44.8615916],[-93.3946148,44.8615585],[-93.3945243,44.861525],[-93.3944183,44.8614829],[-93.3943258,44.8614427],[-93.3942419,44.8614021],[-93.3941765,44.8613668],[-93.394119,44.8613322],[-93.3940635,44.861296],[-93.3940091,44.8612587],[-93.3939559,44.8612207],[-93.3939035,44.8611818],[-93.3938519,44.8611423],[-93.3937883,44.8610922],[-93.3937213,44.861038],[-93.3936548,44.8609833],[-93.3935887,44.8609283],[-93.3935308,44.8608802],[-93.3934727,44.8608322],[-93.3934058,44.8607778],[-93.3933381,44.860724],[-93.3932692,44.8606711],[-93.3931989,44.8606193],[-93.3931272,44.8605684],[-93.3930542,44.8605185],[-93.3929799,44.8604694],[-93.3929189,44.8604303],[-93.3928401,44.8603816],[-93.3927603,44.8603337],[-93.3926822,44.8602878],[-93.3926235,44.8602535],[-93.3925649,44.8602191],[-93.3924637,44.8601672],[-93.3923959,44.8601428],[-93.3923282,44.8601183],[-93.3922376,44.860086],[-93.3921635,44.8600607],[-93.392077,44.8600327],[-93.3919845,44.860003],[-93.3918914,44.859974],[-93.3917976,44.8599467],[-93.3917205,44.8599265],[-93.3916211,44.8599051],[-93.3915192,44.85989],[-93.3914438,44.8598821],[-93.3913491,44.859874],[-93.3912421,44.8598648],[-93.3911225,44.8598559],[-93.3910152,44.8598497],[-93.3909205,44.8598454],[-93.3908446,44.8598429],[-93.3907308,44.8598404],[-93.3906042,44.8598385],[-93.3904966,44.8598372],[-93.3904017,44.8598362],[-93.3903068,44.859836],[-93.3902182,44.859836],[-93.3901351,44.8598362],[-93.3895546,44.8598483],[-93.3883183,44.8599003],[-93.3876692,44.8599337],[-93.3870817,44.8599765],[-93.3865671,44.8600206],[-93.3865463,44.8619925],[-93.3786825,44.8619628],[-93.3697696,44.8620257],[-93.3582413,44.8620479],[-93.3544754,44.8620568],[-93.3544812,44.8632466],[-93.3516194,44.8632505],[-93.3515317,44.8631436],[-93.3513959,44.8630482],[-93.3512556,44.8629703],[-93.3510674,44.862897],[-93.3508954,44.862849],[-93.3507615,44.8628165],[-93.3507544,44.8620705],[-93.3288845,44.8619561],[-93.3238906,44.8619264],[-93.3239204,44.8608459],[-93.3224245,44.8612689],[-93.321531,44.8614722],[-93.3207595,44.8616311],[-93.3194978,44.8618955],[-93.3188232,44.8618957],[-93.3187538,44.8763567],[-93.318791,44.8835615],[-93.3188097,44.8871787],[-93.3188284,44.8907959],[-93.3187963,44.9053487],[-93.3289957,44.9054164],[-93.3289837,44.9197385],[-93.3289574,44.9305883]]]}}]}