{"type":"FeatureCollection","name":"excelsior_border","features":[{"type":"Feature","properties":{"GNIS_FEATURE_ID":2394717,"FEATURE_NAME":"excelsior","CTU_CLASS":"CITY","COUNTY_GNIS_FEATURE_ID":659472,"COUNTY_CODE":"27","COUNTY_NAME":"Hennepin","POPULATION":2335,"SE_ANNO_CAD_DATA":null},"geometry":{"type":"Polygon","coordinates":[[[-93.5790987,44.8988748],[-93.579111,44.8972007],[-93.5772915,44.8971975],[-93.5771351,44.8977379],[-93.5763299,44.8976255],[-93.5762825,44.8977915],[-93.5752544,44.8975662],[-93.5753078,44.896983],[-93.5749604,44.8969804],[-93.5749599,44.8964746],[-93.5739066,44.8964667],[-93.5739071,44.8969725],[-93.5733553,44.8969684],[-93.573355,44.8966427],[-93.5731428,44.8966411],[-93.5731421,44.8960084],[-93.572378,44.8960027],[-93.572377,44.8952019],[-93.5719244,44.8952016],[-93.5716703,44.895631],[-93.5714808,44.8960311],[-93.5712883,44.896613],[-93.5712379,44.8968785],[-93.5712114,44.8970597],[-93.5711465,44.8975041],[-93.5710947,44.8978258],[-93.5710666,44.8979208],[-93.5710256,44.8980235],[-93.5709279,44.8981942],[-93.5708643,44.89828],[-93.5706111,44.8982227],[-93.5706867,44.8981256],[-93.5707628,44.8980032],[-93.5707992,44.8979258],[-93.5708244,44.8978587],[-93.5708441,44.8977908],[-93.5708602,44.897711],[-93.5709534,44.8970729],[-93.5707362,44.8970672],[-93.5699444,44.8975385],[-93.5697695,44.8976393],[-93.5696852,44.8975644],[-93.5695684,44.89763],[-93.569225,44.8975587],[-93.5687689,44.8984188],[-93.5677934,44.8984085],[-93.5677778,44.8970592],[-93.567672,44.8967383],[-93.5675495,44.8965051],[-93.5674837,44.8964438],[-93.5673496,44.896309],[-93.567287,44.8962518],[-93.5672195,44.8961993],[-93.5671639,44.8961644],[-93.5670626,44.8961126],[-93.5669974,44.8960838],[-93.5669298,44.896057],[-93.56686,44.8960323],[-93.5667646,44.8960033],[-93.5666917,44.8959848],[-93.5665695,44.8959613],[-93.5664468,44.8959462],[-93.566296,44.8959345],[-93.5661682,44.8959296],[-93.5660136,44.8959293],[-93.5658594,44.8959352],[-93.5657324,44.8959449],[-93.5655832,44.895962],[-93.5654861,44.895978],[-93.5653903,44.8959988],[-93.5652487,44.896037],[-93.5651319,44.8960733],[-93.5648993,44.8961499],[-93.5647825,44.8961866],[-93.5645003,44.8962682],[-93.5639379,44.8964379],[-93.5637967,44.8964784],[-93.5636548,44.8965168],[-93.563512,44.8965525],[-93.5634162,44.8965745],[-93.5633199,44.8965948],[-93.5631983,44.8966169],[-93.5630746,44.8966337],[-93.5629994,44.8966413],[-93.5628984,44.896649],[-93.5627711,44.8966554],[-93.5626178,44.8966593],[-93.5623376,44.896661],[-93.5621861,44.8966594],[-93.562085,44.8966561],[-93.5619335,44.8966487],[-93.5614029,44.8966134],[-93.5608976,44.8965861],[-93.5605171,44.8965759],[-93.5599045,44.8965552],[-93.5596495,44.8965481],[-93.559345,44.8965435],[-93.5590932,44.8965446],[-93.5589433,44.896548],[-93.5587696,44.8965551],[-93.5586852,44.8965679],[-93.5586077,44.8966072],[-93.5585243,44.8966638],[-93.5584934,44.8967183],[-93.5578982,44.8964357],[-93.5573345,44.8974729],[-93.5582268,44.8974823],[-93.5581935,44.8984263],[-93.5536093,44.8983406],[-93.5535798,44.899269],[-93.5524473,44.8992724],[-93.5524523,44.9001062],[-93.552543,44.9001059],[-93.5525476,44.9008763],[-93.5529458,44.9008291],[-93.5529332,44.9017626],[-93.5534985,44.9016492],[-93.5534277,44.9026226],[-93.5530507,44.902639],[-93.5530992,44.9027234],[-93.5531283,44.9027862],[-93.5531476,44.9028507],[-93.5531794,44.9029812],[-93.5531689,44.9031037],[-93.5531563,44.9031964],[-93.5531872,44.9032925],[-93.5532833,44.90334],[-93.5534612,44.9033495],[-93.5535354,44.9033649],[-93.5536673,44.9034078],[-93.5537714,44.9034072],[-93.5539101,44.9033278],[-93.5539888,44.9032691],[-93.5540652,44.9032286],[-93.5541323,44.9031682],[-93.5542703,44.9030081],[-93.5543404,44.9029424],[-93.5544441,44.9028838],[-93.5545817,44.9028534],[-93.5546971,44.9028467],[-93.5548044,44.9028486],[-93.5550087,44.9028585],[-93.5551379,44.9028666],[-93.5552412,44.9028756],[-93.555343,44.9028881],[-93.5554175,44.9029003],[-93.5554898,44.9029155],[-93.5555595,44.9029342],[-93.5556258,44.9029567],[-93.5556896,44.902983],[-93.5557512,44.9030127],[-93.5558111,44.9030451],[-93.5558789,44.903086],[-93.5559728,44.9031484],[-93.556307,44.9033889],[-93.5564094,44.9034702],[-93.5566411,44.9036654],[-93.5567005,44.9037122],[-93.5567527,44.9037509],[-93.5568065,44.9037878],[-93.5568622,44.9038225],[-93.5569429,44.9038633],[-93.5570499,44.9038961],[-93.5571269,44.9039102],[-93.5572048,44.903918],[-93.5572949,44.9039186],[-93.5573927,44.9039026],[-93.5575739,44.9038387],[-93.5577483,44.9037891],[-93.5578491,44.9037523],[-93.5580406,44.9036779],[-93.5581355,44.9036457],[-93.5582464,44.9036184],[-93.5583485,44.9036108],[-93.5584712,44.9036303],[-93.5585784,44.9036759],[-93.5586601,44.9037232],[-93.5588014,44.9038156],[-93.5588891,44.9038679],[-93.5589144,44.9040229],[-93.5589018,44.9041033],[-93.5588838,44.9041741],[-93.5588286,44.9043502],[-93.5588152,44.9044032],[-93.5588056,44.9044567],[-93.5587987,44.9045374],[-93.558793,44.9047177],[-93.5587784,44.9048886],[-93.5587662,44.9049782],[-93.5587553,44.9050315],[-93.5587335,44.9051109],[-93.5586635,44.9053214],[-93.5587251,44.9054043],[-93.558815,44.9054606],[-93.5589056,44.9054927],[-93.5590033,44.9055135],[-93.5591074,44.9055261],[-93.5592051,44.9055181],[-93.5592747,44.9054707],[-93.5593261,44.9054041],[-93.559354,44.9053541],[-93.5593769,44.9053026],[-93.5593961,44.90525],[-93.5594176,44.9051791],[-93.5594312,44.9051261],[-93.5594398,44.9050725],[-93.5594498,44.9049825],[-93.5594589,44.9049289],[-93.5594838,44.9048224],[-93.5595738,44.9044677],[-93.5595899,44.9043966],[-93.5596006,44.9042926],[-93.5595871,44.9041752],[-93.5596068,44.9041107],[-93.5596765,44.9040646],[-93.5597716,44.9040277],[-93.5598329,44.9039944],[-93.559901,44.90392],[-93.5599392,44.9038513],[-93.5599661,44.9037589],[-93.5599392,44.903664],[-93.5599452,44.9036038],[-93.559982,44.9035356],[-93.5600287,44.9034668],[-93.5600965,44.9033872],[-93.5601563,44.9033344],[-93.5602276,44.9033225],[-93.5603093,44.9033444],[-93.5604461,44.9033669],[-93.5605215,44.9033711],[-93.5606991,44.90337],[-93.5607734,44.9033792],[-93.5609199,44.9034101],[-93.5610074,44.9034175],[-93.5611484,44.9034126],[-93.5612231,44.9034162],[-93.5613058,44.9034354],[-93.5614286,44.9034848],[-93.5615789,44.9035518],[-93.5617276,44.9036218],[-93.5617948,44.903646],[-93.5618912,44.9036712],[-93.5619665,44.9036834],[-93.5620669,44.9036851],[-93.5621445,44.9036483],[-93.5621346,44.9035838],[-93.5621661,44.9035182],[-93.562226,44.9035502],[-93.5622879,44.9035809],[-93.5624515,44.9036323],[-93.5625668,44.9036733],[-93.5626624,44.9036913],[-93.5627626,44.9036895],[-93.562839,44.9036814],[-93.5629642,44.9036633],[-93.5631598,44.9036229],[-93.5632335,44.9036112],[-93.5633432,44.9036055],[-93.5634594,44.9036317],[-93.5635377,44.9036975],[-93.5635768,44.9037544],[-93.5635969,44.9038169],[-93.5636259,44.9038659],[-93.563671,44.9039086],[-93.563741,44.9039618],[-93.5637876,44.9040045],[-93.5638691,44.9040958],[-93.5639621,44.9041812],[-93.5640464,44.9042485],[-93.5641891,44.9043507],[-93.564388,44.9044894],[-93.5648614,44.904815],[-93.5651792,44.9050429],[-93.5652491,44.905095],[-93.565317,44.9051482],[-93.5653821,44.905203],[-93.5654437,44.90526],[-93.5655016,44.9053194],[-93.5655556,44.905381],[-93.5656288,44.9054761],[-93.5656812,44.9055576],[-93.5657199,44.9056434],[-93.565779,44.905801],[-93.5658157,44.9058672],[-93.5658582,44.9059114],[-93.5659279,44.9059655],[-93.5659666,44.9060114],[-93.5660142,44.9060942],[-93.5661275,44.9063339],[-93.5661819,44.9064162],[-93.5661927,44.9065041],[-93.5661905,44.9065758],[-93.566163,44.9068646],[-93.566127,44.9071518],[-93.5661203,44.9072775],[-93.5661245,44.9073672],[-93.5661609,44.9076726],[-93.5661594,44.9078371],[-93.5661639,44.9078907],[-93.5661824,44.9079597],[-93.5662225,44.9080244],[-93.566264,44.9080706],[-93.5664168,44.9082186],[-93.5664668,44.9082603],[-93.5665441,44.9083044],[-93.5666358,44.9083318],[-93.5668354,44.9083695],[-93.5669267,44.9083986],[-93.5669857,44.9084319],[-93.5671082,44.9085279],[-93.5671893,44.9085661],[-93.5672847,44.9085838],[-93.5673615,44.9085892],[-93.5676194,44.908597],[-93.5678767,44.9085972],[-93.5679764,44.9086025],[-93.5680477,44.908613],[-93.5681248,44.9086585],[-93.5682034,44.9087033],[-93.5682995,44.9087204],[-93.5684248,44.9087346],[-93.5685785,44.9087446],[-93.5687567,44.9087498],[-93.5688337,44.9087462],[-93.5689881,44.9087336],[-93.5690636,44.9087312],[-93.5691604,44.9087388],[-93.5692266,44.9087609],[-93.5693288,44.9088195],[-93.5694191,44.9088508],[-93.5695409,44.9088737],[-93.5696918,44.9088926],[-93.5699715,44.9089206],[-93.570072,44.9089231],[-93.5701565,44.9088862],[-93.5701343,44.9088147],[-93.5700921,44.9087649],[-93.5700702,44.9086971],[-93.570084,44.9086281],[-93.5701022,44.9085758],[-93.570134,44.9085058],[-93.5702203,44.9083337],[-93.5702767,44.9082332],[-93.5703512,44.9081188],[-93.5704582,44.9079964],[-93.5705012,44.9079311],[-93.5705449,44.9078446],[-93.5706371,44.9076307],[-93.5706719,44.907562],[-93.5707021,44.9075129],[-93.5707488,44.9074512],[-93.5708055,44.9073953],[-93.5708546,44.9073572],[-93.5709259,44.9073098],[-93.5710023,44.9072655],[-93.5710829,44.9072236],[-93.5711672,44.9071839],[-93.5712542,44.9071459],[-93.5713434,44.9071091],[-93.571751,44.9069472],[-93.5719244,44.9068709],[-93.5721002,44.9067975],[-93.5722047,44.9067469],[-93.5722995,44.9066881],[-93.5724075,44.9066124],[-93.5725124,44.9065341],[-93.572788,44.9063216],[-93.5729302,44.9062191],[-93.573004,44.9061701],[-93.5730815,44.9061216],[-93.5731636,44.9060763],[-93.5732284,44.9060473],[-93.5733191,44.9060177],[-93.5734151,44.9060006],[-93.5735411,44.9059914],[-93.5737484,44.9059876],[-93.5738758,44.9059802],[-93.5739737,44.9059656],[-93.5740444,44.9059487],[-93.5741376,44.9059218],[-93.5742297,44.9058912],[-93.5743203,44.9058573],[-93.5744528,44.9058012],[-93.5745383,44.9057609],[-93.5746211,44.9057187],[-93.574701,44.905675],[-93.5747791,44.9056294],[-93.5748558,44.9055819],[-93.5749677,44.9055072],[-93.5750398,44.9054554],[-93.5751438,44.9053754],[-93.5752099,44.9053206],[-93.5752732,44.905265],[-93.5753176,44.9052222],[-93.5753574,44.9051564],[-93.5753908,44.9050459],[-93.5754289,44.9049809],[-93.575494,44.9049298],[-93.5755495,44.904895],[-93.5756293,44.9048517],[-93.5757135,44.9048107],[-93.5759753,44.9046928],[-93.5760596,44.9046519],[-93.5763611,44.9046352],[-93.5764366,44.9046294],[-93.5765637,44.9046122],[-93.57676,44.9045649],[-93.5768335,44.9045556],[-93.5769084,44.9045561],[-93.5769398,44.9045302],[-93.5766687,44.9041506],[-93.5766828,44.9040051],[-93.5766833,44.9039259],[-93.5767792,44.9038697],[-93.5769755,44.9038666],[-93.5770735,44.9038915],[-93.5770845,44.9038406],[-93.5770161,44.9037545],[-93.576921,44.9037155],[-93.5768495,44.9036889],[-93.5767277,44.9036752],[-93.5764935,44.9036587],[-93.5764953,44.9034569],[-93.5766238,44.9034127],[-93.576637,44.903407],[-93.5766514,44.9034028],[-93.5766664,44.9034001],[-93.5766818,44.9033991],[-93.5766973,44.9033997],[-93.5766936,44.9033915],[-93.5765315,44.9030372],[-93.5764991,44.9030411],[-93.5765029,44.9026265],[-93.5765127,44.9013704],[-93.5776202,44.9013714],[-93.5776243,44.8988687],[-93.5790987,44.8988748]]]}}]}