{"type":"FeatureCollection","name":"falcon_heights_border","features":[{"type":"Feature","properties":{"GNIS_FEATURE_ID":2394738,"FEATURE_NAME":"falcon_heights","CTU_CLASS":"CITY","COUNTY_GNIS_FEATURE_ID":659507,"COUNTY_CODE":"62","COUNTY_NAME":"Ramsey","POPULATION":5379,"SE_ANNO_CAD_DATA":null},"geometry":{"type":"Polygon","coordinates":[[[-93.1567392,44.9917937],[-93.1566417,44.9990348],[-93.1973227,44.9989067],[-93.1974574,44.9880974],[-93.1872667,44.9880394],[-93.1873774,44.9773205],[-93.1670176,44.9773228],[-93.1669545,44.9881406],[-93.1567146,44.988217],[-93.1567392,44.9917937]]]}}]}