{"type":"FeatureCollection","name":"farmington_border","features":[{"type":"Feature","properties":{"GNIS_FEATURE_ID":2394747,"FEATURE_NAME":"farmington","CTU_CLASS":"CITY","COUNTY_GNIS_FEATURE_ID":659464,"COUNTY_CODE":"19","COUNTY_NAME":"Dakota","POPULATION":23719,"SE_ANNO_CAD_DATA":null},"geometry":{"type":"MultiPolygon","coordinates":[[[[-93.2073309,44.6597167],[-93.2076198,44.6307154],[-93.2000139,44.6307373],[-93.1974192,44.6307446],[-93.1772221,44.6307761],[-93.1569259,44.6307709],[-93.1570385,44.6249751],[-93.1570164,44.6235239],[-93.1515216,44.623486],[-93.14967,44.6306013],[-93.1503821,44.6290772],[-93.1507189,44.6284533],[-93.1508329,44.628261],[-93.151189,44.6278393],[-93.1515108,44.6275916],[-93.1517619,44.6274647],[-93.1522915,44.6272439],[-93.1522405,44.6307731],[-93.1496245,44.6307563],[-93.1406923,44.6307252],[-93.1407078,44.6306337],[-93.1435787,44.6306491],[-93.14358,44.6301003],[-93.1419776,44.6300921],[-93.1419779,44.6289197],[-93.1419243,44.6253317],[-93.1445342,44.6253443],[-93.1445273,44.6234373],[-93.1385552,44.6233954],[-93.138555,44.6236669],[-93.1376334,44.6236604],[-93.137633,44.6242638],[-93.1387385,44.6242597],[-93.1387406,44.6245459],[-93.1377557,44.624539],[-93.1377557,44.6245938],[-93.136864,44.6245876],[-93.1369079,44.627033],[-93.1366981,44.6270288],[-93.1366832,44.6256215],[-93.1356179,44.6256404],[-93.1355964,44.62469],[-93.1351063,44.6246876],[-93.1351081,44.6233752],[-93.1302901,44.6233524],[-93.1302914,44.6243021],[-93.1278757,44.6242906],[-93.1278744,44.6233409],[-93.1276209,44.6233397],[-93.1276218,44.6240408],[-93.1266402,44.6240361],[-93.1266392,44.623335],[-93.1257873,44.6233309],[-93.1257862,44.6225163],[-93.1276113,44.622525],[-93.1276096,44.6218914],[-93.1291918,44.621899],[-93.1291869,44.6200832],[-93.1291759,44.6160747],[-93.1175926,44.6160312],[-93.1175968,44.6174795],[-93.1164486,44.6174751],[-93.1164622,44.6221558],[-93.1169346,44.6221581],[-93.1169379,44.6232881],[-93.1164655,44.6232858],[-93.1164814,44.6305889],[-93.116435,44.6378386],[-93.1164289,44.6378386],[-93.1163887,44.6450764],[-93.1163442,44.6523138],[-93.1263284,44.6523483],[-93.1263279,44.6525128],[-93.126009,44.6525117],[-93.1260033,44.6533208],[-93.123352,44.6533112],[-93.1233413,44.6548216],[-93.123631,44.6547771],[-93.1236236,44.6571044],[-93.1253091,44.6571066],[-93.1265076,44.6564836],[-93.1265126,44.6548974],[-93.1245909,44.6551899],[-93.1245477,44.6546361],[-93.1257426,44.6544512],[-93.1261308,44.6543803],[-93.126515,44.6542981],[-93.1266256,44.6542721],[-93.1268118,44.6542253],[-93.126936,44.6541935],[-93.1270358,44.6541665],[-93.1271199,44.654143],[-93.1272854,44.6540949],[-93.1274234,44.6540528],[-93.1275498,44.6540127],[-93.1276963,44.6539643],[-93.1278209,44.6539214],[-93.1279549,44.6538735],[-93.1281607,44.6537963],[-93.1283288,44.6537299],[-93.1284951,44.6536612],[-93.1286595,44.6535901],[-93.1288228,44.6535164],[-93.1289814,44.6534404],[-93.1291406,44.6533636],[-93.1292968,44.6532837],[-93.1294091,44.6532238],[-93.1295604,44.6531393],[-93.1297112,44.6530543],[-93.1301645,44.6527723],[-93.1326174,44.6527806],[-93.1326201,44.6523691],[-93.1307339,44.6523629],[-93.1314549,44.6517332],[-93.1326024,44.6506568],[-93.13314,44.6501858],[-93.1336715,44.6498533],[-93.1342521,44.6495969],[-93.13486,44.6494166],[-93.1354276,44.6493151],[-93.1359365,44.6492733],[-93.1366931,44.6492687],[-93.1366919,44.6465704],[-93.1366915,44.645764],[-93.1366913,44.6451716],[-93.13729,44.6451743],[-93.1372682,44.6459065],[-93.1382284,44.645911],[-93.138228,44.6451787],[-93.1384585,44.6451797],[-93.1384588,44.6457283],[-93.1407985,44.645739],[-93.1407984,44.6456019],[-93.1419141,44.645607],[-93.1419152,44.645319],[-93.1419157,44.6451956],[-93.1452197,44.6452107],[-93.1441657,44.6488235],[-93.1431253,44.652433],[-93.1420828,44.656022],[-93.1414813,44.6580923],[-93.141398,44.658379],[-93.1413531,44.6585336],[-93.1413455,44.6585628],[-93.1413187,44.658665],[-93.1412875,44.6587968],[-93.1412595,44.658929],[-93.1412347,44.6590616],[-93.1412132,44.6591944],[-93.1412025,44.6592725],[-93.1411949,44.6593274],[-93.1411799,44.6594607],[-93.1411666,44.6596158],[-93.1411551,44.6597871],[-93.1411498,44.6599218],[-93.1411478,44.6600566],[-93.1411496,44.6602079],[-93.1411536,44.6603262],[-93.1411615,44.6604609],[-93.1411727,44.6605954],[-93.1411871,44.6607299],[-93.1412048,44.6608641],[-93.1412259,44.660998],[-93.1412502,44.6611317],[-93.1412777,44.6612651],[-93.1413086,44.661398],[-93.1413426,44.6615306],[-93.1413799,44.6616628],[-93.1414205,44.6617944],[-93.1414642,44.6619256],[-93.1415112,44.6620561],[-93.1415613,44.6621861],[-93.1416146,44.6623154],[-93.1416711,44.6624441],[-93.1417307,44.662572],[-93.1417934,44.6626991],[-93.1418592,44.6628255],[-93.1419281,44.662951],[-93.1421654,44.6633722],[-93.1441187,44.6668401],[-93.1447836,44.6680205],[-93.1410689,44.6680144],[-93.1410666,44.6685901],[-93.140567,44.6685893],[-93.1403748,44.668589],[-93.1403742,44.6687393],[-93.1405664,44.6687363],[-93.1405642,44.6692944],[-93.1367463,44.6692879],[-93.1366208,44.6692877],[-93.136616,44.670432],[-93.1366016,44.6740375],[-93.1365778,44.67767],[-93.136554,44.6813025],[-93.136506,44.6849035],[-93.1364577,44.6885046],[-93.1364832,44.6921163],[-93.1366087,44.6921166],[-93.1466464,44.6921407],[-93.1466119,44.6885362],[-93.1563836,44.6885643],[-93.1768147,44.6886573],[-93.197148,44.688523],[-93.2072679,44.6885344],[-93.2073309,44.6597167]],[[-93.1366981,44.6270288],[-93.1366917,44.6289718],[-93.1369511,44.6289727],[-93.136977,44.6304285],[-93.1371762,44.6305676],[-93.1381749,44.630573],[-93.1381619,44.630174],[-93.1381074,44.6301186],[-93.1380446,44.6300918],[-93.1379687,44.6300587],[-93.1378987,44.6300144],[-93.1378348,44.629957],[-93.1377865,44.6298885],[-93.1377555,44.6298081],[-93.1377488,44.6297481],[-93.1377589,44.6296784],[-93.1377883,44.6296046],[-93.1378213,44.6295566],[-93.1378816,44.6294971],[-93.1379413,44.6294547],[-93.13801,44.62942],[-93.1381163,44.6293856],[-93.138221,44.6293682],[-93.1383275,44.629367],[-93.1384432,44.6293821],[-93.1385217,44.6294039],[-93.1386091,44.6294426],[-93.1386726,44.629482],[-93.1387208,44.629523],[-93.1387606,44.6295683],[-93.138794,44.6296234],[-93.1388169,44.6296882],[-93.1388221,44.6297715],[-93.1388058,44.6298473],[-93.1387674,44.6299189],[-93.1386896,44.6300019],[-93.138619,44.6300506],[-93.1385571,44.6300807],[-93.1384782,44.6301154],[-93.1384204,44.6301714],[-93.1384061,44.6305742],[-93.1394401,44.6306034],[-93.1397273,44.6306285],[-93.1397265,44.6307203],[-93.1369091,44.6307014],[-93.1351357,44.6306902],[-93.1351334,44.6296942],[-93.1342162,44.6296896],[-93.1342494,44.627045],[-93.1366981,44.6270288]],[[-93.128017,44.6282807],[-93.1280154,44.6283788],[-93.1266435,44.6283718],[-93.1266442,44.6282728],[-93.128017,44.6282807]],[[-93.1280341,44.6291334],[-93.1280184,44.6306469],[-93.1266407,44.6306391],[-93.1266431,44.6291264],[-93.1280341,44.6291334]],[[-93.1317381,44.6296699],[-93.1312052,44.6296743],[-93.1312079,44.6306683],[-93.130287,44.6306723],[-93.1302701,44.6286803],[-93.1317289,44.6286739],[-93.1317381,44.6296699]]],[[[-93.1386002,44.6297267],[-93.1385811,44.6296626],[-93.1385477,44.6296169],[-93.1384999,44.6295784],[-93.1384265,44.6295439],[-93.1383505,44.6295258],[-93.1382713,44.6295235],[-93.1381667,44.6295432],[-93.1380896,44.6295789],[-93.1380419,44.6296175],[-93.1380064,44.6296687],[-93.1379895,44.6297389],[-93.1380037,44.6298094],[-93.1380383,44.6298609],[-93.1381035,44.6299109],[-93.1381932,44.6299481],[-93.138272,44.6299593],[-93.1383786,44.6299514],[-93.1384626,44.6299247],[-93.1385233,44.6298876],[-93.1385717,44.6298352],[-93.1385957,44.6297866],[-93.1386002,44.6297267]]],[[[-93.1366339,44.6241091],[-93.1363811,44.6241079],[-93.1363795,44.6241984],[-93.1366325,44.6241996],[-93.1366339,44.6241091]]]]}}]}