{"type":"FeatureCollection","name":"forest_lake_border","features":[{"type":"Feature","properties":{"GNIS_FEATURE_ID":2394789,"FEATURE_NAME":"forest_lake","CTU_CLASS":"CITY","COUNTY_GNIS_FEATURE_ID":659526,"COUNTY_CODE":"82","COUNTY_NAME":"Washington","POPULATION":20862,"SE_ANNO_CAD_DATA":null},"geometry":{"type":"Polygon","coordinates":[[[-92.9408717,45.2963758],[-92.9578476,45.2965267],[-92.9782542,45.2967169],[-92.9985816,45.2968053],[-92.9987737,45.2968069],[-93.0195906,45.2969021],[-93.0195329,45.2835302],[-93.0195318,45.2827917],[-93.0197071,45.2683052],[-93.0195467,45.2539984],[-93.0193528,45.2395917],[-93.0195744,45.2250844],[-93.019699,45.2107422],[-93.0002446,45.2106587],[-92.9988304,45.210703],[-92.9786929,45.2106036],[-92.9581503,45.2104384],[-92.9378588,45.2103993],[-92.9174049,45.2104077],[-92.8970882,45.2102461],[-92.8969205,45.2245579],[-92.8969097,45.2389343],[-92.8969726,45.2499716],[-92.8969744,45.2535561],[-92.8968556,45.2678636],[-92.8967935,45.2823245],[-92.8967229,45.2962675],[-92.9172855,45.2962762],[-92.9373946,45.2963442],[-92.9381585,45.2963511],[-92.939564,45.2963637],[-92.9407927,45.2963747],[-92.9408717,45.2963758]]]}}]}