{"type":"FeatureCollection","name":"fridley_border","features":[{"type":"Feature","properties":{"GNIS_FEATURE_ID":2394826,"FEATURE_NAME":"fridley","CTU_CLASS":"CITY","COUNTY_GNIS_FEATURE_ID":659447,"COUNTY_CODE":"02","COUNTY_NAME":"Anoka","POPULATION":29962,"SE_ANNO_CAD_DATA":null},"geometry":{"type":"Polygon","coordinates":[[[-93.2632757,45.1079063],[-93.2636416,45.1079158],[-93.2637079,45.1245527],[-93.2668906,45.1245535],[-93.2669844,45.1245279],[-93.2689111,45.1245189],[-93.2752624,45.124527],[-93.2799681,45.1245009],[-93.2771872,45.1187877],[-93.284189,45.1187693],[-93.2847514,45.1202054],[-93.2881091,45.1194524],[-93.2910812,45.1193924],[-93.2907073,45.1189989],[-93.2905434,45.1187128],[-93.2945873,45.1187633],[-93.2945629,45.1184942],[-93.2943046,45.1181328],[-93.2938526,45.1177281],[-93.2927921,45.1167217],[-93.2920504,45.1159117],[-93.2916527,45.1155288],[-93.2912311,45.1150526],[-93.290738,45.1143514],[-93.2905021,45.1138472],[-93.2902492,45.1131726],[-93.2898025,45.1124383],[-93.2893491,45.1118524],[-93.2890679,45.1115075],[-93.2882583,45.1109065],[-93.2869293,45.1102085],[-93.2851329,45.1091114],[-93.2837246,45.1081446],[-93.2822152,45.1071232],[-93.2807844,45.1062444],[-93.2799356,45.10555],[-93.2792566,45.1047836],[-93.2787317,45.1039179],[-93.2784159,45.1030623],[-93.2783008,45.1021236],[-93.2784561,45.1011235],[-93.279384,45.0945683],[-93.2798799,45.0914471],[-93.2800178,45.0901779],[-93.2801647,45.0880301],[-93.2802405,45.0867338],[-93.2801908,45.0852291],[-93.2801782,45.0845427],[-93.280231,45.0843613],[-93.2802287,45.0840482],[-93.2800363,45.0831208],[-93.2794468,45.0818544],[-93.2791081,45.0810483],[-93.2790803,45.0803948],[-93.2791874,45.0791588],[-93.2793394,45.0777084],[-93.2796178,45.0755655],[-93.279863,45.0741532],[-93.280118,45.0730429],[-93.2804531,45.0723112],[-93.2807518,45.071717],[-93.2809259,45.0713703],[-93.2814133,45.0702921],[-93.28194,45.0693125],[-93.2825747,45.0682997],[-93.2830312,45.0672491],[-93.2834112,45.0663195],[-93.2838631,45.0646428],[-93.2843947,45.0622298],[-93.2849724,45.0597782],[-93.2850349,45.0588224],[-93.2847625,45.0575273],[-93.2841495,45.0561896],[-93.2831833,45.0541777],[-93.2824253,45.0524282],[-93.281956,45.0511635],[-93.2811075,45.0484187],[-93.2809594,45.0471891],[-93.2807796,45.0458773],[-93.2807108,45.0449164],[-93.2807962,45.0439001],[-93.2809344,45.0426858],[-93.281236,45.0416247],[-93.2816443,45.0403546],[-93.2821517,45.0388974],[-93.2825381,45.037781],[-93.2829826,45.0361922],[-93.2830652,45.0358514],[-93.2831884,45.0354259],[-93.2720296,45.035504],[-93.2720819,45.0409418],[-93.2677779,45.0409254],[-93.2680905,45.0499908],[-93.2636052,45.0500056],[-93.2625068,45.0500017],[-93.2625664,45.057306],[-93.2626455,45.064446],[-93.2577366,45.064472],[-93.2501978,45.0645116],[-93.2474143,45.0644858],[-93.247413,45.0616365],[-93.2367651,45.0615561],[-93.2269871,45.0616221],[-93.2270288,45.0643673],[-93.2273714,45.0787075],[-93.2276283,45.0932066],[-93.2278095,45.107084],[-93.2278288,45.1070824],[-93.2291072,45.1070796],[-93.2315701,45.1077185],[-93.2483884,45.1078248],[-93.2502491,45.1077976],[-93.2525245,45.1078777],[-93.2605565,45.1079231],[-93.2631437,45.1074094],[-93.2632757,45.1074611],[-93.2632757,45.1079063]]]}}]}