{"type":"FeatureCollection","name":"gem_lake_border","features":[{"type":"Feature","properties":{"GNIS_FEATURE_ID":2394871,"FEATURE_NAME":"gem_lake","CTU_CLASS":"CITY","COUNTY_GNIS_FEATURE_ID":659507,"COUNTY_CODE":"62","COUNTY_NAME":"Ramsey","POPULATION":530,"SE_ANNO_CAD_DATA":null},"geometry":{"type":"Polygon","coordinates":[[[-93.0554748,45.0577306],[-93.0529166,45.0546696],[-93.0527222,45.0544284],[-93.0524889,45.0541762],[-93.0514864,45.0532281],[-93.0513154,45.0530692],[-93.051191,45.0529266],[-93.0510975,45.0528005],[-93.0510197,45.0526633],[-93.0509493,45.0524713],[-93.0509177,45.0523285],[-93.0509017,45.0521748],[-93.0508933,45.05201],[-93.05115,45.0503234],[-93.045809,45.0503129],[-93.0358017,45.0503156],[-93.0358027,45.0499443],[-93.0359434,45.0495405],[-93.0358018,45.0495154],[-93.0357999,45.0484883],[-93.0366374,45.0484884],[-93.0369535,45.0475988],[-93.0338508,45.0475896],[-93.0331025,45.0503011],[-93.0311484,45.0576406],[-93.0308423,45.0576387],[-93.0283442,45.0668087],[-93.0281245,45.0674566],[-93.0288414,45.0675492],[-93.0286317,45.0681281],[-93.0292028,45.0684547],[-93.0304921,45.0678618],[-93.0309308,45.0687935],[-93.0313763,45.0686275],[-93.0352853,45.0668378],[-93.0356414,45.0666782],[-93.0359993,45.0665312],[-93.0458549,45.0632854],[-93.0458535,45.0628825],[-93.0483928,45.0620636],[-93.0484047,45.0623418],[-93.0486219,45.0622389],[-93.0489853,45.0620544],[-93.0494078,45.0618019],[-93.0554748,45.0577306]]]}}]}