{"type":"FeatureCollection","name":"golden_valley_border","features":[{"type":"Feature","properties":{"GNIS_FEATURE_ID":2394924,"FEATURE_NAME":"golden_valley","CTU_CLASS":"CITY","COUNTY_GNIS_FEATURE_ID":659472,"COUNTY_CODE":"27","COUNTY_NAME":"Hennepin","POPULATION":22034,"SE_ANNO_CAD_DATA":null},"geometry":{"type":"Polygon","coordinates":[[[-93.333795,45.0169617],[-93.3496343,45.0169552],[-93.3496996,45.0072315],[-93.3564585,45.0072601],[-93.3564718,45.0068868],[-93.3578415,45.0068816],[-93.3578282,45.0072658],[-93.3601774,45.0072756],[-93.3702991,45.0072861],[-93.3752526,45.0072908],[-93.3803028,45.0073057],[-93.400743,45.0074261],[-93.4007012,44.9999715],[-93.40058,44.9929103],[-93.4004091,44.9857998],[-93.4005095,44.9785035],[-93.4006553,44.971328],[-93.3752517,44.9708866],[-93.349492,44.9711116],[-93.3494823,44.9703202],[-93.3437377,44.970376],[-93.3437051,44.9666279],[-93.3286937,44.9664841],[-93.3286498,44.9771912],[-93.3184721,44.9771758],[-93.3184643,44.9999781],[-93.3184647,45.0010098],[-93.3186342,45.0019208],[-93.3185835,45.0060619],[-93.3287531,45.0060967],[-93.3338754,45.0061113],[-93.333795,45.0169617]]]}}]}