{"type":"FeatureCollection","name":"grant_border","features":[{"type":"Feature","properties":{"GNIS_FEATURE_ID":2394963,"FEATURE_NAME":"grant","CTU_CLASS":"CITY","COUNTY_GNIS_FEATURE_ID":659526,"COUNTY_CODE":"82","COUNTY_NAME":"Washington","POPULATION":3991,"SE_ANNO_CAD_DATA":null},"geometry":{"type":"Polygon","coordinates":[[[-92.8976655,45.123572],[-92.9047143,45.1235719],[-92.9180383,45.1235321],[-92.9247621,45.1235308],[-92.9382333,45.1235819],[-92.9450268,45.1236013],[-92.9584901,45.1236282],[-92.9651676,45.1236739],[-92.9790178,45.1236322],[-92.9844031,45.1236229],[-92.9845459,45.1157375],[-92.9806708,45.1156432],[-92.9806058,45.1120178],[-92.9755136,45.1118796],[-92.9754911,45.1105509],[-92.9652813,45.1104542],[-92.9652082,45.1189414],[-92.9599708,45.1188791],[-92.9600258,45.1159803],[-92.9551331,45.1159445],[-92.9550597,45.1085756],[-92.9508402,45.1085843],[-92.9508407,45.1086886],[-92.9476432,45.108684],[-92.9476561,45.1081239],[-92.9462256,45.1081225],[-92.9489391,45.1070291],[-92.9493996,45.1068423],[-92.9498003,45.1066879],[-92.9502478,45.1065088],[-92.9505635,45.1064036],[-92.9510481,45.1062594],[-92.9516096,45.1061285],[-92.9549291,45.1053255],[-92.9548457,45.1009488],[-92.9650882,45.1008607],[-92.9649642,45.0965504],[-92.9635835,45.0973503],[-92.9633652,45.0970378],[-92.9643453,45.0962173],[-92.9637835,45.0957126],[-92.9644602,45.0945919],[-92.9648906,45.093992],[-92.9648854,45.0938101],[-92.9597582,45.0938546],[-92.9597033,45.0905558],[-92.9589123,45.0903036],[-92.9583925,45.0901455],[-92.9580372,45.0900288],[-92.95767,45.0898859],[-92.9572316,45.0897263],[-92.9569003,45.0895763],[-92.9559747,45.0891635],[-92.9557457,45.0890752],[-92.9555525,45.0890178],[-92.9553172,45.0889507],[-92.9550656,45.0889105],[-92.954727,45.0888793],[-92.95435,45.0888535],[-92.9540394,45.088853],[-92.9536812,45.0888765],[-92.9532593,45.0889244],[-92.953352,45.0886916],[-92.9479062,45.08931],[-92.9476407,45.0893316],[-92.9474135,45.0893304],[-92.9472146,45.0893173],[-92.9469115,45.0892761],[-92.9448666,45.0888598],[-92.9448631,45.0887934],[-92.9448302,45.0886358],[-92.9447626,45.0884828],[-92.9446912,45.0883496],[-92.9445762,45.0882185],[-92.9445233,45.0881704],[-92.9444393,45.0828982],[-92.944384,45.0794285],[-92.9444612,45.0648064],[-92.9445382,45.0571769],[-92.944585,45.0503049],[-92.9445869,45.0468374],[-92.9446845,45.0358745],[-92.9445929,45.0358747],[-92.9243437,45.0359907],[-92.9039398,45.0360373],[-92.8834663,45.0361022],[-92.8752346,45.0360991],[-92.863018,45.0361694],[-92.8630168,45.03982],[-92.8630155,45.0435887],[-92.8629748,45.0468272],[-92.8629957,45.0506688],[-92.8629952,45.0517398],[-92.8629944,45.0537158],[-92.8629927,45.0579146],[-92.8629932,45.0608106],[-92.8629939,45.0656656],[-92.862994,45.0657581],[-92.8629995,45.0687682],[-92.8631788,45.0795903],[-92.8633701,45.094134],[-92.8635434,45.1083567],[-92.8637343,45.1235795],[-92.8752356,45.1235789],[-92.8764801,45.1235807],[-92.8843338,45.123571],[-92.8976655,45.123572]]]}}]}