{"type":"FeatureCollection","name":"greenwood_border","features":[{"type":"Feature","properties":{"GNIS_FEATURE_ID":2394245,"FEATURE_NAME":"greenwood","CTU_CLASS":"CITY","COUNTY_GNIS_FEATURE_ID":659472,"COUNTY_CODE":"27","COUNTY_NAME":"Hennepin","POPULATION":720,"SE_ANNO_CAD_DATA":null},"geometry":{"type":"MultiPolygon","coordinates":[[[[-93.5611355,44.9106303],[-93.5611203,44.9105626],[-93.5610685,44.9104964],[-93.5610021,44.9104394],[-93.5609483,44.9104024],[-93.5608697,44.910357],[-93.560662,44.9102509],[-93.5605407,44.9101824],[-93.560478,44.9101511],[-93.5603893,44.9101203],[-93.5603146,44.9101128],[-93.5601805,44.9101195],[-93.5600881,44.9101049],[-93.5600197,44.9100578],[-93.5599348,44.9099625],[-93.5598675,44.9099082],[-93.559803,44.9098798],[-93.5596832,44.9098428],[-93.5596027,44.9098025],[-93.5595448,44.9097461],[-93.5595094,44.9096982],[-93.5594341,44.9095811],[-93.5593966,44.9095138],[-93.55932,44.9093784],[-93.5592945,44.9093274],[-93.55927,44.9092628],[-93.5592562,44.9091972],[-93.5592509,44.909117],[-93.5592527,44.909054],[-93.5592575,44.9089996],[-93.5592768,44.9088729],[-93.5592957,44.9087745],[-93.5593087,44.9087215],[-93.5593367,44.9086337],[-93.5594016,44.9084592],[-93.5595163,44.9081362],[-93.5595652,44.9080245],[-93.5596034,44.9079576],[-93.5596367,44.9079093],[-93.5597235,44.9078171],[-93.559898,44.9077395],[-93.5599633,44.9076734],[-93.5599206,44.9076173],[-93.5598482,44.907575],[-93.5596828,44.9074871],[-93.5595975,44.9074315],[-93.5595454,44.9073903],[-93.5595039,44.9073413],[-93.5594869,44.9072906],[-93.5594807,44.9071671],[-93.5594663,44.9071049],[-93.5594336,44.9070276],[-93.5593434,44.9068492],[-93.5593087,44.906772],[-93.5592803,44.9066936],[-93.5592118,44.9064738],[-93.5591845,44.9064039],[-93.5591181,44.9062468],[-93.5590988,44.9061944],[-93.5590827,44.906142],[-93.5590692,44.9060696],[-93.5590694,44.90601],[-93.5590841,44.9059563],[-93.5591371,44.9058182],[-93.5591366,44.9057444],[-93.5590502,44.9056665],[-93.5588515,44.905709],[-93.5586876,44.905893],[-93.5586239,44.90596],[-93.5585701,44.9060105],[-93.5585199,44.906052],[-93.5584334,44.9061073],[-93.5583598,44.9061359],[-93.5582386,44.9061659],[-93.5581287,44.9062066],[-93.5580138,44.9062663],[-93.5579329,44.906321],[-93.5578649,44.9063825],[-93.5578179,44.9064407],[-93.5577289,44.9065709],[-93.557672,44.9066416],[-93.5575763,44.9067255],[-93.5575454,44.9067721],[-93.5575393,44.906823],[-93.5575445,44.9068886],[-93.5575574,44.9069513],[-93.5575981,44.9070962],[-93.5576151,44.9071681],[-93.5575467,44.9073174],[-93.5575168,44.9073667],[-93.5574667,44.9074291],[-93.5572408,44.9076692],[-93.5571959,44.9077128],[-93.5571482,44.9077545],[-93.5570964,44.9077949],[-93.5570392,44.9078315],[-93.5569698,44.9078621],[-93.5568844,44.90789],[-93.5567904,44.9079166],[-93.556526,44.9079825],[-93.5562153,44.908063],[-93.556095,44.9081182],[-93.5561021,44.9082024],[-93.5560727,44.9082491],[-93.5559746,44.9083453],[-93.5559393,44.908398],[-93.5558245,44.9085209],[-93.5557885,44.9085941],[-93.5557857,44.9086681],[-93.5558205,44.9087408],[-93.5558657,44.908797],[-93.5559806,44.9089184],[-93.5561379,44.909107],[-93.5562156,44.9091997],[-93.556262,44.9092637],[-93.5563544,44.9094021],[-93.5564087,44.909462],[-93.5565855,44.9095447],[-93.5566932,44.9095717],[-93.5567985,44.9095526],[-93.5569093,44.9094821],[-93.5569595,44.909442],[-93.557083,44.909327],[-93.557142,44.9092793],[-93.5572545,44.9092677],[-93.5574118,44.9092957],[-93.5574065,44.9093778],[-93.5573622,44.9094468],[-93.5573116,44.9095122],[-93.5572537,44.9095797],[-93.5571761,44.9096641],[-93.5570121,44.9098366],[-93.5569248,44.9099248],[-93.5567362,44.9101055],[-93.5562881,44.9105199],[-93.5559817,44.9107636],[-93.5558782,44.9108427],[-93.5557991,44.9108995],[-93.5556926,44.910937],[-93.5555049,44.9109448],[-93.55542,44.9109438],[-93.5552547,44.9109225],[-93.5551538,44.9109125],[-93.555074,44.9108998],[-93.5549615,44.9108587],[-93.5548728,44.9108341],[-93.5547997,44.9108187],[-93.5545869,44.910789],[-93.5544605,44.9107746],[-93.55436,44.9107684],[-93.5542393,44.9107728],[-93.5541512,44.9107888],[-93.5540069,44.9108281],[-93.5539339,44.9108442],[-93.5537857,44.9108688],[-93.5536947,44.9108876],[-93.553574,44.9109274],[-93.5534336,44.9109687],[-93.5531521,44.9110476],[-93.552799,44.9111311],[-93.5527263,44.9111467],[-93.5526519,44.9111583],[-93.5525258,44.9111679],[-93.5524244,44.9111722],[-93.5523233,44.911172],[-93.5521964,44.9111629],[-93.5521168,44.9111487],[-93.5520056,44.9111172],[-93.5518912,44.9110774],[-93.5517304,44.9110141],[-93.5515792,44.9109396],[-93.5514647,44.9108737],[-93.5514011,44.9108457],[-93.5512971,44.9108217],[-93.5511363,44.9108022],[-93.5509859,44.9107832],[-93.5509041,44.9107776],[-93.5507784,44.9107825],[-93.5505961,44.9108015],[-93.5504699,44.9108096],[-93.5503182,44.9108158],[-93.5494716,44.9108396],[-93.5491956,44.9108168],[-93.5490205,44.9107969],[-93.5488716,44.910775],[-93.5487245,44.9107479],[-93.5484321,44.9106884],[-93.5482593,44.9106596],[-93.5481346,44.9106429],[-93.5480092,44.9106325],[-93.5478316,44.9106337],[-93.547627,44.9106324],[-93.5475525,44.9106248],[-93.5474579,44.9106023],[-93.5472076,44.9105129],[-93.5471374,44.9104923],[-93.5470157,44.910467],[-93.546767,44.9104271],[-93.5466723,44.9104037],[-93.5466044,44.9103808],[-93.5465387,44.9103538],[-93.546475,44.9103238],[-93.5463523,44.9102582],[-93.5461759,44.9101547],[-93.5460823,44.910093],[-93.5460129,44.9100405],[-93.5459365,44.9099697],[-93.545883,44.9099088],[-93.5458468,44.909861],[-93.5458023,44.9097956],[-93.5457017,44.90963],[-93.5456551,44.9095461],[-93.5456112,44.9094615],[-93.5455701,44.9093762],[-93.5455395,44.9093076],[-93.5455082,44.9092207],[-93.545492,44.9091495],[-93.5454711,44.9090235],[-93.5454684,44.9089199],[-93.5454501,44.9088612],[-93.5453913,44.9088081],[-93.5453026,44.9087675],[-93.5452086,44.9087353],[-93.5451302,44.9087176],[-93.5450369,44.9087251],[-93.5449859,44.9087616],[-93.5449257,44.908826],[-93.5448457,44.9088502],[-93.5448047,44.9087788],[-93.5447752,44.908707],[-93.5447182,44.9086677],[-93.5446396,44.9086419],[-93.5444371,44.9086204],[-93.5439636,44.9085505],[-93.5438941,44.9085311],[-93.5437845,44.9084805],[-93.5437098,44.9084299],[-93.5436807,44.9083568],[-93.5437613,44.9083166],[-93.5440809,44.9083798],[-93.5443038,44.9084148],[-93.544404,44.9084251],[-93.5445681,44.9084334],[-93.5446948,44.9084371],[-93.5448216,44.9084387],[-93.5449863,44.9084381],[-93.5451129,44.9084355],[-93.5452396,44.908431],[-93.5453786,44.9084235],[-93.5455822,44.9084097],[-93.5456584,44.9084019],[-93.5457494,44.9083845],[-93.545835,44.9083574],[-93.5459031,44.9083318],[-93.54597,44.9083035],[-93.5460344,44.9082725],[-93.5460951,44.9082391],[-93.5461697,44.9081888],[-93.5462412,44.9081071],[-93.546306,44.9079794],[-93.5463611,44.9077845],[-93.5464055,44.9076753],[-93.5464762,44.9075946],[-93.5464995,44.9075044],[-93.5464722,44.9074371],[-93.5463537,44.9073268],[-93.5463341,44.907248],[-93.5463822,44.9072057],[-93.5464989,44.9072529],[-93.5467067,44.907304],[-93.5468092,44.9073237],[-93.5469497,44.9073326],[-93.5470571,44.9073122],[-93.5471523,44.9072625],[-93.5472085,44.9072198],[-93.5472671,44.907157],[-93.5473029,44.9070902],[-93.5473192,44.9070232],[-93.547334,44.9069308],[-93.5473473,44.9068768],[-93.5474795,44.9065006],[-93.5474949,44.9064431],[-93.5475018,44.9063764],[-93.5474996,44.9063227],[-93.5474733,44.9061339],[-93.5474611,44.9059783],[-93.5474786,44.9059064],[-93.5475331,44.9058097],[-93.547674,44.9056598],[-93.5477402,44.9055941],[-93.5478008,44.9055545],[-93.5479023,44.9054561],[-93.5479545,44.9054112],[-93.5480503,44.9053533],[-93.5482229,44.9052685],[-93.5483661,44.905194],[-93.5484465,44.9051502],[-93.5485043,44.9051153],[-93.5486107,44.9050232],[-93.548517,44.9049465],[-93.5484769,44.9048245],[-93.5484686,44.9047508],[-93.548469,44.9046771],[-93.5484809,44.904601],[-93.5485029,44.9045369],[-93.5485278,44.9044866],[-93.5485632,44.9044288],[-93.5486099,44.9043638],[-93.5488457,44.9040694],[-93.5488884,44.9040237],[-93.5489725,44.9039548],[-93.5490676,44.9039022],[-93.54913,44.9038729],[-93.5492273,44.9038314],[-93.5493166,44.9037969],[-93.5494081,44.9037642],[-93.5495245,44.9037256],[-93.5496421,44.9036891],[-93.5498535,44.903627],[-93.5500317,44.9035811],[-93.5502247,44.9035373],[-93.5505898,44.9034603],[-93.5507351,44.9034283],[-93.5514652,44.9033351],[-93.5515219,44.9033711],[-93.5516072,44.903418],[-93.5516839,44.903438],[-93.5517832,44.9034552],[-93.5518712,44.9034629],[-93.5519852,44.9034662],[-93.5520873,44.9034665],[-93.5521891,44.9034634],[-93.5522773,44.903457],[-93.5523769,44.9034453],[-93.5524783,44.9034304],[-93.552579,44.9034116],[-93.552652,44.903394],[-93.5527266,44.9033708],[-93.55279,44.9033448],[-93.5528452,44.9033101],[-93.5529027,44.9032549],[-93.5529423,44.9032062],[-93.5529831,44.9031493],[-93.5530147,44.9031006],[-93.5530619,44.9030172],[-93.5531476,44.9028507],[-93.5531283,44.9027862],[-93.5530992,44.9027234],[-93.5530507,44.902639],[-93.5534277,44.9026226],[-93.5534985,44.9016492],[-93.5529332,44.9017626],[-93.5524096,44.9018647],[-93.5520337,44.9019411],[-93.5514469,44.9020545],[-93.5507764,44.9021833],[-93.5501485,44.9023025],[-93.5499618,44.902358],[-93.5497767,44.9024168],[-93.5495932,44.9024787],[-93.549412,44.902544],[-93.5492337,44.9026128],[-93.5491459,44.9026487],[-93.549059,44.9026856],[-93.5488882,44.9027624],[-93.5487205,44.9028431],[-93.5485554,44.9029269],[-93.5483112,44.9030563],[-93.5479895,44.9032319],[-93.547831,44.9033218],[-93.5477531,44.9033679],[-93.5476003,44.9034628],[-93.5475257,44.9035116],[-93.5473805,44.9036118],[-93.5472393,44.9037151],[-93.5467542,44.9040833],[-93.5466117,44.9041856],[-93.5464651,44.904285],[-93.5462399,44.9044302],[-93.5460093,44.9045713],[-93.5456174,44.9048001],[-93.5454582,44.9048905],[-93.5453776,44.9049345],[-93.5452128,44.9050185],[-93.5451284,44.9050579],[-93.5450423,44.9050949],[-93.5449534,44.9051281],[-93.5448611,44.9051572],[-93.5447666,44.9051832],[-93.5444785,44.9052562],[-93.5442848,44.9053093],[-93.5441765,44.9053331],[-93.5440717,44.9053589],[-93.5439832,44.9053917],[-93.5439237,44.9054363],[-93.5438973,44.9054948],[-93.5438935,44.9055629],[-93.543905,44.9056375],[-93.543945,44.9057926],[-93.5439593,44.9058665],[-93.5439831,44.9059365],[-93.5440016,44.9060073],[-93.5440328,44.9061496],[-93.5440608,44.9062923],[-93.5441315,44.9067228],[-93.5441501,44.9068665],[-93.5441564,44.9069382],[-93.5441602,44.9070098],[-93.5441608,44.9070811],[-93.5441553,44.9071554],[-93.5441391,44.9072301],[-93.5441086,44.9072999],[-93.5440601,44.9073591],[-93.5439906,44.9074064],[-93.5439056,44.9074459],[-93.5437226,44.9075197],[-93.5436398,44.9075621],[-93.5434764,44.9076497],[-93.543397,44.9076953],[-93.5433217,44.9077433],[-93.5432527,44.9077949],[-93.5431891,44.907851],[-93.5431291,44.9079119],[-93.5430767,44.9079762],[-93.5430358,44.9080427],[-93.5430105,44.9081102],[-93.5430021,44.9081797],[-93.5430071,44.9082517],[-93.5430221,44.9083248],[-93.5430434,44.9083975],[-93.5430676,44.9084684],[-93.543094,44.9085376],[-93.5431245,44.908606],[-93.5431581,44.908674],[-93.5433052,44.9089434],[-93.5433428,44.9090104],[-93.5434672,44.9092094],[-93.5435068,44.9092759],[-93.5435426,44.9093429],[-93.5435728,44.9094107],[-93.5435931,44.9094807],[-93.5435981,44.9095541],[-93.5435909,44.9096274],[-93.5435742,44.9096973],[-93.5435159,44.9097588],[-93.5434281,44.9097932],[-93.5433298,44.9098161],[-93.5432292,44.9098367],[-93.543135,44.9098622],[-93.5430551,44.9099034],[-93.5430029,44.9099737],[-93.5430154,44.9100323],[-93.5431119,44.9100732],[-93.543365,44.9101934],[-93.5435348,44.9102722],[-93.5437079,44.9103469],[-93.5437963,44.9103819],[-93.5438861,44.9104153],[-93.5443435,44.9105719],[-93.544434,44.9106043],[-93.5445233,44.910638],[-93.5446111,44.9106735],[-93.5446981,44.9107108],[-93.5447849,44.9107498],[-93.5448698,44.910791],[-93.5449513,44.9108349],[-93.5450278,44.9108821],[-93.5450976,44.9109331],[-93.54516,44.9109882],[-93.5452166,44.9110472],[-93.5452686,44.911109],[-93.5453177,44.9111728],[-93.5454123,44.9113021],[-93.5455577,44.9114923],[-93.5456987,44.9116838],[-93.5457954,44.9118103],[-93.5459979,44.9120604],[-93.5461012,44.9121848],[-93.5462084,44.9123071],[-93.5462644,44.9123671],[-93.5463221,44.9124259],[-93.5463822,44.9124835],[-93.5464466,44.9125387],[-93.5465146,44.9125919],[-93.5468004,44.9127975],[-93.5468698,44.9128501],[-93.5469351,44.9129056],[-93.547061,44.91302],[-93.5471291,44.9130728],[-93.5472051,44.9131191],[-93.5472872,44.9131619],[-93.5473739,44.9132012],[-93.5474642,44.9132359],[-93.547557,44.9132649],[-93.5476519,44.9132876],[-93.5477499,44.9133054],[-93.5478502,44.9133191],[-93.5479517,44.9133293],[-93.5480535,44.9133367],[-93.5481546,44.9133418],[-93.5482545,44.9133393],[-93.5484541,44.9133077],[-93.5484474,44.9155721],[-93.5484716,44.9160859],[-93.5484705,44.9164389],[-93.5485706,44.9172275],[-93.5486471,44.9175688],[-93.5488737,44.9183326],[-93.5488826,44.9184952],[-93.5488245,44.9186219],[-93.5486987,44.9186998],[-93.5476997,44.9191256],[-93.5477065,44.9196365],[-93.5477014,44.9201935],[-93.547804,44.9201945],[-93.5478039,44.9201946],[-93.5477967,44.920333],[-93.5483726,44.9203394],[-93.5487692,44.9203739],[-93.5491158,44.9203778],[-93.5491232,44.9203477],[-93.5492851,44.9198481],[-93.5494068,44.9194027],[-93.5494646,44.919208],[-93.5495117,44.9190682],[-93.5495613,44.9189389],[-93.5496057,44.9188371],[-93.5496532,44.9187436],[-93.5497091,44.9186675],[-93.5497676,44.9186092],[-93.5498334,44.9185535],[-93.5499912,44.9184312],[-93.5500579,44.9183757],[-93.5502617,44.9181803],[-93.5506623,44.9178088],[-93.5510054,44.9174566],[-93.551131,44.9173435],[-93.5512768,44.9172193],[-93.5513269,44.9171789],[-93.5513789,44.9171398],[-93.5514807,44.9170724],[-93.5517338,44.9169216],[-93.5519021,44.9168123],[-93.5519719,44.9167733],[-93.5525135,44.9164205],[-93.5527015,44.9162363],[-93.5528044,44.9161394],[-93.5528672,44.916095],[-93.5529208,44.9160396],[-93.5530246,44.9159209],[-93.5531276,44.915824],[-93.5532531,44.915711],[-93.5535713,44.9154306],[-93.5536295,44.9153769],[-93.5537497,44.9152576],[-93.5538119,44.9152001],[-93.5538787,44.9151469],[-93.5539334,44.9151115],[-93.554015,44.9150724],[-93.5541071,44.9150431],[-93.5544267,44.9149732],[-93.5546735,44.9149311],[-93.5547711,44.9149119],[-93.5548667,44.9148883],[-93.5550084,44.9148495],[-93.5555693,44.914682],[-93.5561801,44.9145065],[-93.5564607,44.9144233],[-93.5565994,44.9143787],[-93.5569197,44.9142685],[-93.5570121,44.9142392],[-93.5571057,44.9142124],[-93.5572257,44.9141855],[-93.5573007,44.9141758],[-93.55753,44.9141566],[-93.5576275,44.91414],[-93.557697,44.9141206],[-93.5577855,44.9140871],[-93.5578712,44.9140484],[-93.5580402,44.9139662],[-93.558149,44.9139194],[-93.5582173,44.9138952],[-93.5584762,44.9138159],[-93.5585622,44.9137804],[-93.5586387,44.9137345],[-93.5586891,44.913692],[-93.5587305,44.9136447],[-93.5587694,44.9135792],[-93.5587792,44.9135276],[-93.5587682,44.913417],[-93.5587814,44.9132725],[-93.55879,44.9132001],[-93.5588026,44.9131285],[-93.5588278,44.9130408],[-93.5588663,44.9129561],[-93.5589059,44.91289],[-93.5590184,44.9127274],[-93.5590615,44.912662],[-93.5590998,44.912595],[-93.5591692,44.9124579],[-93.5592058,44.9123903],[-93.5592471,44.9123248],[-93.5592833,44.912278],[-93.5593534,44.9122044],[-93.5594476,44.9121207],[-93.5595485,44.91204],[-93.5598302,44.9118303],[-93.5599325,44.9117499],[-93.5600935,44.9116109],[-93.5604073,44.9113279],[-93.5605372,44.9112175],[-93.5606059,44.9111646],[-93.5606801,44.9111146],[-93.5608326,44.9110173],[-93.5609043,44.9109667],[-93.5609532,44.9109264],[-93.5610114,44.9108681],[-93.5610508,44.9108198],[-93.5610844,44.9107685],[-93.5611183,44.9106987],[-93.5611355,44.9106303]]],[[[-93.5503502,44.9060256],[-93.5503665,44.9059651],[-93.5502608,44.9058185],[-93.550223,44.9057713],[-93.55017,44.9057157],[-93.5501095,44.9056644],[-93.5500292,44.9056067],[-93.5499725,44.9055702],[-93.549914,44.905535],[-93.5497727,44.9054587],[-93.5496723,44.9054243],[-93.5495161,44.9053972],[-93.5491579,44.9053579],[-93.5490837,44.9053471],[-93.5489875,44.9053259],[-93.5488277,44.9052628],[-93.5487132,44.9052904],[-93.5487339,44.905391],[-93.5487663,44.9054412],[-93.5488217,44.9055081],[-93.5488881,44.9055671],[-93.5489434,44.9056039],[-93.5491017,44.9056961],[-93.5494651,44.9059234],[-93.5497088,44.9059731],[-93.5498067,44.9059916],[-93.5499426,44.906013],[-93.5500925,44.9060316],[-93.5502697,44.906049],[-93.5503502,44.9060256]]],[[[-93.5537548,44.9037092],[-93.5537349,44.9036415],[-93.5536896,44.9035948],[-93.5536099,44.9035578],[-93.5534399,44.9035147],[-93.5531904,44.9034777],[-93.5530967,44.9034707],[-93.5530028,44.9034725],[-93.5529024,44.9034818],[-93.5526764,44.9035095],[-93.5524244,44.9035291],[-93.5523492,44.9035363],[-93.5521064,44.9035643],[-93.5520194,44.9035785],[-93.5519265,44.9036088],[-93.5518759,44.9036901],[-93.551906,44.9037675],[-93.5519883,44.9038826],[-93.5521257,44.9039638],[-93.5522011,44.9040002],[-93.5522771,44.9040261],[-93.5523622,44.9040447],[-93.5525613,44.9040769],[-93.5526618,44.9040901],[-93.5528092,44.904095],[-93.5528995,44.9040859],[-93.5530728,44.9040547],[-93.553249,44.904028],[-93.5533589,44.9040013],[-93.5534629,44.9039568],[-93.553542,44.9039107],[-93.5536161,44.9038596],[-93.5537117,44.9037806],[-93.5537548,44.9037092]]]]}}]}