{"type":"FeatureCollection","name":"greenfield_border","features":[{"type":"Feature","properties":{"GNIS_FEATURE_ID":2394988,"FEATURE_NAME":"greenfield","CTU_CLASS":"CITY","COUNTY_GNIS_FEATURE_ID":659472,"COUNTY_CODE":"27","COUNTY_NAME":"Hennepin","POPULATION":2947,"SE_ANNO_CAD_DATA":null},"geometry":{"type":"Polygon","coordinates":[[[-93.6762692,45.1511976],[-93.6770701,45.1509077],[-93.6782717,45.1506494],[-93.6793839,45.1507711],[-93.6802804,45.1510862],[-93.6812225,45.1512966],[-93.6813166,45.1512829],[-93.6815456,45.1512494],[-93.6821924,45.1511548],[-93.683722,45.1502954],[-93.6848617,45.1492725],[-93.6855495,45.1481362],[-93.6860296,45.1472042],[-93.6868349,45.1461663],[-93.6877243,45.1449906],[-93.6886783,45.1440731],[-93.6899522,45.1432807],[-93.6915293,45.1425364],[-93.6932086,45.1419071],[-93.6945302,45.141241],[-93.6957025,45.1404159],[-93.6964888,45.1398348],[-93.6976504,45.1387292],[-93.6984343,45.1379004],[-93.6993302,45.1373957],[-93.7004633,45.1365598],[-93.7010166,45.1359686],[-93.7010504,45.1354842],[-93.7012143,45.1348068],[-93.7014939,45.1340408],[-93.7017872,45.1331152],[-93.7019651,45.1322837],[-93.702292,45.1315945],[-93.7028784,45.1312121],[-93.7036898,45.1308288],[-93.7046401,45.1303513],[-93.7050554,45.1299423],[-93.7058657,45.1286951],[-93.7063838,45.12773],[-93.7067979,45.1272219],[-93.7071504,45.1267692],[-93.7073928,45.1261738],[-93.7076758,45.1257544],[-93.7081307,45.1254442],[-93.708825,45.1249735],[-93.7091925,45.124748],[-93.7097545,45.1244325],[-93.7103639,45.1240624],[-93.7111289,45.1236273],[-93.7116444,45.1233225],[-93.7123336,45.122755],[-93.712726,45.1223616],[-93.713369,45.1217718],[-93.7140438,45.1211272],[-93.7143268,45.1208101],[-93.714878,45.1201208],[-93.7151925,45.1197599],[-93.7157584,45.1191367],[-93.7161353,45.1187431],[-93.7164968,45.1183496],[-93.7169378,45.1177916],[-93.7174711,45.1172891],[-93.7180188,45.1168745],[-93.7185824,45.1164272],[-93.7190057,45.1160449],[-93.7195075,45.1155862],[-93.7198841,45.1152147],[-93.7204979,45.1144598],[-93.7208636,45.1137253],[-93.7210552,45.1132758],[-93.7212156,45.112837],[-93.7215481,45.1122783],[-93.7218807,45.1116977],[-93.7220714,45.1113251],[-93.7223577,45.1107331],[-93.7225813,45.1101958],[-93.7229132,45.1096811],[-93.7233085,45.1090458],[-93.7235927,45.1086298],[-93.7238003,45.1081363],[-93.7239612,45.1076536],[-93.7241365,45.1072698],[-93.7242194,45.1070552],[-93.724378,45.1066449],[-93.7244032,45.106582],[-93.7245514,45.1062219],[-93.7246055,45.1061129],[-93.7246669,45.1060068],[-93.7249762,45.1054724],[-93.7252121,45.1050648],[-93.7252622,45.1049782],[-93.7255661,45.104453],[-93.7257415,45.1040584],[-93.7259033,45.1034436],[-93.7259659,45.1032036],[-93.7260372,45.1029392],[-93.7261476,45.1025437],[-93.7262324,45.1020128],[-93.7262579,45.1018075],[-93.7263191,45.1012037],[-93.7263075,45.1010702],[-93.7262647,45.1005767],[-93.7262117,45.0998619],[-93.726358,45.0993021],[-93.7266268,45.0988639],[-93.7268692,45.0985745],[-93.7271066,45.0982911],[-93.7277974,45.0981782],[-93.7283399,45.0981704],[-93.7287117,45.0981725],[-93.7290229,45.0980754],[-93.7292888,45.0978681],[-93.7294776,45.0976383],[-93.7295182,45.0974403],[-93.7294116,45.0974418],[-93.7276122,45.097473],[-93.7276118,45.0974051],[-93.7276103,45.0973057],[-93.727497,45.0900352],[-93.7274287,45.0883446],[-93.7223596,45.0883975],[-93.722305,45.0902179],[-93.7173579,45.0902817],[-93.7173084,45.0867749],[-93.7274964,45.0865809],[-93.727459,45.0837357],[-93.727341,45.083738],[-93.727331,45.0829694],[-93.7274489,45.082967],[-93.727424,45.0810787],[-93.7291055,45.0823779],[-93.7293776,45.0829419],[-93.730306,45.0829153],[-93.7310604,45.0837091],[-93.7328724,45.0820588],[-93.7340122,45.0828064],[-93.7353362,45.0827706],[-93.7366384,45.0836189],[-93.7370391,45.0830697],[-93.7372352,45.0827086],[-93.7377445,45.0827013],[-93.7377782,45.0826247],[-93.7378133,45.0825433],[-93.7378472,45.0824674],[-93.7378816,45.0823971],[-93.7379184,45.0823327],[-93.7379546,45.0822777],[-93.7379907,45.0822254],[-93.7380333,45.0821599],[-93.7380689,45.0820928],[-93.738095,45.0820235],[-93.7381147,45.0819527],[-93.7381349,45.0818626],[-93.7381527,45.0817841],[-93.7381733,45.081711],[-93.7381999,45.0816421],[-93.7382386,45.0815763],[-93.7382866,45.0815157],[-93.7383475,45.0814446],[-93.7383955,45.0813808],[-93.738431,45.0813116],[-93.7384598,45.0812367],[-93.7384871,45.0811757],[-93.7385321,45.0811133],[-93.7385991,45.0810641],[-93.7386732,45.0810221],[-93.7387546,45.0809812],[-93.7388396,45.0809425],[-93.7389275,45.0809056],[-93.7390176,45.0808701],[-93.739109,45.0808354],[-93.7391969,45.0808025],[-93.7393054,45.0807616],[-93.7393955,45.0807266],[-93.739484,45.0806906],[-93.7395715,45.080654],[-93.7396651,45.0806143],[-93.7397337,45.080585],[-93.7398211,45.0805477],[-93.7399085,45.0805104],[-93.7399961,45.0804734],[-93.7400839,45.0804368],[-93.7401722,45.0804008],[-93.7402609,45.0803656],[-93.7403501,45.0803313],[-93.74044,45.080298],[-93.7405306,45.080266],[-93.7406221,45.0802355],[-93.7407147,45.0802066],[-93.7408087,45.0801797],[-93.7409041,45.0801546],[-93.7410007,45.0801313],[-93.7410982,45.0801096],[-93.7411964,45.0800894],[-93.7412952,45.0800707],[-93.7413942,45.0800532],[-93.7414934,45.080037],[-93.7415925,45.0800218],[-93.7416919,45.0800082],[-93.7417928,45.0799978],[-93.7419356,45.0799893],[-93.7420485,45.0799872],[-93.7421504,45.0799893],[-93.7422513,45.0799951],[-93.7423514,45.0800044],[-93.7424511,45.0800164],[-93.7425506,45.0800307],[-93.7426499,45.0800466],[-93.7427479,45.0800633],[-93.7428325,45.080078],[-93.7429123,45.080092],[-93.7430115,45.0801087],[-93.7431148,45.080125],[-93.743196,45.0801375],[-93.743294,45.0801533],[-93.7434095,45.0801725],[-93.7435644,45.0802097],[-93.7436383,45.0802179],[-93.7437415,45.0802291],[-93.743846,45.0802403],[-93.7439381,45.0802498],[-93.7440423,45.0802592],[-93.7441436,45.0802666],[-93.7442455,45.080272],[-93.7443469,45.0802754],[-93.744449,45.0802759],[-93.7445516,45.0802735],[-93.7446527,45.0802682],[-93.744757,45.0802596],[-93.744857,45.0802493],[-93.7449574,45.0802373],[-93.7450326,45.0802286],[-93.7451075,45.0802153],[-93.7452068,45.0801981],[-93.7453055,45.0801796],[-93.7453991,45.0801602],[-93.7454953,45.0801406],[-93.7455905,45.0801127],[-93.7456856,45.0800879],[-93.7457804,45.0800619],[-93.7458748,45.0800349],[-93.7459687,45.0800069],[-93.7460621,45.0799781],[-93.7461551,45.0799484],[-93.7462475,45.079918],[-93.7463395,45.0798869],[-93.7464309,45.0798552],[-93.7465217,45.079823],[-93.7466117,45.0797899],[-93.7466996,45.0797541],[-93.7467855,45.0797157],[-93.74687,45.0796756],[-93.7469551,45.0796342],[-93.7470392,45.0795935],[-93.7471243,45.0795539],[-93.747211,45.0795164],[-93.7472998,45.0794815],[-93.7473903,45.0794487],[-93.7474971,45.079412],[-93.7476183,45.0793707],[-93.7477094,45.0793386],[-93.7478,45.0793044],[-93.7478856,45.0792673],[-93.7479689,45.0792258],[-93.7480486,45.0791807],[-93.7481309,45.0791248],[-93.7481843,45.0790906],[-93.7482473,45.0790642],[-93.7483405,45.0790513],[-93.7484195,45.0790514],[-93.7484996,45.0790483],[-93.7485946,45.0790353],[-93.7486961,45.0790195],[-93.7488352,45.0790082],[-93.7489454,45.078974],[-93.7490449,45.078957],[-93.7491444,45.0789415],[-93.7492437,45.0789282],[-93.7493445,45.0789177],[-93.7494399,45.0789122],[-93.7495431,45.0789256],[-93.7496529,45.0789571],[-93.750266,45.0790854],[-93.7520045,45.0794077],[-93.7524709,45.0795079],[-93.7532114,45.0796671],[-93.7542775,45.0798264],[-93.7559068,45.080158],[-93.7566664,45.0805664],[-93.7570507,45.0810167],[-93.7572087,45.081759],[-93.7574221,45.0824257],[-93.75803,45.0827312],[-93.7588751,45.0828471],[-93.7598021,45.0826206],[-93.7608824,45.0820886],[-93.7617058,45.0815288],[-93.7618311,45.0810561],[-93.7615831,45.0803697],[-93.7609221,45.0795407],[-93.7597993,45.0784253],[-93.7590367,45.0778814],[-93.7588161,45.0776526],[-93.7588573,45.0774529],[-93.7596629,45.0773547],[-93.760026,45.07717],[-93.759988,45.0766134],[-93.7599186,45.0762376],[-93.7601681,45.0756771],[-93.7608056,45.0750181],[-93.7614273,45.0745239],[-93.7616455,45.0740403],[-93.7615223,45.0736443],[-93.7612124,45.073523],[-93.7607159,45.0735664],[-93.7604023,45.0737888],[-93.7602403,45.0740168],[-93.760218,45.0745589],[-93.7600357,45.0748297],[-93.7595122,45.0748572],[-93.7589096,45.074542],[-93.7585696,45.0740275],[-93.7584307,45.0735421],[-93.7586548,45.0728861],[-93.7590985,45.0726872],[-93.7595078,45.0727734],[-93.7600193,45.0729938],[-93.7607876,45.0730904],[-93.7615533,45.0728921],[-93.7622383,45.0725564],[-93.7629371,45.0722163],[-93.7638536,45.0715905],[-93.7645843,45.0708546],[-93.7646029,45.0704297],[-93.7643224,45.0701152],[-93.7638419,45.0699301],[-93.7630957,45.0698272],[-93.7623998,45.0697526],[-93.7615466,45.0696385],[-93.7610642,45.0694663],[-93.7608037,45.0692089],[-93.760906,45.0688096],[-93.7613719,45.068097],[-93.7616751,45.0677552],[-93.7625142,45.0671576],[-93.7630423,45.0668393],[-93.7635513,45.0666745],[-93.7639736,45.0667752],[-93.7642982,45.0669945],[-93.7645964,45.0670762],[-93.7651807,45.0669204],[-93.7655447,45.0664645],[-93.765853,45.0652369],[-93.7658695,45.0644771],[-93.7502658,45.0645924],[-93.747382,45.0646188],[-93.7461747,45.0646352],[-93.7269228,45.064895],[-93.7065474,45.0651064],[-93.6865506,45.0652888],[-93.6659973,45.0655112],[-93.6456843,45.0657607],[-93.6458536,45.0729548],[-93.6457901,45.0801014],[-93.6459223,45.0946285],[-93.6459137,45.1090744],[-93.6459138,45.1235641],[-93.6459939,45.124968],[-93.6459751,45.1380222],[-93.6459998,45.1452401],[-93.6756936,45.1451257],[-93.6764151,45.1451229],[-93.6762692,45.1511976]]]}}]}