{"type":"FeatureCollection","name":"grey_cloud_island_border","features":[{"type":"Feature","properties":{"GNIS_FEATURE_ID":664354,"FEATURE_NAME":"grey_cloud_island","CTU_CLASS":"TOWNSHIP","COUNTY_GNIS_FEATURE_ID":659526,"COUNTY_CODE":"82","COUNTY_NAME":"Washington","POPULATION":285,"SE_ANNO_CAD_DATA":null},"geometry":{"type":"Polygon","coordinates":[[[-92.9872909,44.8148403],[-92.9954308,44.8187835],[-92.9961524,44.8225714],[-92.9990073,44.822585],[-92.9989469,44.816812],[-92.9991045,44.816764],[-92.9991592,44.8166972],[-92.9992496,44.816685],[-92.9993282,44.8166878],[-92.9994172,44.8166972],[-92.9995086,44.8167373],[-92.9996158,44.8166892],[-92.9996551,44.8166165],[-92.9997611,44.8165929],[-92.999913,44.8166124],[-93.0000468,44.8166152],[-93.0001268,44.8165809],[-93.0001967,44.816516],[-93.0002766,44.8164782],[-93.0003732,44.81645],[-93.0005041,44.8163902],[-93.0005767,44.8163367],[-93.0006447,44.8163115],[-93.0008026,44.8162705],[-93.001001,44.8161936],[-93.0011482,44.8161448],[-93.0013053,44.8161007],[-93.0013855,44.8160802],[-93.0014724,44.816043],[-93.0015703,44.8160112],[-93.0016675,44.8159718],[-93.0017535,44.8159267],[-93.0018103,44.8158898],[-93.0018652,44.815837],[-93.0019172,44.8157654],[-93.0020181,44.8156363],[-93.0021317,44.815618],[-93.0022235,44.8156088],[-93.0023194,44.8155721],[-93.0023996,44.815634],[-93.0024579,44.8156809],[-93.0025217,44.8157216],[-93.0026208,44.8157531],[-93.0026927,44.8157537],[-93.0027913,44.8157509],[-93.0028967,44.8157404],[-93.002997,44.8157358],[-93.0031268,44.8157311],[-93.0032487,44.8157398],[-93.0034178,44.8157383],[-93.0036274,44.8156644],[-93.0037528,44.8156003],[-93.0039065,44.8155063],[-93.0040181,44.8154335],[-93.0040478,44.8189677],[-93.0056058,44.8189744],[-93.005413,44.8184397],[-93.0049224,44.8171634],[-93.0049786,44.8158889],[-93.0051547,44.8153361],[-93.0054053,44.8145809],[-93.0060005,44.813308],[-93.0069409,44.8120837],[-93.0079949,44.8109269],[-93.0087857,44.8101239],[-93.0095777,44.8089746],[-93.01064,44.8077959],[-93.012081,44.8062593],[-93.0135359,44.8044756],[-93.0146188,44.8033851],[-93.0161551,44.8017234],[-93.017647,44.7999951],[-93.0188173,44.7984934],[-93.0197338,44.7972797],[-93.0206781,44.7961762],[-93.022011,44.7940336],[-93.0223836,44.7924115],[-93.0224645,44.7910604],[-93.0224643,44.7898676],[-93.0220062,44.7879212],[-93.0215333,44.786255],[-93.0210991,44.7845782],[-93.020759,44.783436],[-93.0202117,44.7825767],[-93.0198735,44.7816598],[-93.0191018,44.7796433],[-93.0181473,44.7781577],[-93.0170598,44.7767582],[-93.0163077,44.7760776],[-93.01575,44.7755689],[-93.0147987,44.7749144],[-93.0139114,44.7744079],[-93.0131811,44.7740849],[-93.0123446,44.7736946],[-93.0114049,44.7734348],[-93.0104056,44.7730973],[-93.0095823,44.7728006],[-93.0082058,44.7724635],[-93.0072863,44.7723194],[-93.0064508,44.7721929],[-93.0054323,44.7720034],[-93.0043252,44.7719667],[-93.0035237,44.7720165],[-93.002528,44.7721352],[-93.0012894,44.772421],[-93.0002354,44.7726992],[-92.9996259,44.772896],[-92.9982666,44.7734357],[-92.9967955,44.7740887],[-92.9954778,44.7745468],[-92.9938868,44.7751095],[-92.9914735,44.7754365],[-92.990226,44.7754564],[-92.9887048,44.7753884],[-92.9870058,44.775339],[-92.9844832,44.7750923],[-92.983721,44.7748973],[-92.9837249,44.7756831],[-92.9981355,44.7754586],[-92.9982048,44.7754366],[-92.998274,44.7754146],[-92.9983433,44.7753925],[-92.9984126,44.7753706],[-92.9984994,44.7753435],[-92.9985866,44.7753164],[-92.9986572,44.7752908],[-92.9987282,44.7752656],[-92.9988502,44.7752546],[-92.9989454,44.7752846],[-92.9990209,44.7753194],[-92.9991302,44.7753476],[-92.999207,44.7753521],[-92.9992842,44.7753488],[-92.9993752,44.775333],[-92.9994603,44.7753038],[-92.9995356,44.7752731],[-92.9996487,44.7752389],[-92.9997562,44.7752221],[-92.9998659,44.7752104],[-92.9999415,44.7752032],[-93.0000167,44.7751948],[-93.0001037,44.7751836],[-93.0001782,44.7751737],[-93.0002542,44.7751644],[-93.0003294,44.7751575],[-93.0004046,44.7751504],[-93.0004798,44.7751431],[-93.000555,44.7751358],[-93.0006301,44.7751284],[-93.0007147,44.7751201],[-93.000818,44.77511],[-93.0008932,44.7751028],[-93.0009684,44.7750957],[-93.0010436,44.7750888],[-93.0011377,44.7750805],[-93.0012381,44.7750722],[-93.0013386,44.7750646],[-93.0014391,44.7750576],[-93.0015398,44.7750514],[-93.0016343,44.775046],[-93.0017099,44.7750419],[-93.0017856,44.7750381],[-93.0018614,44.7750346],[-93.0019371,44.7750314],[-93.0020129,44.7750285],[-93.0020887,44.7750259],[-93.0021645,44.7750235],[-93.0022404,44.7750215],[-93.0023162,44.7750198],[-93.0024268,44.775018],[-93.0025373,44.7750169],[-93.0026383,44.7750166],[-93.0027393,44.7750172],[-93.0028403,44.7750189],[-93.0029413,44.7750214],[-93.003036,44.7750245],[-93.0031118,44.7750272],[-93.0031875,44.7750303],[-93.0032633,44.7750334],[-93.003339,44.7750367],[-93.0034148,44.77504],[-93.0034905,44.7750432],[-93.0035663,44.7750463],[-93.003642,44.7750492],[-93.0037247,44.7750521],[-93.0037979,44.7750663],[-93.0038941,44.7750885],[-93.00399,44.7751116],[-93.0040618,44.7751293],[-93.0041337,44.7751469],[-93.0042296,44.7751699],[-93.0043259,44.7751919],[-93.0044227,44.7752124],[-93.0045201,44.7752309],[-93.0046185,44.7752469],[-93.0047175,44.7752607],[-93.0048172,44.7752729],[-93.0049172,44.775284],[-93.0050173,44.7752946],[-93.0051175,44.7753052],[-93.0052175,44.7753166],[-93.0053171,44.7753291],[-93.0054164,44.7753425],[-93.0055158,44.7753561],[-93.005615,44.7753699],[-93.0057142,44.775384],[-93.0058133,44.7753984],[-93.0059123,44.7754132],[-93.0060111,44.7754284],[-93.0061097,44.7754442],[-93.0062084,44.7754602],[-93.006308,44.7754753],[-93.0063829,44.7754867],[-93.0064572,44.7754991],[-93.006555,44.7755182],[-93.0066478,44.7755413],[-93.0067411,44.7755715],[-93.0068298,44.775605],[-93.0069169,44.7756412],[-93.0070027,44.7756794],[-93.0070878,44.7757188],[-93.0071725,44.7757589],[-93.0072572,44.775799],[-93.0073424,44.7758385],[-93.0074284,44.7758766],[-93.0075158,44.7759129],[-93.0076048,44.7759465],[-93.0076964,44.7759763],[-93.0077908,44.7760019],[-93.0078871,44.7760248],[-93.00796,44.776041],[-93.008033,44.776057],[-93.0081298,44.7760792],[-93.008225,44.7761036],[-93.0083179,44.7761315],[-93.0084077,44.7761641],[-93.008496,44.7761988],[-93.0085839,44.776234],[-93.0086716,44.7762696],[-93.0087589,44.7763057],[-93.008846,44.7763421],[-93.0089329,44.7763789],[-93.0090195,44.776416],[-93.009106,44.7764534],[-93.0091922,44.776491],[-93.0092784,44.7765288],[-93.0093645,44.7765668],[-93.0094505,44.7766048],[-93.0095364,44.776643],[-93.0096223,44.7766812],[-93.0096868,44.7767098],[-93.0097512,44.7767384],[-93.0098157,44.776767],[-93.0098803,44.7767955],[-93.0099664,44.7768334],[-93.0100526,44.7768712],[-93.010139,44.7769087],[-93.0102256,44.7769461],[-93.0103123,44.7769831],[-93.0103993,44.7770198],[-93.0104865,44.7770562],[-93.0105741,44.7770922],[-93.0106619,44.7771277],[-93.0107505,44.7771622],[-93.010841,44.7771941],[-93.0109332,44.7772239],[-93.0110265,44.7772521],[-93.0110969,44.7772727],[-93.0111674,44.777293],[-93.0112612,44.7773204],[-93.0113543,44.7773487],[-93.0114462,44.7773786],[-93.0115363,44.7774108],[-93.0116246,44.7774456],[-93.0117116,44.7774826],[-93.0117971,44.7775217],[-93.0118807,44.7775628],[-93.0119623,44.7776058],[-93.0120414,44.7776507],[-93.0121176,44.7776975],[-93.0121902,44.7777471],[-93.0122596,44.7777993],[-93.0123268,44.7778533],[-93.0123931,44.7779082],[-93.0124593,44.777963],[-93.0125233,44.7780144],[-93.0178473,44.7821501],[-93.0178836,44.7821987],[-93.0179463,44.7822635],[-93.0180098,44.7823281],[-93.0180535,44.7823723],[-93.0180972,44.7824165],[-93.0181408,44.7824607],[-93.0181666,44.7825199],[-93.0181824,44.7825728],[-93.0181976,44.7826258],[-93.0182146,44.7826855],[-93.0182356,44.7827585],[-93.0182591,44.7828355],[-93.0182845,44.7829121],[-93.0183104,44.7829816],[-93.0183394,44.7830503],[-93.0183728,44.7831181],[-93.0184075,44.7831808],[-93.0184371,44.7832306],[-93.0184792,44.7832987],[-93.0185141,44.7833544],[-93.0185447,44.7834039],[-93.0185745,44.7834537],[-93.0191348,44.7846058],[-93.0191549,44.784668],[-93.0191771,44.7847384],[-93.0192002,44.7848085],[-93.019226,44.7848781],[-93.0192554,44.784947],[-93.0192871,44.7850154],[-93.0193202,44.7850837],[-93.0193454,44.7851347],[-93.0193707,44.7851858],[-93.0194037,44.785254],[-93.0194351,44.7853224],[-93.0194641,44.7853913],[-93.0194899,44.7854608],[-93.0195123,44.7855308],[-93.0195324,44.7856012],[-93.0195508,44.7856719],[-93.0195677,44.7857429],[-93.0195835,44.7858141],[-93.0195985,44.7858854],[-93.019613,44.7859568],[-93.0196238,44.7860103],[-93.0196346,44.7860639],[-93.0196495,44.7861352],[-93.019665,44.7862065],[-93.0196815,44.7862775],[-93.019699,44.7863485],[-93.0197174,44.7864193],[-93.0197364,44.7864901],[-93.0197508,44.7865432],[-93.0197652,44.7865962],[-93.0197844,44.786667],[-93.0198033,44.7867377],[-93.0198216,44.7868086],[-93.0198391,44.7868795],[-93.0198555,44.7869505],[-93.0198706,44.7870217],[-93.0198842,44.787093],[-93.0198968,44.7871644],[-93.0199085,44.7872359],[-93.0199194,44.7873075],[-93.0199298,44.7873791],[-93.0199396,44.7874508],[-93.0199492,44.7875225],[-93.0199585,44.7875943],[-93.0199678,44.787666],[-93.0199772,44.7877378],[-93.0199868,44.7878095],[-93.0199967,44.7878812],[-93.0200072,44.7879528],[-93.0200194,44.7880244],[-93.0200342,44.7880959],[-93.020046,44.7881495],[-93.0200577,44.7882032],[-93.0200716,44.7882747],[-93.0200822,44.7883462],[-93.0200875,44.7884178],[-93.0200867,44.7884894],[-93.0200817,44.7885611],[-93.0200735,44.7886328],[-93.020063,44.7887045],[-93.020051,44.7887762],[-93.0200384,44.788848],[-93.020026,44.7889197],[-93.0200146,44.7889915],[-93.020005,44.7890632],[-93.0199982,44.789135],[-93.019995,44.7892068],[-93.0199975,44.7892786],[-93.0200048,44.7893504],[-93.0200149,44.7894222],[-93.0200231,44.7894761],[-93.0200309,44.78953],[-93.0200393,44.7896018],[-93.0200436,44.7896737],[-93.0200435,44.7897456],[-93.0200404,44.7898176],[-93.0200355,44.7898896],[-93.0200311,44.7899436],[-93.0200267,44.7899976],[-93.0200216,44.7900695],[-93.0167257,44.7900877],[-93.015771,44.7900922],[-93.013969,44.7900891],[-93.0088399,44.7901178],[-93.0088918,44.7938771],[-93.0002356,44.7937828],[-92.9937806,44.7937229],[-92.993856,44.7900931],[-92.983795,44.7901292],[-92.9838215,44.7951812],[-92.9837503,44.7951617],[-92.9836792,44.7951427],[-92.9835921,44.7951163],[-92.9835072,44.7950863],[-92.9834393,44.795062],[-92.9833458,44.7950284],[-92.9832695,44.7950008],[-92.9832018,44.7949759],[-92.9831345,44.7949506],[-92.9830373,44.7949129],[-92.9829413,44.7948739],[-92.982855,44.7948369],[-92.98277,44.7947955],[-92.982693,44.7947473],[-92.9826301,44.7946995],[-92.9825756,44.7946477],[-92.9825314,44.7945934],[-92.9825056,44.7945452],[-92.9824893,44.7944945],[-92.9824825,44.7944317],[-92.9824859,44.7943438],[-92.9824955,44.794265],[-92.9825115,44.7941751],[-92.9825356,44.7941037],[-92.9825575,44.7940502],[-92.9825789,44.7939971],[-92.982603,44.793918],[-92.9826081,44.7938488],[-92.9825876,44.7937701],[-92.9825492,44.7937],[-92.9824982,44.7936341],[-92.9824483,44.7935829],[-92.9823885,44.7935528],[-92.9822905,44.7935543],[-92.9822285,44.7936339],[-92.982198,44.7937107],[-92.9821651,44.793779],[-92.982136,44.7938386],[-92.9821075,44.7938983],[-92.9820725,44.7939755],[-92.9820443,44.7940445],[-92.9820165,44.794123],[-92.9819939,44.7941935],[-92.9819737,44.7942646],[-92.981957,44.7943359],[-92.9819435,44.7944163],[-92.9819387,44.7944981],[-92.9819461,44.7945585],[-92.9819599,44.7946159],[-92.9819093,44.7946602],[-92.9818452,44.7947039],[-92.9817896,44.7947493],[-92.9817404,44.7947985],[-92.9816846,44.7948711],[-92.9816424,44.7949359],[-92.9816028,44.7950019],[-92.9815607,44.7950771],[-92.9815248,44.7951446],[-92.9814875,44.7952167],[-92.981444,44.7953018],[-92.981402,44.7953824],[-92.9813655,44.7954498],[-92.9813225,44.7955248],[-92.9812926,44.7955745],[-92.9812621,44.7956239],[-92.9812259,44.7956814],[-92.9811843,44.7957471],[-92.9811428,44.7958128],[-92.9787881,44.7958591],[-92.9787587,44.7959186],[-92.9787229,44.7959907],[-92.9786815,44.7960734],[-92.9786387,44.7961557],[-92.9786025,44.796223],[-92.978575,44.7962733],[-92.9785476,44.7963237],[-92.9785106,44.7963931],[-92.9784749,44.7964629],[-92.9784485,44.7965183],[-92.9784175,44.7965869],[-92.9783948,44.7966384],[-92.978372,44.79669],[-92.9783428,44.7967542],[-92.978318,44.7968052],[-92.9782831,44.796868],[-92.9782438,44.7969344],[-92.9782036,44.7970053],[-92.9781577,44.7970874],[-92.9800365,44.7971065],[-92.9800842,44.7983245],[-92.9787259,44.7991267],[-92.9779268,44.7991419],[-92.9779409,44.7997034],[-92.9774572,44.799705],[-92.9775062,44.8009098],[-92.9838514,44.8008547],[-92.9838705,44.8045051],[-92.9838456,44.8139171],[-92.9872909,44.8148403]]]}}]}