{"type":"FeatureCollection","name":"ham_lake_border","features":[{"type":"Feature","properties":{"GNIS_FEATURE_ID":2394273,"FEATURE_NAME":"ham_lake","CTU_CLASS":"CITY","COUNTY_GNIS_FEATURE_ID":659447,"COUNTY_CODE":"02","COUNTY_NAME":"Anoka","POPULATION":16524,"SE_ANNO_CAD_DATA":null},"geometry":{"type":"Polygon","coordinates":[[[-93.1424489,45.2973325],[-93.1619408,45.2975443],[-93.1881739,45.2977176],[-93.203693,45.2978248],[-93.2240876,45.2980186],[-93.2445203,45.2980878],[-93.2502531,45.2980682],[-93.2653775,45.2980632],[-93.2652229,45.2835894],[-93.265147,45.2692523],[-93.2652874,45.254799],[-93.2653934,45.2499674],[-93.2654935,45.2404265],[-93.2656812,45.2261511],[-93.2658604,45.2115206],[-93.2502513,45.2114888],[-93.2447087,45.2114675],[-93.2242545,45.2114171],[-93.203917,45.2114289],[-93.1834552,45.2112887],[-93.1629312,45.2111616],[-93.1423435,45.2109524],[-93.1423255,45.2255775],[-93.1422775,45.240159],[-93.1422288,45.2544797],[-93.1421697,45.2687486],[-93.1424489,45.2973325]]]}}]}