{"type":"FeatureCollection","name":"hampton_border","features":[{"type":"Feature","properties":{"GNIS_FEATURE_ID":2394282,"FEATURE_NAME":"hampton","CTU_CLASS":"CITY","COUNTY_GNIS_FEATURE_ID":659464,"COUNTY_CODE":"19","COUNTY_NAME":"Dakota","POPULATION":743,"SE_ANNO_CAD_DATA":null},"geometry":{"type":"MultiPolygon","coordinates":[[[[-93.0149197,44.6085631],[-93.0150476,44.6013223],[-93.0049122,44.6012883],[-92.9947794,44.6012555],[-92.9897144,44.6012346],[-92.9897484,44.615717],[-92.9935428,44.6157515],[-92.9935987,44.6161828],[-92.9937517,44.6162907],[-92.9933672,44.6165827],[-92.9925913,44.6171714],[-92.9924387,44.6172466],[-92.9925487,44.6173109],[-92.9922551,44.6175785],[-92.9920992,44.6177307],[-92.9915807,44.6182607],[-92.9926307,44.6178831],[-92.9925389,44.6177026],[-92.9927462,44.6174244],[-92.9929405,44.6172601],[-92.9931397,44.6171003],[-92.9934228,44.6168875],[-92.9940706,44.6164192],[-92.9943403,44.6164984],[-92.9944035,44.6157593],[-92.9947875,44.6157628],[-93.0040816,44.615771],[-93.0103512,44.6183633],[-93.0099497,44.6181563],[-93.0094915,44.6178628],[-93.0091953,44.6176193],[-93.0071658,44.6157735],[-93.0149984,44.6157795],[-93.0149197,44.6085631]]],[[[-93.0150418,44.6303043],[-93.0350297,44.6303455],[-93.0352042,44.6249764],[-93.0351367,44.6158616],[-93.0351588,44.6014073],[-93.0353193,44.5869693],[-93.035418,44.5724544],[-93.0354708,44.557978],[-93.0354007,44.5434906],[-93.0200239,44.543475],[-93.0152284,44.5433758],[-93.0002334,44.5434675],[-92.9996703,44.543462],[-92.994584,44.5434226],[-92.9797616,44.5433812],[-92.9747052,44.5433689],[-92.9595054,44.54333],[-92.9543937,44.5433258],[-92.9393103,44.5432981],[-92.9342371,44.5433332],[-92.9189993,44.5432885],[-92.9139498,44.5432913],[-92.9139517,44.5435409],[-92.9140583,44.5577384],[-92.9139251,44.572282],[-92.9140244,44.5867796],[-92.9138773,44.6012734],[-92.9137638,44.6156797],[-92.9136879,44.6249779],[-92.9136521,44.6301045],[-92.9340158,44.630105],[-92.9543106,44.6300524],[-92.9745664,44.6301281],[-92.9947841,44.6302112],[-93.0002337,44.6301862],[-93.0150418,44.6303043]],[[-92.9935428,44.6157515],[-92.9897484,44.615717],[-92.9897144,44.6012346],[-92.9947794,44.6012555],[-93.0049122,44.6012883],[-93.0150476,44.6013223],[-93.0149197,44.6085631],[-93.0149984,44.6157795],[-93.0071658,44.6157735],[-93.0091953,44.6176193],[-93.0094915,44.6178628],[-93.0099497,44.6181563],[-93.0103512,44.6183633],[-93.0040816,44.615771],[-92.9947875,44.6157628],[-92.9944035,44.6157593],[-92.9943403,44.6164984],[-92.9940706,44.6164192],[-92.9934228,44.6168875],[-92.9931397,44.6171003],[-92.9929405,44.6172601],[-92.9927462,44.6174244],[-92.9925389,44.6177026],[-92.9926307,44.6178831],[-92.9915807,44.6182607],[-92.9920992,44.6177307],[-92.9922551,44.6175785],[-92.9925487,44.6173109],[-92.9924387,44.6172466],[-92.9925913,44.6171714],[-92.9933672,44.6165827],[-92.9937517,44.6162907],[-92.9935987,44.6161828],[-92.9935428,44.6157515]],[[-92.9381912,44.6025722],[-92.9371776,44.6025754],[-92.9371572,44.6048403],[-92.9341164,44.6048398],[-92.9340938,44.6084548],[-92.9290252,44.6084482],[-92.9290583,44.6012237],[-92.9325898,44.6012245],[-92.9325938,44.6001382],[-92.9322932,44.6001381],[-92.9322995,44.5984295],[-92.9333131,44.5984292],[-92.9341492,44.5984301],[-92.9341451,44.5995764],[-92.9348476,44.5995761],[-92.9348466,44.5998504],[-92.9348455,44.6001464],[-92.9356517,44.600146],[-92.9356478,44.6012242],[-92.9381931,44.601223],[-92.9381912,44.6025722]]]]}}]}