{"type":"FeatureCollection","name":"hanover_border","features":[{"type":"Feature","properties":{"GNIS_FEATURE_ID":2394288,"FEATURE_NAME":"hanover","CTU_CLASS":"CITY","COUNTY_GNIS_FEATURE_ID":659530,"COUNTY_CODE":"86","COUNTY_NAME":"Wright","POPULATION":3194,"SE_ANNO_CAD_DATA":null},"geometry":{"type":"MultiPolygon","coordinates":[[[[-93.6962872,45.1520987],[-93.6864456,45.1522914],[-93.6863019,45.1522755],[-93.6838527,45.1506936],[-93.6813412,45.1520668],[-93.6813166,45.1512829],[-93.6812225,45.1512966],[-93.6802804,45.1510862],[-93.6793839,45.1507711],[-93.6782717,45.1506494],[-93.6770701,45.1509077],[-93.6762692,45.1511976],[-93.6760546,45.1512752],[-93.6758547,45.1513476],[-93.6743512,45.1517282],[-93.6725005,45.1523579],[-93.6714268,45.1530008],[-93.6701212,45.1537601],[-93.6689908,45.1541721],[-93.6679133,45.1544187],[-93.6668655,45.1545388],[-93.6659484,45.1544931],[-93.6656077,45.1544041],[-93.66485,45.1542062],[-93.6637005,45.1536601],[-93.6623716,45.1534024],[-93.6609362,45.1535956],[-93.6595425,45.1540966],[-93.6581509,45.1548287],[-93.6566891,45.1555225],[-93.6547448,45.1561413],[-93.6534188,45.1564274],[-93.6515969,45.156853],[-93.6501647,45.1574036],[-93.6489112,45.1579754],[-93.6474736,45.1587955],[-93.646643,45.1597122],[-93.6460149,45.1604644],[-93.6459054,45.1605955],[-93.6448761,45.161887],[-93.6439815,45.1626169],[-93.6430928,45.1631487],[-93.6418079,45.1636985],[-93.6408163,45.1640271],[-93.6399457,45.1645409],[-93.6390386,45.1653363],[-93.6385116,45.166072],[-93.6384003,45.1669193],[-93.638483,45.1680306],[-93.6387378,45.1687063],[-93.6390478,45.1694587],[-93.6390853,45.1710046],[-93.6388617,45.1720343],[-93.6386241,45.1732511],[-93.6385746,45.1741565],[-93.6389295,45.1741556],[-93.6401667,45.1741441],[-93.6441478,45.1741322],[-93.6453672,45.1741257],[-93.6657361,45.1739798],[-93.6659817,45.1668055],[-93.6861618,45.1666573],[-93.696372,45.1665542],[-93.6962872,45.1520987]]],[[[-93.7064748,45.1519972],[-93.7071511,45.1388534],[-93.7053459,45.1388782],[-93.7054129,45.1375938],[-93.7002902,45.137666],[-93.6995098,45.1376746],[-93.6992603,45.1378347],[-93.698928,45.137993],[-93.698827,45.1380465],[-93.6987487,45.1380953],[-93.6986407,45.1381944],[-93.6985309,45.1383174],[-93.6983039,45.1385945],[-93.698079,45.1388922],[-93.6979694,45.1390287],[-93.6978272,45.1391859],[-93.6975877,45.1393861],[-93.6971292,45.1397165],[-93.6968696,45.1399055],[-93.6968071,45.1413252],[-93.6967828,45.1418777],[-93.6950545,45.1438521],[-93.6954296,45.1448018],[-93.696653,45.1448211],[-93.6966477,45.144941],[-93.6962872,45.1520987],[-93.7064748,45.1519972]]],[[[-93.630378,45.1525979],[-93.6305051,45.1597881],[-93.6303875,45.1665555],[-93.6299356,45.1741769],[-93.6385746,45.1741565],[-93.6386241,45.1732511],[-93.6388617,45.1720343],[-93.6390853,45.1710046],[-93.6390478,45.1694587],[-93.6387378,45.1687063],[-93.638483,45.1680306],[-93.6384003,45.1669193],[-93.6385116,45.166072],[-93.6390386,45.1653363],[-93.6399457,45.1645409],[-93.6408163,45.1640271],[-93.6418079,45.1636985],[-93.6430928,45.1631487],[-93.6439815,45.1626169],[-93.6448761,45.161887],[-93.6459054,45.1605955],[-93.6460149,45.1604644],[-93.646643,45.1597122],[-93.6474736,45.1587955],[-93.6489112,45.1579754],[-93.6501647,45.1574036],[-93.6515969,45.156853],[-93.6534188,45.1564274],[-93.6547448,45.1561413],[-93.6566891,45.1555225],[-93.6581509,45.1548287],[-93.6595425,45.1540966],[-93.6609362,45.1535956],[-93.6623716,45.1534024],[-93.6637005,45.1536601],[-93.66485,45.1542062],[-93.6656077,45.1544041],[-93.6659484,45.1544931],[-93.6668655,45.1545388],[-93.6679133,45.1544187],[-93.6689908,45.1541721],[-93.6701212,45.1537601],[-93.6714268,45.1530008],[-93.6725005,45.1523579],[-93.6743512,45.1517282],[-93.6758547,45.1513476],[-93.6760546,45.1512752],[-93.6762692,45.1511976],[-93.6764151,45.1451229],[-93.6756936,45.1451257],[-93.6459998,45.1452401],[-93.6356254,45.1452822],[-93.6354978,45.152583],[-93.630378,45.1525979]]]]}}]}