{"type":"FeatureCollection","name":"hilltop_border","features":[{"type":"Feature","properties":{"GNIS_FEATURE_ID":2394389,"FEATURE_NAME":"hilltop","CTU_CLASS":"CITY","COUNTY_GNIS_FEATURE_ID":659447,"COUNTY_CODE":"02","COUNTY_NAME":"Anoka","POPULATION":967,"SE_ANNO_CAD_DATA":null},"geometry":{"type":"Polygon","coordinates":[[[-93.247421,45.0571798],[-93.2502484,45.0572117],[-93.2526499,45.0572321],[-93.2525827,45.0500245],[-93.2502483,45.0500284],[-93.2473441,45.0499381],[-93.247421,45.0571798]]]}}]}