{"type":"FeatureCollection","name":"hopkins_border","features":[{"type":"Feature","properties":{"GNIS_FEATURE_ID":2394417,"FEATURE_NAME":"hopkins","CTU_CLASS":"CITY","COUNTY_GNIS_FEATURE_ID":659472,"COUNTY_CODE":"27","COUNTY_NAME":"Hennepin","POPULATION":18608,"SE_ANNO_CAD_DATA":null},"geometry":{"type":"Polygon","coordinates":[[[-93.4294056,44.929755],[-93.429396,44.9296834],[-93.4293876,44.9296314],[-93.4293781,44.9295796],[-93.4293674,44.9295278],[-93.4293539,44.9294698],[-93.4293338,44.9293927],[-93.4293111,44.9293159],[-93.4292858,44.9292396],[-93.4292604,44.92917],[-93.4292406,44.9291196],[-93.4292196,44.9290695],[-93.4291975,44.9290196],[-93.4291744,44.92897],[-93.4291501,44.9289206],[-93.4291246,44.9288715],[-93.4290982,44.9288228],[-93.4290706,44.9287743],[-93.4290382,44.9287201],[-93.4289969,44.9286545],[-93.4289615,44.9286013],[-93.4289124,44.9285311],[-93.4288609,44.9284617],[-93.4288147,44.9284026],[-93.4287026,44.9282627],[-93.4274712,44.9267096],[-93.4272681,44.9261362],[-93.4266671,44.9261498],[-93.4267877,44.9245877],[-93.4269278,44.9245947],[-93.4277159,44.9246341],[-93.4278724,44.9246419],[-93.4279657,44.9235613],[-93.4278009,44.923553],[-93.4279284,44.9219501],[-93.4276237,44.9218702],[-93.4274969,44.9218527],[-93.4273448,44.9218443],[-93.4269993,44.9218383],[-93.4270459,44.9212326],[-93.4270657,44.9209745],[-93.4258932,44.9209765],[-93.4259023,44.920861],[-93.4231324,44.9208729],[-93.4233587,44.9172313],[-93.4219347,44.917574],[-93.4217772,44.9061379],[-93.4065861,44.9061242],[-93.4065814,44.9063052],[-93.4038021,44.9063025],[-93.4038068,44.9061214],[-93.4013848,44.9061374],[-93.4012788,44.920446],[-93.3961263,44.9204099],[-93.3960964,44.9208013],[-93.3921637,44.9207588],[-93.3921744,44.9205229],[-93.3858398,44.9205192],[-93.385839,44.9203389],[-93.3752502,44.9203584],[-93.374572,44.9203756],[-93.3745972,44.920492],[-93.3706313,44.9205031],[-93.3706807,44.9273759],[-93.3709463,44.9273099],[-93.3712929,44.9272196],[-93.3722838,44.9269425],[-93.3737155,44.9265513],[-93.3743763,44.9263728],[-93.3747432,44.9262968],[-93.3752504,44.9262335],[-93.3768443,44.9261572],[-93.3784162,44.9260634],[-93.3791329,44.9260265],[-93.3791408,44.927828],[-93.3791438,44.9285498],[-93.3792596,44.9285495],[-93.379261,44.9288756],[-93.3792569,44.9289442],[-93.3792491,44.9289945],[-93.3792316,44.9290645],[-93.3792153,44.9291112],[-93.3803473,44.9293901],[-93.3803029,44.9294531],[-93.380246,44.9295238],[-93.3801577,44.9296171],[-93.3800381,44.9297213],[-93.3799313,44.929799],[-93.3798459,44.9298529],[-93.3797408,44.9299115],[-93.379651,44.9299559],[-93.3795561,44.9299977],[-93.3794515,44.9300383],[-93.3793652,44.9300679],[-93.3793782,44.9300871],[-93.380808,44.929601],[-93.3808354,44.9350222],[-93.3849035,44.9350947],[-93.384918,44.9350949],[-93.3849204,44.9352588],[-93.3849204,44.9352624],[-93.3849345,44.9352716],[-93.3849484,44.9352807],[-93.3849605,44.9352918],[-93.3849714,44.9353018],[-93.3849793,44.935312],[-93.3849899,44.9353256],[-93.3850028,44.9353508],[-93.3850105,44.9353773],[-93.385013,44.9353746],[-93.385013,44.9353745],[-93.3850141,44.9353733],[-93.3851483,44.9352206],[-93.3851489,44.9352206],[-93.3854214,44.935222],[-93.3854172,44.9356419],[-93.3888239,44.9351654],[-93.3897082,44.9350467],[-93.3903641,44.9349672],[-93.3913035,44.9348657],[-93.3921336,44.9347882],[-93.3955939,44.9344864],[-93.3955889,44.9351386],[-93.400606,44.935081],[-93.4006179,44.9387487],[-93.4057857,44.9387079],[-93.405771,44.9404742],[-93.41096,44.9404792],[-93.4108849,44.9495512],[-93.4209761,44.9488864],[-93.4210012,44.9484971],[-93.421167,44.9484783],[-93.421381,44.948464],[-93.4225187,44.9483394],[-93.4233798,44.9481783],[-93.4239733,44.9480314],[-93.4255537,44.9475993],[-93.4255828,44.9459857],[-93.4253511,44.9459869],[-93.4249897,44.9446939],[-93.4236215,44.9448642],[-93.4236157,44.9454669],[-93.4210627,44.9456737],[-93.4210492,44.9424375],[-93.4164149,44.9424141],[-93.4164223,44.9416678],[-93.4163368,44.9391785],[-93.4195742,44.9391338],[-93.4195812,44.9369045],[-93.4209833,44.9369008],[-93.4210527,44.9326493],[-93.4223894,44.9325645],[-93.4227568,44.9325128],[-93.424014,44.9322803],[-93.422635,44.9315737],[-93.4262322,44.9315347],[-93.4267861,44.9311793],[-93.4268211,44.9297345],[-93.4294056,44.929755]]]}}]}