{"type":"FeatureCollection","name":"hugo_border","features":[{"type":"Feature","properties":{"GNIS_FEATURE_ID":2394440,"FEATURE_NAME":"hugo","CTU_CLASS":"CITY","COUNTY_GNIS_FEATURE_ID":659526,"COUNTY_CODE":"82","COUNTY_NAME":"Washington","POPULATION":16354,"SE_ANNO_CAD_DATA":null},"geometry":{"type":"Polygon","coordinates":[[[-92.8970882,45.2102461],[-92.9174049,45.2104077],[-92.9378588,45.2103993],[-92.9581503,45.2104384],[-92.9786929,45.2106036],[-92.9988304,45.210703],[-93.0002446,45.2106587],[-93.019699,45.2107422],[-93.0199671,45.1964052],[-93.0200488,45.1820297],[-93.0201846,45.167687],[-93.0202814,45.1528826],[-93.0203007,45.1383254],[-93.0203203,45.1249711],[-93.020362,45.1237995],[-93.0047946,45.1237418],[-93.000243,45.1237002],[-92.9994062,45.1236712],[-92.9844031,45.1236229],[-92.9790178,45.1236322],[-92.9651676,45.1236739],[-92.9584901,45.1236282],[-92.9450268,45.1236013],[-92.9382333,45.1235819],[-92.9247621,45.1235308],[-92.9180383,45.1235321],[-92.9047143,45.1235719],[-92.8976655,45.123572],[-92.8976138,45.124972],[-92.8974072,45.1379644],[-92.8973904,45.1524404],[-92.8974048,45.161361],[-92.8972011,45.1668297],[-92.8971439,45.1812177],[-92.897027,45.1957493],[-92.8970882,45.2102461]]]}}]}