{"type":"FeatureCollection","name":"independence_border","features":[{"type":"Feature","properties":{"GNIS_FEATURE_ID":2395420,"FEATURE_NAME":"independence","CTU_CLASS":"CITY","COUNTY_GNIS_FEATURE_ID":659472,"COUNTY_CODE":"27","COUNTY_NAME":"Hennepin","POPULATION":3771,"SE_ANNO_CAD_DATA":null},"geometry":{"type":"Polygon","coordinates":[[[-93.6456745,45.01251],[-93.6456845,45.0191323],[-93.6458497,45.0378559],[-93.6459383,45.0511972],[-93.6459849,45.0584527],[-93.6456843,45.0657607],[-93.6659973,45.0655112],[-93.6865506,45.0652888],[-93.7065474,45.0651064],[-93.7269228,45.064895],[-93.7461747,45.0646352],[-93.747382,45.0646188],[-93.7502658,45.0645924],[-93.7658695,45.0644771],[-93.7657955,45.0632135],[-93.765401,45.0621974],[-93.7650627,45.0612691],[-93.7650251,45.0606127],[-93.7653498,45.0599426],[-93.7657875,45.0597937],[-93.766356,45.0599161],[-93.7665002,45.0601353],[-93.766754,45.0604061],[-93.7668325,45.0500157],[-93.7668116,45.0398428],[-93.7668112,45.0396164],[-93.7668104,45.0392562],[-93.7668044,45.0363128],[-93.7668061,45.0354708],[-93.7668112,45.0335077],[-93.7668173,45.0321103],[-93.7668194,45.0302829],[-93.7668223,45.0291939],[-93.7668327,45.0283193],[-93.7668653,45.0210876],[-93.767052,45.0066495],[-93.7671596,44.9999664],[-93.7673413,44.9921284],[-93.7674951,44.9776383],[-93.7502646,44.9776954],[-93.747262,44.9777135],[-93.7269416,44.9779535],[-93.7064725,44.9780148],[-93.6860813,44.9781271],[-93.6658075,44.9784165],[-93.645432,44.9785984],[-93.645554,44.9930784],[-93.6456084,44.999968],[-93.6456121,45.0004503],[-93.6456308,45.002913],[-93.647294,45.0033963],[-93.6507135,45.0033526],[-93.6506598,45.0016153],[-93.655827,45.0016285],[-93.6558672,45.0039626],[-93.6762301,45.0040868],[-93.676304,45.0149155],[-93.6687995,45.0149013],[-93.6687662,45.0185727],[-93.6661429,45.0185674],[-93.6661242,45.0149066],[-93.6610474,45.0148849],[-93.6610134,45.012818],[-93.6558729,45.0128061],[-93.655859,45.0110979],[-93.6507165,45.0110918],[-93.6507435,45.0125101],[-93.6456745,45.01251]]]}}]}