{"type":"FeatureCollection","name":"inver_grove_heights_border","features":[{"type":"Feature","properties":{"GNIS_FEATURE_ID":2395429,"FEATURE_NAME":"inver_grove_heights","CTU_CLASS":"CITY","COUNTY_GNIS_FEATURE_ID":659464,"COUNTY_CODE":"19","COUNTY_NAME":"Dakota","POPULATION":35652,"SE_ANNO_CAD_DATA":null},"geometry":{"type":"Polygon","coordinates":[[[-93.0652902,44.8835579],[-93.0652907,44.8845326],[-93.065978,44.884439],[-93.066224,44.8843974],[-93.0664584,44.884353],[-93.0667238,44.8842899],[-93.0677907,44.8839444],[-93.0680681,44.8838458],[-93.0682806,44.8837413],[-93.0684966,44.883645],[-93.0686779,44.8835783],[-93.068866,44.8835554],[-93.0690692,44.8835461],[-93.0692915,44.8835397],[-93.0695981,44.8835396],[-93.0703913,44.8835588],[-93.0805493,44.8835921],[-93.0857402,44.8836084],[-93.0950501,44.883607],[-93.1059428,44.8835964],[-93.1059437,44.8834643],[-93.0958489,44.8834442],[-93.0947678,44.883357],[-93.0931949,44.8831716],[-93.0928354,44.883107],[-93.0924394,44.8830359],[-93.0921733,44.8829402],[-93.091671,44.8827595],[-93.0906781,44.8823177],[-93.0901525,44.8820919],[-93.0883748,44.8813283],[-93.0864051,44.8804826],[-93.0805688,44.8779763],[-93.0805475,44.8753169],[-93.080574,44.8719252],[-93.0805979,44.8693086],[-93.0805902,44.8688312],[-93.0806874,44.868463],[-93.0809388,44.8679876],[-93.0820797,44.866335],[-93.082537,44.8656725],[-93.0851109,44.8619151],[-93.0856007,44.8619137],[-93.1061217,44.8619109],[-93.1061275,44.8479348],[-93.10613,44.8418696],[-93.1058027,44.8417867],[-93.1060345,44.8410543],[-93.1060349,44.8406297],[-93.1061313,44.8406295],[-93.1061366,44.8334431],[-93.1061299,44.8182702],[-93.1061197,44.8080413],[-93.1061309,44.8072654],[-93.1061309,44.8072654],[-93.1061971,44.8071647],[-93.1062622,44.8070517],[-93.1063461,44.8068746],[-93.1063915,44.8067532],[-93.1064471,44.8065475],[-93.1064682,44.8064227],[-93.1064802,44.8062973],[-93.1064832,44.8061926],[-93.1064745,44.806025],[-93.1064495,44.8058586],[-93.1063927,44.8056447],[-93.1062246,44.8051829],[-93.1061632,44.8050154],[-93.1061711,44.8033619],[-93.1061236,44.8032247],[-93.1060434,44.8029675],[-93.1059829,44.8027246],[-93.1059382,44.8024903],[-93.1059283,44.8023098],[-93.1059305,44.8021828],[-93.1059456,44.8020133],[-93.1059657,44.8018889],[-93.1060048,44.8017202],[-93.1060378,44.8016113],[-93.1061023,44.8014389],[-93.1061416,44.8013508],[-93.1061738,44.8012886],[-93.1061789,44.7973765],[-93.1061865,44.7901308],[-93.1061337,44.7756916],[-93.0956186,44.7757269],[-93.085325,44.7756763],[-93.0748252,44.775704],[-93.0649326,44.7756857],[-93.0546134,44.775603],[-93.0445691,44.7755921],[-93.0341217,44.775544],[-93.0241835,44.7755501],[-93.01575,44.7755689],[-93.0163077,44.7760776],[-93.0170598,44.7767582],[-93.0181473,44.7781577],[-93.0191018,44.7796433],[-93.0198735,44.7816598],[-93.0202117,44.7825767],[-93.020759,44.783436],[-93.0210991,44.7845782],[-93.0215333,44.786255],[-93.0220062,44.7879212],[-93.0224643,44.7898676],[-93.0224645,44.7910604],[-93.0223836,44.7924115],[-93.022011,44.7940336],[-93.0206781,44.7961762],[-93.0197338,44.7972797],[-93.0188173,44.7984934],[-93.017647,44.7999951],[-93.0161551,44.8017234],[-93.0146188,44.8033851],[-93.0135359,44.8044756],[-93.012081,44.8062593],[-93.01064,44.8077959],[-93.0095777,44.8089746],[-93.0087857,44.8101239],[-93.0079949,44.8109269],[-93.0069409,44.8120837],[-93.0060005,44.813308],[-93.0054053,44.8145809],[-93.0051547,44.8153361],[-93.0049786,44.8158889],[-93.0049224,44.8171634],[-93.005413,44.8184397],[-93.0056058,44.8189744],[-93.0059927,44.8200062],[-93.0063787,44.8210376],[-93.007,44.8221583],[-93.0076221,44.8232802],[-93.0082287,44.8248444],[-93.008835,44.8264074],[-93.0089103,44.8270846],[-93.008985,44.8277561],[-93.0095408,44.82956],[-93.0098101,44.8304093],[-93.0099457,44.8308121],[-93.0100941,44.8312526],[-93.0106928,44.8327951],[-93.0109354,44.8334203],[-93.0113668,44.835377],[-93.0117925,44.8373778],[-93.0119117,44.8384348],[-93.0113224,44.8400706],[-93.010644,44.8454482],[-93.0096415,44.8502446],[-93.0093719,44.8523243],[-93.009165,44.854064],[-93.0089929,44.8551819],[-93.0086876,44.8576194],[-93.0088336,44.8606115],[-93.0089833,44.8619712],[-93.0094309,44.8637305],[-93.0101489,44.8657628],[-93.0105474,44.8661528],[-93.011393,44.8669311],[-93.0152552,44.8668939],[-93.0156055,44.8641029],[-93.0297679,44.8641365],[-93.029784,44.8619386],[-93.0248418,44.8619441],[-93.024937,44.8618939],[-93.0250253,44.8618473],[-93.0251064,44.8617808],[-93.0251621,44.8617342],[-93.0246104,44.8615053],[-93.0244562,44.8615048],[-93.0244352,44.8603132],[-93.029713,44.8603005],[-93.0296121,44.8552728],[-93.0293058,44.8552703],[-93.0293094,44.8534128],[-93.0296757,44.853405],[-93.0296918,44.8516999],[-93.0288521,44.8516819],[-93.0287966,44.8500716],[-93.0277643,44.8500586],[-93.0277629,44.8484209],[-93.0314761,44.8483951],[-93.0314927,44.8501152],[-93.0319164,44.8501105],[-93.0319965,44.853408],[-93.0341073,44.8534175],[-93.0341389,44.8553025],[-93.0375903,44.8553255],[-93.0375774,44.8567542],[-93.0361057,44.8567735],[-93.0359718,44.8638139],[-93.0399074,44.8638466],[-93.0399212,44.8653757],[-93.03992,44.8654797],[-93.04488,44.8654964],[-93.0449055,44.8672904],[-93.0453889,44.8672914],[-93.0454657,44.8727155],[-93.0454669,44.8728029],[-93.0450067,44.8728021],[-93.0449989,44.8738862],[-93.0454823,44.8738941],[-93.0454889,44.8743561],[-93.0450054,44.8743486],[-93.0450136,44.8749262],[-93.0455357,44.8749346],[-93.045553,44.8761502],[-93.0450355,44.8761437],[-93.0450318,44.8764243],[-93.0455074,44.8764408],[-93.0454913,44.8776577],[-93.0450155,44.8776566],[-93.0450141,44.8777618],[-93.04549,44.8777629],[-93.0454864,44.8780291],[-93.0450106,44.8780281],[-93.0450069,44.8783103],[-93.0454825,44.8783221],[-93.0454641,44.8797136],[-93.0449922,44.8797191],[-93.0449571,44.882058],[-93.0499296,44.8821499],[-93.0499355,44.882044],[-93.0499547,44.8816982],[-93.0500449,44.8816969],[-93.0523552,44.8816638],[-93.0524171,44.8834625],[-93.0588536,44.8835104],[-93.0652902,44.8835579]]]}}]}