{"type":"FeatureCollection","name":"lake_elmo_border","features":[{"type":"Feature","properties":{"GNIS_FEATURE_ID":2395589,"FEATURE_NAME":"lake_elmo","CTU_CLASS":"CITY","COUNTY_GNIS_FEATURE_ID":659526,"COUNTY_CODE":"82","COUNTY_NAME":"Washington","POPULATION":13514,"SE_ANNO_CAD_DATA":null},"geometry":{"type":"Polygon","coordinates":[[[-92.9542146,45.0288218],[-92.9541315,45.0211166],[-92.949761,45.0212263],[-92.9494633,45.0205697],[-92.9491397,45.0199103],[-92.949073,45.0198113],[-92.9489921,45.0195697],[-92.9489543,45.0193812],[-92.9489385,45.0192167],[-92.9489303,45.0190636],[-92.9489443,45.0188308],[-92.9489509,45.0185826],[-92.9489335,45.0184245],[-92.9489005,45.018281],[-92.9488347,45.0180463],[-92.9486595,45.0176995],[-92.9484506,45.0172647],[-92.9481509,45.0164969],[-92.9479641,45.0162112],[-92.947833,45.0160427],[-92.9477038,45.015829],[-92.9472774,45.015107],[-92.9471538,45.0149763],[-92.9470634,45.0149061],[-92.9468961,45.0147992],[-92.9467643,45.0147121],[-92.9466059,45.0146357],[-92.9464445,45.0145617],[-92.946264,45.0144923],[-92.9452892,45.0141818],[-92.9450412,45.0140865],[-92.944884,45.0140211],[-92.9448042,45.0139741],[-92.9446842,45.0138944],[-92.9445762,45.0137979],[-92.9444707,45.0136987],[-92.9443867,45.0135706],[-92.9443102,45.0134252],[-92.9442727,45.0133594],[-92.9442566,45.0130626],[-92.9442765,45.0067828],[-92.9439671,45.0067851],[-92.9440411,44.999979],[-92.9439399,44.9912795],[-92.944189,44.991252],[-92.9440778,44.9777422],[-92.9440377,44.9633808],[-92.9339719,44.9634108],[-92.9339052,44.9557617],[-92.9338435,44.9544105],[-92.9338586,44.953878],[-92.9339207,44.9525513],[-92.9339805,44.9516458],[-92.9340611,44.9504474],[-92.9341844,44.9490519],[-92.9340228,44.9490645],[-92.9340221,44.9491302],[-92.9297722,44.9491437],[-92.9255225,44.949157],[-92.9254776,44.9489879],[-92.9238405,44.9488978],[-92.9218856,44.9488298],[-92.9201107,44.9488236],[-92.9160839,44.948822],[-92.9134885,44.9488389],[-92.9112386,44.9488458],[-92.9097585,44.9488631],[-92.905083,44.948851],[-92.9029315,44.9488604],[-92.8938298,44.9488748],[-92.8836565,44.9489374],[-92.8799886,44.9488992],[-92.873486,44.9489393],[-92.8632732,44.9489418],[-92.8625148,44.948942],[-92.8625146,44.9492033],[-92.8627421,44.9492042],[-92.8627347,44.9636209],[-92.8628733,44.9779825],[-92.8628764,44.9803012],[-92.8626519,44.980756],[-92.8626098,44.9808769],[-92.8625916,44.9809828],[-92.8625793,44.9811419],[-92.8625533,44.9816331],[-92.8609241,44.9816442],[-92.8616771,44.9827366],[-92.8628798,44.9827285],[-92.862893,44.9925761],[-92.8628203,44.9999698],[-92.8627317,45.0069967],[-92.8627832,45.0145887],[-92.8610565,45.0145993],[-92.8603484,45.0164252],[-92.8602026,45.0164259],[-92.8601218,45.0166292],[-92.8602683,45.0166314],[-92.8583698,45.021525],[-92.8581838,45.0215263],[-92.8570014,45.0249182],[-92.8568771,45.0251654],[-92.8567684,45.025396],[-92.8566287,45.0256157],[-92.8564504,45.0258133],[-92.856215,45.0263351],[-92.8552727,45.0275485],[-92.853985,45.0288604],[-92.8585607,45.0288119],[-92.8586372,45.0312645],[-92.860621,45.0313474],[-92.8625945,45.0314383],[-92.8625652,45.0315125],[-92.8625284,45.0315884],[-92.8624879,45.0316633],[-92.8623537,45.0319125],[-92.8622717,45.0320715],[-92.8622486,45.0321532],[-92.8622402,45.0322335],[-92.8622439,45.0322964],[-92.8622592,45.0323666],[-92.8622795,45.032423],[-92.8628011,45.0324319],[-92.8629746,45.0324322],[-92.8629776,45.0327026],[-92.8629785,45.0327755],[-92.8629835,45.0332288],[-92.862988,45.033636],[-92.8629981,45.0345411],[-92.8630033,45.0350089],[-92.8630075,45.0353838],[-92.8628171,45.0353834],[-92.8605205,45.0353787],[-92.8605199,45.0352416],[-92.8592876,45.0352391],[-92.8592871,45.0351294],[-92.8589205,45.0351286],[-92.8588395,45.0351289],[-92.8587587,45.0351293],[-92.858791,45.0361322],[-92.863018,45.0361694],[-92.8752346,45.0360991],[-92.8834663,45.0361022],[-92.9039398,45.0360373],[-92.9243437,45.0359907],[-92.9445929,45.0358747],[-92.9446845,45.0358745],[-92.9458329,45.0358718],[-92.946797,45.0353564],[-92.947144,45.035169],[-92.9475064,45.0349377],[-92.9478377,45.0346844],[-92.9481305,45.0344422],[-92.9483845,45.0342],[-92.9485845,45.033969],[-92.9488152,45.0336831],[-92.9489841,45.0334356],[-92.9502039,45.0313409],[-92.9503572,45.0310826],[-92.9505339,45.0308296],[-92.950757,45.0305876],[-92.9509805,45.0304058],[-92.9512115,45.0302351],[-92.9515585,45.0300203],[-92.9542146,45.0288218]]]}}]}