{"type":"FeatureCollection","name":"lake_saint_croix_beach_border","features":[{"type":"Feature","properties":{"GNIS_FEATURE_ID":2395599,"FEATURE_NAME":"lake_saint_croix_beach","CTU_CLASS":"CITY","COUNTY_GNIS_FEATURE_ID":659526,"COUNTY_CODE":"82","COUNTY_NAME":"Washington","POPULATION":1023,"SE_ANNO_CAD_DATA":null},"geometry":{"type":"Polygon","coordinates":[[[-92.752443,44.9307742],[-92.7710693,44.9309991],[-92.7765656,44.9309903],[-92.7766502,44.9279244],[-92.7766553,44.927505],[-92.7767423,44.920265],[-92.776745,44.9200441],[-92.7766844,44.9158901],[-92.7750564,44.9158961],[-92.7720872,44.9158892],[-92.7720771,44.9172031],[-92.7727276,44.9172207],[-92.7727343,44.9175993],[-92.7720836,44.9175923],[-92.7720616,44.9186798],[-92.7715934,44.9186899],[-92.7688027,44.9187491],[-92.7688193,44.9180622],[-92.7652753,44.9180649],[-92.7652589,44.9185157],[-92.7640657,44.9185292],[-92.7560842,44.9186291],[-92.7545702,44.9241247],[-92.7534993,44.9274797],[-92.752443,44.9307742]]]}}]}