{"type":"FeatureCollection","name":"lakeville_border","features":[{"type":"Feature","properties":{"GNIS_FEATURE_ID":2395614,"FEATURE_NAME":"lakeville","CTU_CLASS":"CITY","COUNTY_GNIS_FEATURE_ID":659464,"COUNTY_CODE":"19","COUNTY_NAME":"Dakota","POPULATION":73828,"SE_ANNO_CAD_DATA":null},"geometry":{"type":"Polygon","coordinates":[[[-93.3185934,44.6451527],[-93.3187304,44.6305713],[-93.2882901,44.6307106],[-93.2781348,44.6307438],[-93.2684009,44.6307555],[-93.2683709,44.6248572],[-93.2640255,44.6248369],[-93.2640128,44.6262082],[-93.2612325,44.6261951],[-93.2609083,44.6273936],[-93.2606627,44.628297],[-93.2605937,44.6285387],[-93.260532,44.6287201],[-93.2604613,44.6288999],[-93.260382,44.6290777],[-93.260294,44.6292535],[-93.2601975,44.629427],[-93.260146,44.6295128],[-93.2593759,44.6307673],[-93.2502406,44.6307696],[-93.2379487,44.6307297],[-93.2379527,44.6304844],[-93.2352769,44.6234563],[-93.2322629,44.6234575],[-93.2322483,44.6242268],[-93.2296503,44.624228],[-93.2296545,44.624002],[-93.2279634,44.6240027],[-93.2279739,44.6234596],[-93.2178047,44.6234638],[-93.2177661,44.6262068],[-93.2076617,44.6262411],[-93.2076873,44.6234983],[-93.2025071,44.6235155],[-93.2024893,44.6254082],[-93.2000644,44.6254162],[-93.2000139,44.6307373],[-93.2076198,44.6307154],[-93.2073309,44.6597167],[-93.2072679,44.6885344],[-93.197148,44.688523],[-93.1768147,44.6886573],[-93.1563836,44.6885643],[-93.1565451,44.7029945],[-93.1564584,44.717337],[-93.1769225,44.7173565],[-93.1973757,44.7173866],[-93.2177361,44.717397],[-93.2382511,44.7174195],[-93.2484364,44.7174065],[-93.2527093,44.7174117],[-93.2715429,44.7174329],[-93.2780017,44.7174395],[-93.2812445,44.7174479],[-93.3183406,44.7175386],[-93.3184216,44.7030425],[-93.3184089,44.6885962],[-93.3183305,44.6741268],[-93.3185319,44.6596548],[-93.3185514,44.6550546],[-93.3185934,44.6451527]]]}}]}