{"type":"FeatureCollection","name":"lakeland_shores_border","features":[{"type":"Feature","properties":{"GNIS_FEATURE_ID":2395610,"FEATURE_NAME":"lakeland_shores","CTU_CLASS":"CITY","COUNTY_GNIS_FEATURE_ID":659526,"COUNTY_CODE":"82","COUNTY_NAME":"Washington","POPULATION":334,"SE_ANNO_CAD_DATA":null},"geometry":{"type":"Polygon","coordinates":[[[-92.7708815,44.9423895],[-92.751338,44.9423302],[-92.7520335,44.9453799],[-92.7525695,44.9480717],[-92.7526468,44.9484317],[-92.7528521,44.9490874],[-92.7530837,44.9498074],[-92.7538182,44.9520717],[-92.7549102,44.9553062],[-92.7551523,44.955758],[-92.7625927,44.9537957],[-92.7633845,44.9534842],[-92.7631186,44.952975],[-92.7637449,44.9528096],[-92.7635659,44.952467],[-92.7707463,44.9524758],[-92.7708815,44.9423895]]]}}]}