{"type":"FeatureCollection","name":"lakeland_border","features":[{"type":"Feature","properties":{"GNIS_FEATURE_ID":2395609,"FEATURE_NAME":"lakeland","CTU_CLASS":"CITY","COUNTY_GNIS_FEATURE_ID":659526,"COUNTY_CODE":"82","COUNTY_NAME":"Washington","POPULATION":1680,"SE_ANNO_CAD_DATA":null},"geometry":{"type":"Polygon","coordinates":[[[-92.7551523,44.955758],[-92.7560721,44.957474],[-92.7565884,44.9584374],[-92.7578164,44.9598846],[-92.7588974,44.9614077],[-92.7598932,44.9631161],[-92.7606367,44.9643812],[-92.7611742,44.965031],[-92.7614951,44.965419],[-92.7630715,44.966358],[-92.7646691,44.9671649],[-92.7662,44.967648],[-92.7676187,44.9683902],[-92.7682129,44.9690882],[-92.7683802,44.9693003],[-92.7684909,44.96949],[-92.7685975,44.9696915],[-92.7687258,44.9699416],[-92.7690196,44.9705066],[-92.7690907,44.9708763],[-92.7694143,44.9725591],[-92.7695614,44.9731658],[-92.7698649,44.9744172],[-92.7814286,44.974339],[-92.7814593,44.9634939],[-92.7814768,44.9489169],[-92.7817294,44.9346115],[-92.7817759,44.9309604],[-92.7765656,44.9309903],[-92.7710693,44.9309991],[-92.752443,44.9307742],[-92.7517628,44.9328567],[-92.7514274,44.933882],[-92.7511861,44.9346196],[-92.7508087,44.9362822],[-92.7508059,44.9366345],[-92.7507825,44.9395791],[-92.7507863,44.9400195],[-92.7508028,44.9401178],[-92.751338,44.9423302],[-92.7708815,44.9423895],[-92.7707463,44.9524758],[-92.7635659,44.952467],[-92.7637449,44.9528096],[-92.7631186,44.952975],[-92.7633845,44.9534842],[-92.7625927,44.9537957],[-92.7551523,44.955758]]]}}]}