{"type":"FeatureCollection","name":"landfall_border","features":[{"type":"Feature","properties":{"GNIS_FEATURE_ID":2395626,"FEATURE_NAME":"landfall","CTU_CLASS":"CITY","COUNTY_GNIS_FEATURE_ID":659526,"COUNTY_CODE":"82","COUNTY_NAME":"Washington","POPULATION":813,"SE_ANNO_CAD_DATA":null},"geometry":{"type":"Polygon","coordinates":[[[-92.9734469,44.9523957],[-92.9796802,44.9524586],[-92.9797281,44.9498326],[-92.9831815,44.9498706],[-92.9831232,44.9489767],[-92.9734385,44.9490128],[-92.9734469,44.9523957]]]}}]}