{"type":"FeatureCollection","name":"lauderdale_border","features":[{"type":"Feature","properties":{"GNIS_FEATURE_ID":2395642,"FEATURE_NAME":"lauderdale","CTU_CLASS":"CITY","COUNTY_GNIS_FEATURE_ID":659507,"COUNTY_CODE":"62","COUNTY_NAME":"Ramsey","POPULATION":2221,"SE_ANNO_CAD_DATA":null},"geometry":{"type":"Polygon","coordinates":[[[-93.1973227,44.9989067],[-93.1999543,44.9988979],[-93.1999543,44.9999782],[-93.1999436,45.0007134],[-93.2077445,45.0006673],[-93.2077481,44.9999772],[-93.2076863,44.9916652],[-93.2077046,44.988083],[-93.1974574,44.9880974],[-93.1973227,44.9989067]]]}}]}