{"type":"FeatureCollection","name":"lexington_border","features":[{"type":"Feature","properties":{"GNIS_FEATURE_ID":2395696,"FEATURE_NAME":"lexington","CTU_CLASS":"CITY","COUNTY_GNIS_FEATURE_ID":659447,"COUNTY_CODE":"02","COUNTY_NAME":"Anoka","POPULATION":2738,"SE_ANNO_CAD_DATA":null},"geometry":{"type":"MultiPolygon","coordinates":[[[[-93.1738046,45.1460552],[-93.1737416,45.1458572],[-93.173892,45.1389119],[-93.1810225,45.1389244],[-93.1806111,45.1376958],[-93.1738865,45.1376556],[-93.1739088,45.1353843],[-93.1742884,45.1351523],[-93.1841753,45.1351879],[-93.1841634,45.1315613],[-93.1637027,45.1315244],[-93.1635806,45.1388865],[-93.1634627,45.1459922],[-93.1738046,45.1460552]]],[[[-93.1738275,45.1478932],[-93.1786753,45.1479251],[-93.1788458,45.1477982],[-93.1789164,45.146103],[-93.1738046,45.1460552],[-93.1738275,45.1478932]]]]}}]}