{"type":"FeatureCollection","name":"lilydale_border","features":[{"type":"Feature","properties":{"GNIS_FEATURE_ID":2395708,"FEATURE_NAME":"lilydale","CTU_CLASS":"CITY","COUNTY_GNIS_FEATURE_ID":659464,"COUNTY_CODE":"19","COUNTY_NAME":"Dakota","POPULATION":790,"SE_ANNO_CAD_DATA":null},"geometry":{"type":"Polygon","coordinates":[[[-93.1518697,44.8929242],[-93.1514769,44.8932149],[-93.1503134,44.8925345],[-93.1471088,44.8928413],[-93.1470858,44.893313],[-93.1469549,44.8939549],[-93.148642,44.8934778],[-93.1488654,44.8936699],[-93.1473558,44.8948491],[-93.1480493,44.895491],[-93.1472019,44.8959518],[-93.1468244,44.8960998],[-93.145122,44.896692],[-93.1447365,44.896083],[-93.1462232,44.8947721],[-93.1464544,44.8947722],[-93.1465005,44.8943937],[-93.1439351,44.8944152],[-93.1439664,44.8970977],[-93.1433654,44.89735],[-93.1427184,44.8976625],[-93.1422638,44.89786],[-93.1417553,44.8981341],[-93.1411621,44.8984631],[-93.1406922,44.8987099],[-93.1398525,44.8991212],[-93.139028,44.8981884],[-93.1383963,44.8984791],[-93.1392054,44.8994228],[-93.1383269,44.8997791],[-93.1377105,44.8989945],[-93.1374717,44.8991042],[-93.1375025,44.8979412],[-93.1367629,44.8979356],[-93.136763,44.9007497],[-93.1363855,44.9013147],[-93.135276,44.9027133],[-93.1348985,44.9031576],[-93.1345133,44.9035141],[-93.1341049,44.903876],[-93.133157,44.9046547],[-93.1315082,44.905905],[-93.1306374,44.9065027],[-93.1300825,44.9068317],[-93.1292426,44.9072429],[-93.1286801,44.907528],[-93.1252424,44.9096224],[-93.1238281,44.9104498],[-93.1241156,44.9106792],[-93.1212336,44.9126215],[-93.1211835,44.9121987],[-93.1213982,44.9120658],[-93.1212725,44.9118028],[-93.1202105,44.9120495],[-93.1199952,44.912122],[-93.1197802,44.9122109],[-93.1195113,44.9123331],[-93.1192659,44.9124716],[-93.1188134,44.9127705],[-93.1185679,44.9129091],[-93.1183529,44.912998],[-93.1181145,44.9130706],[-93.1178682,44.9131376],[-93.1176604,44.9131826],[-93.1174529,44.9132605],[-93.1172384,44.9134209],[-93.1162138,44.9143928],[-93.1172369,44.9149647],[-93.1159059,44.9161853],[-93.1151192,44.9161725],[-93.1146371,44.9165869],[-93.1133295,44.9169778],[-93.1106589,44.9193364],[-93.1111861,44.9196652],[-93.1252426,44.9196174],[-93.126182,44.9196287],[-93.1287947,44.919624],[-93.1290183,44.9194924],[-93.129342,44.9192127],[-93.1299741,44.9185821],[-93.130845,44.9176827],[-93.1315001,44.916893],[-93.1317005,44.9161853],[-93.1318932,44.9152418],[-93.132294,44.9139912],[-93.1324713,44.9129709],[-93.1327641,44.9118244],[-93.1331494,44.9106561],[-93.1335579,44.9097455],[-93.1342822,44.9087474],[-93.1350374,44.9077271],[-93.1359928,44.9065973],[-93.1366631,44.9056814],[-93.1374338,44.9049739],[-93.138366,44.9043762],[-93.1397143,44.903784],[-93.1405696,44.9033289],[-93.1415172,44.9025172],[-93.1425727,44.9019085],[-93.1440057,44.9011077],[-93.1451998,44.9002467],[-93.1463476,44.8992869],[-93.1480269,44.8979706],[-93.1490591,44.8972027],[-93.1499217,44.8965829],[-93.1506073,44.8960125],[-93.1515546,44.8950635],[-93.1522632,44.8943724],[-93.1531374,44.8936637],[-93.1518697,44.8929242]],[[-93.149112,44.8940649],[-93.1488809,44.8938784],[-93.1491351,44.8936864],[-93.1494124,44.8938839],[-93.1507449,44.8929295],[-93.1513536,44.8932917],[-93.1500134,44.8942954],[-93.1496977,44.8944984],[-93.1484799,44.8952357],[-93.1479336,44.8947065],[-93.1489195,44.8941691],[-93.149112,44.8940649]]]}}]}