{"type":"FeatureCollection","name":"lino_lakes_border","features":[{"type":"Feature","properties":{"GNIS_FEATURE_ID":2395725,"FEATURE_NAME":"lino_lakes","CTU_CLASS":"CITY","COUNTY_GNIS_FEATURE_ID":659447,"COUNTY_CODE":"02","COUNTY_NAME":"Anoka","POPULATION":21658,"SE_ANNO_CAD_DATA":null},"geometry":{"type":"Polygon","coordinates":[[[-93.019699,45.2107422],[-93.0400768,45.210756],[-93.0604693,45.2107732],[-93.1011172,45.2108437],[-93.1214571,45.2108545],[-93.1423435,45.2109524],[-93.142527,45.1962557],[-93.1425378,45.1817722],[-93.1426806,45.1673656],[-93.1429589,45.1530324],[-93.1376903,45.1530429],[-93.1377404,45.1385863],[-93.1430125,45.1385632],[-93.1431627,45.1249704],[-93.1431663,45.1241933],[-93.1274142,45.1241167],[-93.1252455,45.1240893],[-93.1220163,45.1240771],[-93.1067272,45.1240793],[-93.101641,45.1240943],[-93.0867708,45.1240752],[-93.0811891,45.1240414],[-93.0662102,45.1240297],[-93.0608446,45.1240516],[-93.0564178,45.1240234],[-93.0253546,45.1238202],[-93.020362,45.1237995],[-93.0203203,45.1249711],[-93.0203007,45.1383254],[-93.0202814,45.1528826],[-93.0201846,45.167687],[-93.0200488,45.1820297],[-93.0199671,45.1964052],[-93.019699,45.2107422]],[[-93.0407368,45.174658],[-93.040694,45.1675471],[-93.0357182,45.1675814],[-93.0356817,45.1530702],[-93.0406306,45.152968],[-93.0458067,45.153014],[-93.0457735,45.1493619],[-93.0611273,45.149478],[-93.061174,45.1531488],[-93.0612114,45.1675684],[-93.0784216,45.1675495],[-93.0815966,45.1675863],[-93.0815597,45.1748353],[-93.0407368,45.174658]]]}}]}