{"type":"FeatureCollection","name":"little_canada_border","features":[{"type":"Feature","properties":{"GNIS_FEATURE_ID":2395733,"FEATURE_NAME":"little_canada","CTU_CLASS":"CITY","COUNTY_GNIS_FEATURE_ID":659507,"COUNTY_CODE":"62","COUNTY_NAME":"Ramsey","POPULATION":10632,"SE_ANNO_CAD_DATA":null},"geometry":{"type":"Polygon","coordinates":[[[-93.0560469,45.0358479],[-93.0665202,45.0359062],[-93.0868333,45.0359279],[-93.0867784,45.0431502],[-93.1062443,45.0432075],[-93.1062029,45.0358728],[-93.1060713,45.0207115],[-93.1059598,45.0063413],[-93.0864796,45.0063076],[-93.0865234,45.0100851],[-93.0861752,45.0103635],[-93.0854948,45.0102736],[-93.0849486,45.0101782],[-93.0841565,45.01003],[-93.0837407,45.0099749],[-93.0829627,45.0098763],[-93.0817076,45.0097053],[-93.0800903,45.0094908],[-93.0793262,45.0094528],[-93.0775261,45.0094278],[-93.077249,45.0091056],[-93.0767874,45.0081768],[-93.0766909,45.0080327],[-93.0765773,45.0079433],[-93.0763371,45.0077943],[-93.0763427,45.0097343],[-93.069694,45.0097331],[-93.0692459,45.009756],[-93.0687978,45.0098118],[-93.06835,45.0099005],[-93.0678788,45.0100277],[-93.0673766,45.010177],[-93.0661856,45.0105562],[-93.0662026,45.0131741],[-93.0660925,45.0170292],[-93.0661066,45.0208634],[-93.0663003,45.0278491],[-93.0663059,45.0281182],[-93.0559689,45.0280606],[-93.0560469,45.0358479]]]}}]}