{"type":"FeatureCollection","name":"long_lake_border","features":[{"type":"Feature","properties":{"GNIS_FEATURE_ID":2395756,"FEATURE_NAME":"long_lake","CTU_CLASS":"CITY","COUNTY_GNIS_FEATURE_ID":659472,"COUNTY_CODE":"27","COUNTY_NAME":"Hennepin","POPULATION":1700,"SE_ANNO_CAD_DATA":null},"geometry":{"type":"Polygon","coordinates":[[[-93.5692093,44.9893473],[-93.5737382,44.9893537],[-93.5737518,44.988219],[-93.5739382,44.9882491],[-93.5740257,44.9882604],[-93.5741519,44.9882702],[-93.5745061,44.988289],[-93.5747594,44.9883],[-93.5750508,44.9883092],[-93.5762932,44.9883388],[-93.5769146,44.9883573],[-93.5770667,44.9883631],[-93.5772186,44.9883708],[-93.5773321,44.9883784],[-93.5774453,44.988388],[-93.5775706,44.9884028],[-93.5776701,44.9884183],[-93.5777682,44.9884371],[-93.5778767,44.9884621],[-93.57802,44.988498],[-93.5781863,44.9885422],[-93.5788008,44.9887133],[-93.5788284,44.9891024],[-93.5881942,44.9892311],[-93.5882381,44.9855382],[-93.5839119,44.9854569],[-93.5839095,44.9850689],[-93.5811732,44.9850697],[-93.58122,44.9828007],[-93.5816159,44.9828238],[-93.5815705,44.9783101],[-93.5814432,44.9783043],[-93.5813609,44.9783041],[-93.5812299,44.9783176],[-93.581056,44.9783434],[-93.5807472,44.9783961],[-93.5805998,44.978423],[-93.5802973,44.978481],[-93.5783995,44.9790356],[-93.5774587,44.9784806],[-93.5772791,44.9783679],[-93.5771247,44.9783015],[-93.5751583,44.9783062],[-93.5750893,44.9799634],[-93.5736464,44.9802517],[-93.5736632,44.9779633],[-93.5713239,44.9779861],[-93.5706134,44.9782889],[-93.5683266,44.9782565],[-93.5683234,44.9784689],[-93.5683149,44.9785954],[-93.5683079,44.97865],[-93.5682911,44.9787019],[-93.5682463,44.9787651],[-93.5681205,44.9788797],[-93.5680374,44.9789477],[-93.5678769,44.9790874],[-93.5678156,44.9791447],[-93.5677312,44.9792349],[-93.5676838,44.9792986],[-93.5676583,44.9793491],[-93.567627,44.9794557],[-93.5675873,44.9795213],[-93.5675493,44.9795689],[-93.5674909,44.979629],[-93.5674241,44.9796822],[-93.5673422,44.979723],[-93.5671799,44.9797778],[-93.5669923,44.979833],[-93.5666918,44.9799294],[-93.566621,44.979949],[-93.5664518,44.9799884],[-93.5663339,44.980021],[-93.5662665,44.9800465],[-93.5660729,44.9801376],[-93.565983,44.9801673],[-93.5658868,44.9801813],[-93.5658116,44.9801837],[-93.5657345,44.9801812],[-93.5655794,44.9801723],[-93.5653507,44.980167],[-93.5651737,44.9801587],[-93.5650494,44.9801406],[-93.5649738,44.9801361],[-93.5648989,44.980145],[-93.5645292,44.980209],[-93.5643291,44.9802367],[-93.564256,44.9802506],[-93.5641618,44.9802767],[-93.5640936,44.9803017],[-93.564005,44.9803452],[-93.5639418,44.980397],[-93.5638879,44.9804331],[-93.5638199,44.9804536],[-93.5637446,44.9804655],[-93.5636364,44.980476],[-93.5635158,44.9804798],[-93.5634164,44.9804942],[-93.5633154,44.9805393],[-93.5632181,44.980604],[-93.5630516,44.9804728],[-93.5622578,44.9798658],[-93.5583561,44.9808548],[-93.5583833,44.982464],[-93.5603954,44.9828018],[-93.5605234,44.9824174],[-93.5611718,44.9824928],[-93.56094,44.9828938],[-93.5618032,44.9830387],[-93.5618081,44.9835173],[-93.5551666,44.9823518],[-93.554902,44.9822482],[-93.5545369,44.982166],[-93.5534441,44.9816699],[-93.5509409,44.9803635],[-93.5458037,44.9808512],[-93.5461712,44.9813109],[-93.5483056,44.9838134],[-93.5487491,44.9842012],[-93.5488717,44.9843044],[-93.5489716,44.9843857],[-93.5490321,44.9844321],[-93.5490873,44.9844706],[-93.5491637,44.9845201],[-93.5493186,44.9846082],[-93.5495628,44.984736],[-93.5496267,44.9847665],[-93.5496982,44.9847948],[-93.5497687,44.9848129],[-93.5499636,44.9848398],[-93.5500848,44.9875451],[-93.5526527,44.9875095],[-93.5543811,44.9870327],[-93.5565983,44.9866559],[-93.5572898,44.9867114],[-93.5573053,44.9846635],[-93.5605193,44.9844674],[-93.560513,44.9853035],[-93.5692093,44.9893473]]]}}]}