{"type":"FeatureCollection","name":"maplewood_border","features":[{"type":"Feature","properties":{"GNIS_FEATURE_ID":2395846,"FEATURE_NAME":"maplewood","CTU_CLASS":"CITY","COUNTY_GNIS_FEATURE_ID":659507,"COUNTY_CODE":"62","COUNTY_NAME":"Ramsey","POPULATION":41581,"SE_ANNO_CAD_DATA":null},"geometry":{"type":"Polygon","coordinates":[[[-92.9846851,45.0330721],[-92.9848548,45.0330685],[-92.9850677,45.0331132],[-92.9852559,45.0331636],[-92.9858048,45.0333595],[-92.9861018,45.033497],[-92.9868908,45.0339372],[-92.9872289,45.034111],[-92.9874375,45.0341731],[-92.9892176,45.034563],[-92.9902406,45.0347066],[-92.9947294,45.0352632],[-92.995009,45.0347098],[-92.9956418,45.0349834],[-92.9959332,45.0350727],[-92.9962247,45.0351339],[-92.9965594,45.0351595],[-92.9968688,45.035213],[-92.9978872,45.0353177],[-92.9983046,45.0353585],[-92.9987122,45.0354056],[-92.9989079,45.0354283],[-92.9994185,45.0355235],[-92.9998484,45.0356283],[-93.0001306,45.035695],[-93.0004665,45.0357713],[-93.0008767,45.0357877],[-93.0010446,45.0358991],[-93.0017937,45.0359101],[-93.0023283,45.0360076],[-93.004525,45.0362365],[-93.0045356,45.0357613],[-93.0051352,45.0357608],[-93.0057346,45.0357599],[-93.0057256,45.0363035],[-93.0099528,45.0367199],[-93.0136574,45.0367785],[-93.0172186,45.0363914],[-93.0171524,45.0357412],[-93.0180012,45.0357397],[-93.018032,45.0363849],[-93.0213715,45.03675],[-93.0252676,45.0367156],[-93.0287391,45.0367202],[-93.0295329,45.0365378],[-93.0318661,45.0365801],[-93.0322517,45.0365155],[-93.0337604,45.0367548],[-93.0359063,45.0368173],[-93.036176,45.0357607],[-93.0365867,45.035762],[-93.0458682,45.0357902],[-93.0560469,45.0358479],[-93.0559689,45.0280606],[-93.0663059,45.0281182],[-93.0663003,45.0278491],[-93.0661066,45.0208634],[-93.0660925,45.0170292],[-93.0662026,45.0131741],[-93.0661856,45.0105562],[-93.0673766,45.010177],[-93.0678788,45.0100277],[-93.06835,45.0099005],[-93.0687978,45.0098118],[-93.0692459,45.009756],[-93.069694,45.0097331],[-93.0763427,45.0097343],[-93.0763371,45.0077943],[-93.0765773,45.0079433],[-93.0766909,45.0080327],[-93.0767874,45.0081768],[-93.077249,45.0091056],[-93.0775261,45.0094278],[-93.0793262,45.0094528],[-93.0800903,45.0094908],[-93.0817076,45.0097053],[-93.0829627,45.0098763],[-93.0837407,45.0099749],[-93.0841565,45.01003],[-93.0849486,45.0101782],[-93.0854948,45.0102736],[-93.0861752,45.0103635],[-93.0865234,45.0100851],[-93.0864796,45.0063076],[-93.1059598,45.0063413],[-93.1059145,44.9999711],[-93.1059775,44.991879],[-93.0863242,44.9917937],[-93.0661851,44.9919762],[-93.0458379,44.9920078],[-93.0253886,44.9919208],[-93.0151258,44.9918954],[-93.0050505,44.9919508],[-93.0051957,44.9775178],[-93.0050857,44.9630307],[-93.0050611,44.9485981],[-93.0048807,44.933941],[-93.0047863,44.9194317],[-93.004489,44.9122686],[-93.0044847,44.905088],[-93.0044593,44.8907925],[-93.0002369,44.8908299],[-92.9841424,44.8909799],[-92.9841475,44.8945994],[-92.9843309,44.9198485],[-92.9844418,44.9342283],[-92.9845467,44.9487087],[-92.9847348,44.9633141],[-92.9846722,44.9777493],[-92.9847142,44.9922587],[-92.9847176,44.9994889],[-92.9948193,44.9993288],[-92.9948285,44.9956911],[-92.9975103,44.9957466],[-92.997467,44.9993009],[-93.0002438,44.9992482],[-93.015091,44.9990981],[-93.0150364,44.9999695],[-93.0150497,45.0036426],[-93.016198,45.0036525],[-93.0161789,45.0047816],[-93.0150472,45.005205],[-93.0150719,45.010195],[-93.0154748,45.0101946],[-93.0154719,45.0106876],[-93.0150755,45.0108433],[-93.0151505,45.0262366],[-93.005034,45.026366],[-93.005053,45.0281611],[-93.0038891,45.0281835],[-93.0005727,45.0282375],[-92.9993946,45.0282331],[-92.9982347,45.0282735],[-92.9964283,45.028269],[-92.9948798,45.0283004],[-92.9949067,45.0318713],[-92.9916546,45.0319046],[-92.9915991,45.0311725],[-92.9912973,45.0308014],[-92.9911536,45.0308557],[-92.9910534,45.0308998],[-92.9908838,45.0309388],[-92.9906832,45.0309887],[-92.9905056,45.0310112],[-92.9903734,45.0310187],[-92.9903543,45.0295626],[-92.9902616,45.0295888],[-92.9901909,45.0296099],[-92.9901199,45.02963],[-92.9900236,45.029651],[-92.989946,45.0296566],[-92.9898683,45.0296488],[-92.9897712,45.0296241],[-92.9896749,45.0295967],[-92.9895792,45.0295863],[-92.9894828,45.0295945],[-92.9893842,45.0296111],[-92.98931,45.0296262],[-92.9892356,45.0296418],[-92.9891361,45.0296604],[-92.9890359,45.0296726],[-92.988935,45.0296788],[-92.9888335,45.0296831],[-92.9887316,45.0296859],[-92.9886531,45.029687],[-92.9885771,45.029687],[-92.9884727,45.0296857],[-92.9883711,45.0296826],[-92.9882701,45.0296779],[-92.9881703,45.0296695],[-92.9880735,45.0296485],[-92.9879781,45.0296213],[-92.9878813,45.0295988],[-92.987805,45.0295884],[-92.9877319,45.0295889],[-92.9876362,45.0296127],[-92.9875676,45.0296424],[-92.9875158,45.029679],[-92.9875285,45.0297446],[-92.9876121,45.029781],[-92.9876845,45.0298022],[-92.9877557,45.0298251],[-92.9878289,45.029851],[-92.9878924,45.0299035],[-92.987863,45.0299779],[-92.987875,45.0300296],[-92.9879004,45.0300817],[-92.9879121,45.0301393],[-92.9878728,45.0302043],[-92.9877611,45.0302121],[-92.9876845,45.0301675],[-92.9876115,45.0301151],[-92.9875203,45.0300866],[-92.9874451,45.0300739],[-92.9873688,45.0300656],[-92.9872677,45.0300614],[-92.9871666,45.0300622],[-92.9870639,45.0300564],[-92.9869674,45.0300371],[-92.9868732,45.0300095],[-92.986804,45.0299855],[-92.9867365,45.0299598],[-92.9866474,45.029924],[-92.9865609,45.029884],[-92.9864841,45.029838],[-92.9864275,45.0297756],[-92.986428,45.0297084],[-92.9864893,45.029651],[-92.9865491,45.0295904],[-92.9865882,45.0295224],[-92.9866142,45.0294692],[-92.9866326,45.0294158],[-92.9866401,45.0293463],[-92.9866194,45.0292735],[-92.9865708,45.0292022],[-92.9865018,45.0291558],[-92.9864144,45.0291435],[-92.9863122,45.0291513],[-92.9862041,45.0291679],[-92.986103,45.0291842],[-92.9860057,45.0292048],[-92.9859333,45.0292223],[-92.9858607,45.0292393],[-92.9857627,45.0292577],[-92.9856626,45.0292704],[-92.9855866,45.0292773],[-92.9855084,45.029281],[-92.9854077,45.0292811],[-92.9853289,45.0292778],[-92.9852518,45.0292709],[-92.985152,45.0292546],[-92.9850603,45.0292271],[-92.984977,45.0291875],[-92.9849177,45.0291528],[-92.9848592,45.0291168],[-92.984765,45.0290517],[-92.9846859,45.0290077],[-92.9846851,45.0330721]]]}}]}