{"type":"FeatureCollection","name":"maple_grove_border","features":[{"type":"Feature","properties":{"GNIS_FEATURE_ID":2395838,"FEATURE_NAME":"maple_grove","CTU_CLASS":"CITY","COUNTY_GNIS_FEATURE_ID":659472,"COUNTY_CODE":"27","COUNTY_NAME":"Hennepin","POPULATION":71230,"SE_ANNO_CAD_DATA":null},"geometry":{"type":"Polygon","coordinates":[[[-93.5281783,45.1050249],[-93.5284547,45.1048326],[-93.5261045,45.1039983],[-93.525644,45.1039626],[-93.5257153,45.1035872],[-93.5257213,45.1034566],[-93.525697,45.103351],[-93.5256446,45.103281],[-93.5242437,45.1035561],[-93.5233475,45.1034035],[-93.5222554,45.1034589],[-93.5222705,45.101103],[-93.5233592,45.1011268],[-93.5236957,45.1004071],[-93.522275,45.1003993],[-93.522312,45.0946438],[-93.5219716,45.0801293],[-93.5220343,45.0656257],[-93.5214254,45.0655882],[-93.5193039,45.065458],[-93.5189944,45.0654324],[-93.5187089,45.0653796],[-93.5184239,45.0652909],[-93.517955,45.065104],[-93.5176682,45.0649946],[-93.5174897,45.0649265],[-93.5173518,45.0648739],[-93.5173527,45.0649777],[-93.517358,45.0656108],[-93.5020816,45.0655785],[-93.5002568,45.0655891],[-93.4818956,45.065754],[-93.4616812,45.0657436],[-93.4472388,45.0656746],[-93.4466584,45.0664167],[-93.44544,45.0658614],[-93.4445907,45.0655826],[-93.4436792,45.0653256],[-93.4411913,45.0646876],[-93.4405194,45.0652786],[-93.440498,45.0658615],[-93.439584,45.0658684],[-93.4395861,45.0656431],[-93.4242779,45.0656188],[-93.4149102,45.0656598],[-93.4006877,45.0657375],[-93.4019516,45.0802184],[-93.4021092,45.0945734],[-93.4023852,45.1088248],[-93.4023563,45.1106879],[-93.403479,45.1106892],[-93.4034557,45.1155281],[-93.4050565,45.1155364],[-93.4050503,45.1161159],[-93.4072516,45.1161594],[-93.4072169,45.1194588],[-93.4105346,45.1195295],[-93.4135799,45.1204347],[-93.413613,45.123417],[-93.4095654,45.1233553],[-93.4095945,45.1219337],[-93.4087263,45.1219187],[-93.4087059,45.1223915],[-93.407202,45.1223623],[-93.4071928,45.1233191],[-93.4021615,45.1232422],[-93.4020971,45.1249722],[-93.4019045,45.1376902],[-93.4016124,45.152043],[-93.4216292,45.1522449],[-93.4418726,45.1522954],[-93.4619222,45.1523088],[-93.4821187,45.1524016],[-93.5002579,45.1526648],[-93.5022211,45.1526931],[-93.5218352,45.1529077],[-93.5219401,45.1455561],[-93.5221379,45.1383432],[-93.5220601,45.1249705],[-93.5220622,45.1238153],[-93.5222182,45.1092365],[-93.5223469,45.1090501],[-93.5235153,45.1042991],[-93.5240523,45.1043997],[-93.5230238,45.108579],[-93.523506,45.1082353],[-93.5247411,45.1073669],[-93.5264583,45.1061395],[-93.5255602,45.1049625],[-93.5255205,45.104867],[-93.5276317,45.1054053],[-93.5281783,45.1050249]]]}}]}