{"type":"FeatureCollection","name":"maple_plain_border","features":[{"type":"Feature","properties":{"GNIS_FEATURE_ID":2395841,"FEATURE_NAME":"maple_plain","CTU_CLASS":"CITY","COUNTY_GNIS_FEATURE_ID":659472,"COUNTY_CODE":"27","COUNTY_NAME":"Hennepin","POPULATION":1950,"SE_ANNO_CAD_DATA":null},"geometry":{"type":"Polygon","coordinates":[[[-93.6456745,45.01251],[-93.6507435,45.0125101],[-93.6507165,45.0110918],[-93.655859,45.0110979],[-93.6558729,45.0128061],[-93.6610134,45.012818],[-93.6610474,45.0148849],[-93.6661242,45.0149066],[-93.6661429,45.0185674],[-93.6687662,45.0185727],[-93.6687995,45.0149013],[-93.676304,45.0149155],[-93.6762301,45.0040868],[-93.6558672,45.0039626],[-93.655827,45.0016285],[-93.6506598,45.0016153],[-93.6507135,45.0033526],[-93.647294,45.0033963],[-93.6456308,45.002913],[-93.6456671,45.0076908],[-93.6456745,45.01251]]]}}]}