{"type":"FeatureCollection","name":"medina_border","features":[{"type":"Feature","properties":{"GNIS_FEATURE_ID":2395084,"FEATURE_NAME":"medina","CTU_CLASS":"CITY","COUNTY_GNIS_FEATURE_ID":659472,"COUNTY_CODE":"27","COUNTY_NAME":"Hennepin","POPULATION":7250,"SE_ANNO_CAD_DATA":null},"geometry":{"type":"Polygon","coordinates":[[[-93.6456308,45.002913],[-93.6456121,45.0004503],[-93.6252602,45.0005795],[-93.6145737,45.0005657],[-93.5760499,44.9999751],[-93.5635944,44.9994425],[-93.5224035,44.9997754],[-93.5224019,44.9999689],[-93.5223321,45.0071273],[-93.522254,45.0216201],[-93.522655,45.0362682],[-93.5223884,45.0416043],[-93.5223285,45.0415993],[-93.5222639,45.0415942],[-93.5221993,45.0415896],[-93.5221346,45.0415854],[-93.5220699,45.0415817],[-93.5220132,45.0415787],[-93.5219484,45.0415757],[-93.5218836,45.0415732],[-93.5218268,45.0415713],[-93.5217619,45.0415695],[-93.521697,45.0415681],[-93.5216321,45.0415672],[-93.5215671,45.0415667],[-93.5215103,45.0415666],[-93.5214889,45.0415667],[-93.5214893,45.0415669],[-93.5216977,45.041711],[-93.521913,45.04185],[-93.5221348,45.0419837],[-93.522363,45.0421119],[-93.5223631,45.0421119],[-93.5222846,45.0436801],[-93.5221592,45.0509903],[-93.5220343,45.0656257],[-93.5425763,45.0656806],[-93.5635522,45.0657536],[-93.5840167,45.065625],[-93.6046983,45.0656137],[-93.6252614,45.0656582],[-93.6456843,45.0657607],[-93.6459849,45.0584527],[-93.6459383,45.0511972],[-93.6458497,45.0378559],[-93.6456845,45.0191323],[-93.6456745,45.01251],[-93.6456671,45.0076908],[-93.6456308,45.002913]],[[-93.6405094,45.0511452],[-93.6406116,45.0584499],[-93.6301102,45.0584683],[-93.6301366,45.0510451],[-93.6405094,45.0511452]]]}}]}