{"type":"FeatureCollection","name":"mendota_heights_border","features":[{"type":"Feature","properties":{"GNIS_FEATURE_ID":2395097,"FEATURE_NAME":"mendota_heights","CTU_CLASS":"CITY","COUNTY_GNIS_FEATURE_ID":659464,"COUNTY_CODE":"19","COUNTY_NAME":"Dakota","POPULATION":11658,"SE_ANNO_CAD_DATA":null},"geometry":{"type":"MultiPolygon","coordinates":[[[[-93.1059497,44.9196826],[-93.1111861,44.9196652],[-93.1106589,44.9193364],[-93.1133295,44.9169778],[-93.1146371,44.9165869],[-93.1151192,44.9161725],[-93.1159059,44.9161853],[-93.1172369,44.9149647],[-93.1162138,44.9143928],[-93.1172384,44.9134209],[-93.1174529,44.9132605],[-93.1176604,44.9131826],[-93.1178682,44.9131376],[-93.1181145,44.9130706],[-93.1183529,44.912998],[-93.1185679,44.9129091],[-93.1188134,44.9127705],[-93.1192659,44.9124716],[-93.1195113,44.9123331],[-93.1197802,44.9122109],[-93.1199952,44.912122],[-93.1202105,44.9120495],[-93.1212725,44.9118028],[-93.1213982,44.9120658],[-93.1211835,44.9121987],[-93.1212336,44.9126215],[-93.1241156,44.9106792],[-93.1238281,44.9104498],[-93.1252424,44.9096224],[-93.1286801,44.907528],[-93.1292426,44.9072429],[-93.1300825,44.9068317],[-93.1306374,44.9065027],[-93.1315082,44.905905],[-93.133157,44.9046547],[-93.1341049,44.903876],[-93.1345133,44.9035141],[-93.1348985,44.9031576],[-93.135276,44.9027133],[-93.1363855,44.9013147],[-93.136763,44.9007497],[-93.1367629,44.8979356],[-93.1375025,44.8979412],[-93.1374717,44.8991042],[-93.1377105,44.8989945],[-93.1383269,44.8997791],[-93.1392054,44.8994228],[-93.1383963,44.8984791],[-93.139028,44.8981884],[-93.1398525,44.8991212],[-93.1406922,44.8987099],[-93.1411621,44.8984631],[-93.1417553,44.8981341],[-93.1422638,44.89786],[-93.1427184,44.8976625],[-93.1433654,44.89735],[-93.1439664,44.8970977],[-93.1439351,44.8944152],[-93.1465005,44.8943937],[-93.1464544,44.8947722],[-93.1462232,44.8947721],[-93.1447365,44.896083],[-93.145122,44.896692],[-93.1468244,44.8960998],[-93.1472019,44.8959518],[-93.1480493,44.895491],[-93.1473558,44.8948491],[-93.1488654,44.8936699],[-93.148642,44.8934778],[-93.1469549,44.8939549],[-93.1470858,44.893313],[-93.1471088,44.8928413],[-93.1503134,44.8925345],[-93.1514769,44.8932149],[-93.1518697,44.8929242],[-93.151338,44.8925621],[-93.1543878,44.8901705],[-93.1568747,44.890024],[-93.157028,44.8848879],[-93.1579907,44.8845533],[-93.1581297,44.8812177],[-93.1593346,44.881323],[-93.1592307,44.8842846],[-93.1610405,44.8836758],[-93.1667789,44.8836374],[-93.1664479,44.8838952],[-93.1660786,44.8847181],[-93.1666486,44.8849211],[-93.1676362,44.8874774],[-93.1657571,44.8883223],[-93.1626298,44.8886844],[-93.1618902,44.8887172],[-93.156869,44.8902138],[-93.1568158,44.8920037],[-93.1572851,44.8917781],[-93.1586254,44.8913995],[-93.1599348,44.8911583],[-93.1611211,44.8909388],[-93.1625538,44.8905604],[-93.1640635,44.8902751],[-93.1653575,44.8900119],[-93.1669518,44.8894139],[-93.167768,44.8889695],[-93.1690002,44.8883879],[-93.1698166,44.8881136],[-93.1708025,44.8879106],[-93.1723276,44.887735],[-93.1736755,44.8876306],[-93.1745614,44.8875866],[-93.1753394,44.887614],[-93.1766391,44.8878152],[-93.177358,44.888135],[-93.1781595,44.8886011],[-93.1786987,44.8885133],[-93.1794534,44.8883322],[-93.1806394,44.8879864],[-93.18191,44.8875418],[-93.1826261,44.8871303],[-93.1830186,44.8865872],[-93.1831644,44.8860934],[-93.1830485,44.8855174],[-93.182817,44.8850292],[-93.1822695,44.8844643],[-93.1815759,44.8839487],[-93.1807899,44.8835154],[-93.1800115,44.8829889],[-93.1793409,44.8824568],[-93.1788938,44.8819083],[-93.1786006,44.8812666],[-93.1785925,44.8807125],[-93.1788231,44.8801748],[-93.1794772,44.8793354],[-93.1802006,44.8787593],[-93.181209,44.878057],[-93.182079,44.8777113],[-93.1828798,44.8774314],[-93.1843812,44.8769868],[-93.1857979,44.8764873],[-93.1866524,44.8760373],[-93.1874297,44.8754995],[-93.1880372,44.8749783],[-93.1885714,44.8742051],[-93.1890619,44.8732716],[-93.1896637,44.8721801],[-93.1907368,44.8710499],[-93.1918245,44.8703099],[-93.1932534,44.8694858],[-93.1949144,44.8686259],[-93.1961922,44.8680142],[-93.1981076,44.8671462],[-93.1995506,44.8660146],[-93.2004135,44.8649644],[-93.2003678,44.8642061],[-93.1996761,44.8633746],[-93.1987976,44.8626234],[-93.1979115,44.8619172],[-93.1672705,44.8619429],[-93.1627134,44.8619394],[-93.1625527,44.8618789],[-93.1616988,44.8618498],[-93.1609594,44.8618256],[-93.1597748,44.8617108],[-93.1551042,44.8617135],[-93.1544822,44.8617559],[-93.1533491,44.8619316],[-93.1467503,44.8619257],[-93.1262445,44.8619139],[-93.1222392,44.8619319],[-93.1220131,44.861962],[-93.1216842,44.8619887],[-93.1212977,44.8620154],[-93.1209076,44.8620334],[-93.1108402,44.8620007],[-93.1106058,44.8619884],[-93.1061217,44.8619109],[-93.1060936,44.874971],[-93.1059669,44.8763734],[-93.1059437,44.8834643],[-93.1059428,44.8835964],[-93.1058948,44.8908268],[-93.1059466,44.9053102],[-93.1059497,44.9196826]]],[[[-93.149112,44.8940649],[-93.1489195,44.8941691],[-93.1479336,44.8947065],[-93.1484799,44.8952357],[-93.1496977,44.8944984],[-93.1500134,44.8942954],[-93.1513536,44.8932917],[-93.1507449,44.8929295],[-93.1494124,44.8938839],[-93.1491351,44.8936864],[-93.1488809,44.8938784],[-93.149112,44.8940649]]]]}}]}