{"type":"FeatureCollection","name":"minnetrista_border","features":[{"type":"Feature","properties":{"GNIS_FEATURE_ID":2395352,"FEATURE_NAME":"minnetrista","CTU_CLASS":"CITY","COUNTY_GNIS_FEATURE_ID":659472,"COUNTY_CODE":"27","COUNTY_NAME":"Hennepin","POPULATION":8827,"SE_ANNO_CAD_DATA":null},"geometry":{"type":"Polygon","coordinates":[[[-93.645432,44.9785984],[-93.6658075,44.9784165],[-93.6860813,44.9781271],[-93.7064725,44.9780148],[-93.7269416,44.9779535],[-93.747262,44.9777135],[-93.7502646,44.9776954],[-93.7674951,44.9776383],[-93.7674996,44.9775356],[-93.7676476,44.9632029],[-93.7677119,44.9487396],[-93.7678607,44.9343041],[-93.7678408,44.9197578],[-93.7680273,44.9054048],[-93.7679837,44.8908421],[-93.7474635,44.8909123],[-93.7423808,44.8909161],[-93.734734,44.8909168],[-93.7271379,44.8908921],[-93.7244522,44.8909],[-93.7169268,44.8908506],[-93.7063432,44.8908975],[-93.6990258,44.8910024],[-93.6980174,44.8910167],[-93.686341,44.8911588],[-93.6836755,44.8912128],[-93.6652919,44.8912941],[-93.6453218,44.8913421],[-93.64539,44.9060488],[-93.6454151,44.9123647],[-93.6454407,44.91897],[-93.6456618,44.9189343],[-93.6458605,44.9189066],[-93.6460602,44.9188836],[-93.6462608,44.9188649],[-93.6465631,44.9188426],[-93.6472711,44.9188015],[-93.6477763,44.9187666],[-93.6480816,44.9187486],[-93.6482844,44.918734],[-93.6483849,44.9187245],[-93.6484847,44.9187131],[-93.6485834,44.9186992],[-93.6486809,44.9186824],[-93.6487773,44.9186626],[-93.6488728,44.9186399],[-93.6489676,44.9186148],[-93.6490616,44.9185874],[-93.6491548,44.9185581],[-93.6493387,44.9184947],[-93.6495191,44.9184266],[-93.6496958,44.9183559],[-93.6497812,44.9183176],[-93.6498638,44.9182757],[-93.6499445,44.9182313],[-93.6501832,44.918095],[-93.6502645,44.9180521],[-93.650348,44.9180125],[-93.650436,44.9179793],[-93.6505336,44.9179602],[-93.6507362,44.917936],[-93.6508373,44.9179262],[-93.6510402,44.9179093],[-93.6511391,44.9178958],[-93.6512348,44.9178748],[-93.6513299,44.9178462],[-93.651421,44.9178106],[-93.6515031,44.917768],[-93.6515722,44.9177178],[-93.6516308,44.9176575],[-93.6516776,44.9175909],[-93.6517107,44.9175227],[-93.6517151,44.9174528],[-93.6516945,44.9173792],[-93.6516904,44.9173081],[-93.6517241,44.9172368],[-93.6517919,44.9171836],[-93.6518793,44.9171521],[-93.6519717,44.9171247],[-93.6520675,44.9171001],[-93.6523612,44.9170318],[-93.652472,44.9170034],[-93.6555574,44.9169641],[-93.6574336,44.9169872],[-93.6575967,44.9168411],[-93.6583072,44.9171084],[-93.6586735,44.9168083],[-93.6597224,44.9169537],[-93.6595575,44.9171145],[-93.6594988,44.9171736],[-93.6594435,44.917234],[-93.6593936,44.9172961],[-93.6593614,44.9173443],[-93.6593343,44.9173943],[-93.6593054,44.9174632],[-93.6592569,44.9176042],[-93.6592299,44.9176739],[-93.6591334,44.9178789],[-93.6591035,44.9179476],[-93.6590509,44.9180872],[-93.6590163,44.918193],[-93.6589972,44.9182817],[-93.6589888,44.9183712],[-93.658988,44.9184804],[-93.6589968,44.9185711],[-93.6590214,44.9186772],[-93.6590656,44.9187794],[-93.6591163,44.9188626],[-93.6591884,44.9189592],[-93.6592536,44.9190364],[-93.6592965,44.9190806],[-93.6593602,44.9191366],[-93.6594936,44.919246],[-93.65981,44.9195283],[-93.6599314,44.9196437],[-93.6600161,44.9197328],[-93.6600693,44.9197943],[-93.6601203,44.9198577],[-93.6601683,44.9199225],[-93.6602125,44.9199883],[-93.6602519,44.9200546],[-93.660292,44.9201379],[-93.6602919,44.9202099],[-93.6602525,44.9202778],[-93.6601864,44.9203308],[-93.659963,44.9204536],[-93.6598799,44.9204954],[-93.6597709,44.9205403],[-93.6596781,44.9205678],[-93.6594096,44.9206239],[-93.658975,44.9207224],[-93.6586389,44.9208059],[-93.6585425,44.9208285],[-93.6584453,44.9208486],[-93.6583472,44.9208652],[-93.6582479,44.9208774],[-93.658097,44.9208895],[-93.6579957,44.9208947],[-93.6576904,44.9209059],[-93.6575386,44.9209147],[-93.6573639,44.920933],[-93.6572412,44.9209531],[-93.657144,44.9209731],[-93.6570476,44.9209955],[-93.6567126,44.9210816],[-93.6566166,44.921105],[-93.6564209,44.9211474],[-93.6563255,44.9211721],[-93.6562575,44.921195],[-93.6561926,44.9212218],[-93.6561092,44.921262],[-93.6560284,44.9213055],[-93.6559494,44.9213512],[-93.6556404,44.9215393],[-93.65515,44.921852],[-93.6549175,44.9219924],[-93.6548379,44.9220378],[-93.6547557,44.92208],[-93.6546698,44.9221171],[-93.6545337,44.9221649],[-93.6544397,44.9221936],[-93.6543195,44.9222249],[-93.6541975,44.9222506],[-93.6540993,44.9222662],[-93.654,44.9222765],[-93.653899,44.9222819],[-93.6537972,44.9222836],[-93.6536948,44.9222827],[-93.653466,44.922276],[-93.65339,44.922269],[-93.6532381,44.922249],[-93.6531628,44.922242],[-93.6530634,44.9222412],[-93.6529641,44.9222517],[-93.6528649,44.9222706],[-93.6527446,44.9223037],[-93.6526547,44.9223367],[-93.6525503,44.9223862],[-93.6524516,44.9224431],[-93.6523383,44.9225169],[-93.6522288,44.922592],[-93.6521598,44.9226448],[-93.6519965,44.9227828],[-93.6518455,44.922907],[-93.6517921,44.9229673],[-93.6517061,44.9231162],[-93.6516372,44.9232524],[-93.6515761,44.9233909],[-93.6515369,44.9234959],[-93.6515041,44.9236015],[-93.6514786,44.9237074],[-93.6514531,44.9238497],[-93.6514351,44.923993],[-93.6514228,44.9241371],[-93.6514127,44.9243177],[-93.6513994,44.9246423],[-93.6514019,44.9247504],[-93.6514202,44.9250026],[-93.6514216,44.9250745],[-93.6514184,44.9251463],[-93.6514108,44.9252179],[-93.6513947,44.9253252],[-93.6513233,44.9256821],[-93.6513044,44.9257894],[-93.6512575,44.926148],[-93.651234,44.9263635],[-93.6512159,44.9265792],[-93.6512067,44.926759],[-93.6512059,44.9269391],[-93.6512117,44.9270833],[-93.6512199,44.9271912],[-93.651244,44.927407],[-93.651264,44.9275514],[-93.6512827,44.9276593],[-93.6513058,44.927766],[-93.6513344,44.9278712],[-93.6513529,44.9279226],[-93.6513984,44.9279864],[-93.651446,44.9280303],[-93.6515145,44.9280844],[-93.6515867,44.9281349],[-93.6517765,44.9282557],[-93.6518651,44.9283192],[-93.6519065,44.9283635],[-93.6519426,44.9284287],[-93.6520028,44.9285069],[-93.6521299,44.9286862],[-93.6521777,44.9287503],[-93.652222,44.9288049],[-93.6522838,44.9288721],[-93.6523528,44.9289349],[-93.6524032,44.9289743],[-93.652456,44.9290125],[-93.6525585,44.9290799],[-93.6526573,44.9291378],[-93.6527812,44.929203],[-93.6529311,44.929273],[-93.653073,44.9293318],[-93.6532075,44.9293804],[-93.653311,44.9294137],[-93.6534516,44.9294548],[-93.6539051,44.9295748],[-93.6540707,44.9296209],[-93.6543758,44.9296223],[-93.6545015,44.9296304],[-93.6546258,44.9296461],[-93.6547741,44.9296691],[-93.6552912,44.9297609],[-93.6557635,44.9298377],[-93.6558885,44.9298548],[-93.6560134,44.929866],[-93.6561631,44.9298678],[-93.6562875,44.9298566],[-93.6563871,44.9298415],[-93.6566361,44.9297984],[-93.6569859,44.9297486],[-93.6571111,44.9297346],[-93.6572365,44.9297289],[-93.6573624,44.9297311],[-93.6574888,44.9297389],[-93.657615,44.9297511],[-93.6577407,44.9297665],[-93.6578901,44.9297876],[-93.6581377,44.9298254],[-93.6585328,44.9298899],[-93.6594944,44.9300537],[-93.6597662,44.9300976],[-93.6600139,44.9301358],[-93.6603615,44.9301866],[-93.6607099,44.9302343],[-93.660835,44.9302487],[-93.661086,44.9302744],[-93.6612358,44.9302924],[-93.6613594,44.9303128],[-93.6616045,44.9303612],[-93.6617034,44.9303759],[-93.6618034,44.9303844],[-93.6619043,44.9303889],[-93.6620311,44.9303907],[-93.6621583,44.9303894],[-93.6623868,44.9303838],[-93.6624878,44.9303777],[-93.6627147,44.9303591],[-93.662841,44.9303551],[-93.6629423,44.9303561],[-93.6630437,44.9303591],[-93.6632717,44.9303674],[-93.6635151,44.9303786],[-93.6638202,44.9303816],[-93.6639209,44.930377],[-93.6640204,44.9303656],[-93.6641191,44.9303501],[-93.6644136,44.9302937],[-93.6645122,44.9302765],[-93.6646116,44.9302626],[-93.6647122,44.9302526],[-93.6649145,44.9302369],[-93.6650148,44.9302267],[-93.6651136,44.9302121],[-93.6652106,44.9301923],[-93.6653062,44.9301688],[-93.6655904,44.9300901],[-93.6656858,44.9300657],[-93.6660729,44.9299796],[-93.6661686,44.9299559],[-93.6666411,44.9298258],[-93.6677708,44.929505],[-93.6682429,44.9293738],[-93.6684344,44.9293257],[-93.6688197,44.9292335],[-93.669009,44.9291826],[-93.6691018,44.9291544],[-93.6691931,44.9291238],[-93.669283,44.9290908],[-93.6693716,44.9290556],[-93.6694589,44.9290186],[-93.669545,44.9289799],[-93.6697134,44.9288987],[-93.6698766,44.9288136],[-93.6699554,44.9287685],[-93.6700322,44.9287213],[-93.6701811,44.928623],[-93.6703256,44.9285217],[-93.6704688,44.9284189],[-93.6705385,44.928366],[-93.6706054,44.9283116],[-93.6706683,44.9282553],[-93.670726,44.9281968],[-93.6707787,44.9281356],[-93.670827,44.9280721],[-93.6708715,44.9280069],[-93.6709127,44.9279406],[-93.6709878,44.9278066],[-93.6710231,44.9277383],[-93.6710548,44.9276689],[-93.6710806,44.9275988],[-93.671098,44.9275283],[-93.6711051,44.9274575],[-93.671104,44.927386],[-93.6710965,44.927314],[-93.6710841,44.9272419],[-93.6710687,44.9271699],[-93.671017,44.9269566],[-93.6709791,44.9268151],[-93.6709184,44.9266034],[-93.6707928,44.9261804],[-93.6705271,44.9252635],[-93.6703679,44.9246984],[-93.6703123,44.924486],[-93.6701971,44.9239856],[-93.6701682,44.9238417],[-93.670157,44.9237699],[-93.6701488,44.9236984],[-93.6701441,44.9236272],[-93.6701437,44.9235563],[-93.6701483,44.9234857],[-93.6701612,44.9234147],[-93.6701823,44.9233435],[-93.6702106,44.9232728],[-93.6702453,44.9232032],[-93.6702855,44.9231355],[-93.6703301,44.9230703],[-93.6703785,44.9230083],[-93.6704347,44.9229499],[-93.6704989,44.9228946],[-93.6705692,44.9228419],[-93.6706434,44.922791],[-93.6707948,44.9226922],[-93.6708688,44.9226419],[-93.6710189,44.9225348],[-93.6710967,44.9224845],[-93.6711773,44.9224407],[-93.6712615,44.9224068],[-93.6713504,44.9223863],[-93.6714456,44.9223841],[-93.6715458,44.9223951],[-93.6717533,44.9224313],[-93.6718566,44.9224434],[-93.6719578,44.9224452],[-93.6720593,44.9224432],[-93.672161,44.9224389],[-93.6722627,44.9224324],[-93.6724643,44.9224145],[-93.6725632,44.9224033],[-93.6726455,44.9223601],[-93.6729606,44.9221786],[-93.6731151,44.9220854],[-93.6731905,44.922037],[-93.6732628,44.9219834],[-93.6734024,44.9218695],[-93.6734732,44.9218161],[-93.6735469,44.9217697],[-93.6736252,44.9217339],[-93.673717,44.9217209],[-93.6738224,44.9217364],[-93.6739244,44.9217676],[-93.6740112,44.9218045],[-93.6740925,44.9218483],[-93.6741712,44.921897],[-93.6743257,44.9219982],[-93.6744043,44.9220453],[-93.6744858,44.9220866],[-93.6745714,44.9221194],[-93.6746624,44.922141],[-93.6747587,44.9221512],[-93.6748591,44.9221526],[-93.6749622,44.9221482],[-93.6751717,44.9221331],[-93.6752755,44.9221281],[-93.6753774,44.9221284],[-93.6756817,44.9221428],[-93.6757828,44.9221444],[-93.6758836,44.922141],[-93.676088,44.9221282],[-93.6761897,44.9221178],[-93.6762891,44.9221027],[-93.6763847,44.9220817],[-93.6764771,44.9220542],[-93.6765688,44.9220216],[-93.6766586,44.9219845],[-93.6767447,44.9219434],[-93.6768256,44.9218987],[-93.6768995,44.9218508],[-93.6769609,44.9217971],[-93.6770038,44.9217323],[-93.6770715,44.9215921],[-93.6771421,44.9214534],[-93.6771971,44.921396],[-93.6773001,44.9213782],[-93.677332,44.9214369],[-93.6773484,44.9215153],[-93.6773825,44.9215847],[-93.6774551,44.921632],[-93.6776376,44.9217032],[-93.6778183,44.9217773],[-93.6779098,44.9218113],[-93.6780018,44.9218397],[-93.6780942,44.92186],[-93.6781944,44.9218573],[-93.6782953,44.9218266],[-93.6783658,44.9217819],[-93.6783723,44.9217049],[-93.6783591,44.9216323],[-93.6783252,44.9215644],[-93.6782525,44.9215133],[-93.6781691,44.9214672],[-93.6781295,44.9214059],[-93.6781156,44.9213306],[-93.6781232,44.9212548],[-93.678157,44.9211918],[-93.6782282,44.9211438],[-93.6784074,44.9210633],[-93.6787385,44.9208917],[-93.6788227,44.9208508],[-93.6789084,44.9208126],[-93.6789961,44.9207781],[-93.6790861,44.9207481],[-93.6791801,44.9207234],[-93.6792782,44.9207037],[-93.6793792,44.920689],[-93.6794818,44.9206792],[-93.6795846,44.9206742],[-93.6796863,44.9206741],[-93.6797864,44.9206786],[-93.6798863,44.920687],[-93.6799862,44.9206988],[-93.680086,44.9207129],[-93.6804854,44.9207772],[-93.6805853,44.9207912],[-93.6806852,44.9208027],[-93.6807852,44.920811],[-93.6808852,44.9208152],[-93.6809861,44.9208139],[-93.6810877,44.9208077],[-93.6811894,44.9207974],[-93.6812906,44.9207838],[-93.6814891,44.9207502],[-93.6815844,44.9207308],[-93.681695,44.920653],[-93.683927,44.9207019],[-93.6838419,44.9207514],[-93.6837321,44.9207958],[-93.6834389,44.9209032],[-93.6832394,44.9209817],[-93.683067,44.9210575],[-93.682771,44.9211965],[-93.6826609,44.9212441],[-93.6825868,44.9212914],[-93.6825269,44.9213493],[-93.6824719,44.9214115],[-93.6824245,44.9214764],[-93.6823955,44.9215261],[-93.6823769,44.9215768],[-93.682374,44.9216302],[-93.6823841,44.9217221],[-93.6823761,44.9217845],[-93.6823254,44.9218779],[-93.6823288,44.9219578],[-93.6823896,44.9220252],[-93.682476,44.9220908],[-93.6825688,44.9221535],[-93.6826465,44.9222008],[-93.6827469,44.9222558],[-93.6828114,44.9222874],[-93.6829025,44.9223228],[-93.6829971,44.9223446],[-93.6830704,44.9223505],[-93.6831468,44.9223497],[-93.6832244,44.9223437],[-93.6833013,44.9223333],[-93.6833994,44.9223139],[-93.683492,44.9222856],[-93.6835794,44.9222462],[-93.6836391,44.9222114],[-93.6836896,44.9221725],[-93.6837587,44.9220748],[-93.683812,44.9220401],[-93.6840683,44.9220176],[-93.6841689,44.9220187],[-93.684291,44.9220393],[-93.6843912,44.9220702],[-93.6844714,44.922105],[-93.6845327,44.9221459],[-93.6845528,44.9221978],[-93.6845078,44.9222968],[-93.6845539,44.9223649],[-93.6846658,44.9224216],[-93.6847638,44.9224552],[-93.6848642,44.9224822],[-93.6849366,44.922498],[-93.6850338,44.9225168],[-93.6852068,44.9225447],[-93.6854075,44.9225703],[-93.6856343,44.9225936],[-93.6857599,44.9226031],[-93.6858364,44.922601],[-93.6859644,44.9225912],[-93.6860395,44.9225925],[-93.6861128,44.9226025],[-93.6862087,44.9226236],[-93.6863035,44.9226493],[-93.686516,44.9227118],[-93.6866117,44.9227363],[-93.6869019,44.9228004],[-93.687502,44.9229258],[-93.6876523,44.9229439],[-93.6880029,44.9229919],[-93.6881281,44.9230078],[-93.6882784,44.9230237],[-93.6883912,44.9230323],[-93.6884664,44.9230362],[-93.6885416,44.9230381],[-93.6886548,44.9230374],[-93.6887936,44.9230312],[-93.6889199,44.9230213],[-93.6890713,44.9230049],[-93.689222,44.922985],[-93.6894704,44.9229473],[-93.6896557,44.9229162],[-93.6898036,44.9228887],[-93.6899504,44.9228584],[-93.6900953,44.9228247],[-93.6902142,44.9227936],[-93.6903193,44.9227631],[-93.6904688,44.9227146],[-93.6906057,44.9226655],[-93.6907178,44.922621],[-93.690827,44.9225734],[-93.6909323,44.9225224],[-93.6910423,44.9224623],[-93.6911398,44.9224003],[-93.6912028,44.922351],[-93.6912717,44.922287],[-93.6913291,44.9222271],[-93.6914553,44.9220895],[-93.6915298,44.9220158],[-93.6916195,44.9219401],[-93.6917471,44.9218401],[-93.6918519,44.9217617],[-93.6919588,44.9216846],[-93.6920855,44.9215962],[-93.692214,44.9215095],[-93.6922709,44.9214737],[-93.6923488,44.9214277],[-93.6926157,44.9212774],[-93.6932066,44.9220745],[-93.6927446,44.9223305],[-93.6930929,44.9228022],[-93.6930898,44.9233846],[-93.6926913,44.923543],[-93.6885272,44.9247868],[-93.6883709,44.924828],[-93.688195,44.9248483],[-93.6874434,44.924874],[-93.6867459,44.9249137],[-93.6867425,44.9255491],[-93.6859437,44.925547],[-93.6859979,44.9413603],[-93.6857469,44.9413856],[-93.6855967,44.9414022],[-93.685497,44.9414155],[-93.685149,44.9414681],[-93.684999,44.9414842],[-93.6847967,44.941496],[-93.6845923,44.9415036],[-93.6844391,44.9415046],[-93.6842872,44.9415002],[-93.6841872,44.9414934],[-93.6841134,44.9414851],[-93.6840408,44.9414718],[-93.6839462,44.9414464],[-93.683712,44.9413717],[-93.6836403,44.9413535],[-93.6835175,44.9413316],[-93.6831187,44.9412764],[-93.6829958,44.9412551],[-93.6829,44.9412312],[-93.6826656,44.941158],[-93.6825696,44.941139],[-93.6824706,44.9411322],[-93.6823949,44.9411329],[-93.6822928,44.9411393],[-93.6820893,44.9411565],[-93.6818343,44.9411726],[-93.6817094,44.9411875],[-93.681613,44.9412069],[-93.6814951,44.9412386],[-93.6813552,44.9412825],[-93.6812638,44.9413153],[-93.6811745,44.9413508],[-93.6810879,44.9413889],[-93.6809642,44.9414512],[-93.6808849,44.9414954],[-93.6808074,44.9415415],[-93.680656,44.9416375],[-93.680359,44.9418354],[-93.6802461,44.9419082],[-93.6801694,44.9419553],[-93.6800912,44.9420009],[-93.6799703,44.9420666],[-93.6798872,44.9421094],[-93.6798022,44.9421506],[-93.6797152,44.9421894],[-93.6796264,44.9422249],[-93.6795127,44.9422634],[-93.679372,44.9422987],[-93.6792989,44.9423108],[-93.6791988,44.9423218],[-93.6790454,44.9423311],[-93.6785871,44.9423496],[-93.6780799,44.9423606],[-93.6779279,44.9423652],[-93.6777763,44.942372],[-93.6776754,44.9423783],[-93.6775746,44.9423867],[-93.6774236,44.9424028],[-93.6770219,44.9424544],[-93.6768213,44.9424772],[-93.676721,44.9424859],[-93.6766208,44.9424923],[-93.6764704,44.942496],[-93.6763452,44.9424911],[-93.6762201,44.9424797],[-93.6761201,44.9424669],[-93.6758201,44.9424215],[-93.6756697,44.9424013],[-93.6751659,44.9423504],[-93.6750145,44.9423388],[-93.6749136,44.9423336],[-93.6747625,44.9423309],[-93.6746618,44.9423336],[-93.6745611,44.9423403],[-93.6744102,44.9423559],[-93.6742598,44.9423762],[-93.6740607,44.9424062],[-93.6738631,44.9424381],[-93.6737153,44.9424641],[-93.6735192,44.9425015],[-93.673373,44.9425315],[-93.6728891,44.9426403],[-93.6726963,44.9426863],[-93.6725528,44.9427228],[-93.6724109,44.9427617],[-93.672271,44.9428035],[-93.6719944,44.9428956],[-93.6718553,44.9429447],[-93.6717181,44.9429965],[-93.671585,44.9430518],[-93.6714996,44.9430909],[-93.6713782,44.9431536],[-93.6713026,44.9431983],[-93.6712509,44.9432347],[-93.6711956,44.9432918],[-93.6711532,44.9433572],[-93.6710768,44.9435163],[-93.6710385,44.9435844],[-93.6706734,44.9441393],[-93.6706111,44.9442379],[-93.6705719,44.9443042],[-93.6705179,44.944405],[-93.6704677,44.9445075],[-93.6704235,44.9446117],[-93.6703992,44.9446818],[-93.670377,44.9447701],[-93.6703638,44.9448589],[-93.670357,44.9449666],[-93.6703566,44.9450389],[-93.6703589,44.9451112],[-93.6703745,44.9453278],[-93.6703833,44.9453994],[-93.6703981,44.9454706],[-93.6704457,44.9456603],[-93.6658265,44.9456472],[-93.6656166,44.9495438],[-93.6599125,44.949527],[-93.6598466,44.9494485],[-93.659766,44.9493362],[-93.659715,44.949274],[-93.6595502,44.9490923],[-93.6594435,44.9489889],[-93.6594073,44.9489422],[-93.6593783,44.948875],[-93.6593662,44.9488215],[-93.6593605,44.9487666],[-93.6593597,44.9486935],[-93.6593637,44.9486378],[-93.6594029,44.9485678],[-93.6594657,44.9486054],[-93.6595682,44.9487645],[-93.6596133,44.9488254],[-93.659666,44.948876],[-93.6597208,44.9489134],[-93.6598187,44.9489721],[-93.6598913,44.9490234],[-93.6599511,44.9490561],[-93.6600172,44.949082],[-93.6601093,44.9491129],[-93.6602039,44.9491404],[-93.660324,44.9491686],[-93.660398,44.9491792],[-93.6606279,44.9491884],[-93.6609429,44.9492131],[-93.6610198,44.9492159],[-93.6610943,44.9492149],[-93.6611889,44.9492064],[-93.6612686,44.9491862],[-93.6613496,44.9491389],[-93.6614198,44.9490793],[-93.6614558,44.9490162],[-93.6613662,44.9489756],[-93.6611788,44.9489761],[-93.6609983,44.9489676],[-93.6606916,44.9489565],[-93.6606155,44.9489524],[-93.660515,44.9489448],[-93.6603917,44.9489304],[-93.6602944,44.9489121],[-93.6601992,44.9488818],[-93.6601121,44.9488411],[-93.6600394,44.9487925],[-93.6599835,44.9487343],[-93.659941,44.9486672],[-93.659908,44.9485969],[-93.6598876,44.9485273],[-93.6598948,44.9484183],[-93.6598885,44.9483097],[-93.6599162,44.9482269],[-93.659995,44.9481035],[-93.6600151,44.9480358],[-93.6600065,44.9479661],[-93.6599936,44.9479111],[-93.6599762,44.947855],[-93.6599539,44.9477996],[-93.6599155,44.9477291],[-93.6598671,44.9476656],[-93.6598072,44.9476123],[-93.6597348,44.9475695],[-93.6596731,44.9475418],[-93.6596057,44.9475179],[-93.6595342,44.9474967],[-93.659409,44.947466],[-93.6591563,44.9474125],[-93.6588399,44.9473411],[-93.6586425,44.9473007],[-93.6585434,44.9472834],[-93.6584688,44.947272],[-93.6583196,44.9472546],[-93.6581952,44.9472469],[-93.6580704,44.9472458],[-93.6579699,44.9472496],[-93.6578943,44.9472547],[-93.6577933,44.9472642],[-93.6576923,44.9472761],[-93.6575662,44.9472935],[-93.6571689,44.9473584],[-93.657098,44.9473772],[-93.6569141,44.9474402],[-93.6567742,44.9474829],[-93.656703,44.9475013],[-93.6560859,44.9483404],[-93.6561029,44.9483928],[-93.6561056,44.9485187],[-93.6561026,44.9486269],[-93.6560969,44.9486988],[-93.6560813,44.9488432],[-93.6560693,44.948915],[-93.6560513,44.9489857],[-93.6560322,44.9490375],[-93.655988,44.9491211],[-93.6558756,44.9492836],[-93.6558329,44.9493492],[-93.6557643,44.9494467],[-93.6557228,44.9495126],[-93.655699,44.9495634],[-93.6556821,44.9496155],[-93.655667,44.9496866],[-93.655657,44.9497587],[-93.6556385,44.9499401],[-93.6556237,44.9500296],[-93.6555927,44.9501341],[-93.655559,44.9502008],[-93.6555025,44.9502811],[-93.6553975,44.9504064],[-93.6553473,44.9504696],[-93.6552798,44.9505668],[-93.655151,44.9507647],[-93.6550845,44.9508624],[-93.6550132,44.9509571],[-93.654948,44.9510326],[-93.6548829,44.9510877],[-93.6547992,44.9511325],[-93.6547073,44.9511641],[-93.6546107,44.9511807],[-93.6545074,44.951184],[-93.6544042,44.9511774],[-93.6542562,44.9511543],[-93.6541116,44.9511178],[-93.6539967,44.9510791],[-93.6537753,44.9509919],[-93.6535579,44.9508985],[-93.6534298,44.9508398],[-93.6533034,44.9507795],[-93.6531792,44.9507174],[-93.653017,44.9506311],[-93.6525799,44.9503846],[-93.6524195,44.9502964],[-93.6522952,44.9502337],[-93.6520406,44.9501133],[-93.6519402,44.950059],[-93.6518471,44.9499991],[-93.6517795,44.9499462],[-93.6517163,44.9498899],[-93.6515657,44.9497437],[-93.6515036,44.9496865],[-93.6514379,44.9496316],[-93.6513691,44.9495777],[-93.6512773,44.9495149],[-93.6511974,44.9494719],[-93.651108,44.9494395],[-93.6509392,44.9493967],[-93.65075,44.9493444],[-93.6506295,44.9493167],[-93.6502614,44.9492492],[-93.6498168,44.9491756],[-93.6497175,44.9491608],[-93.6495171,44.9491375],[-93.6494178,44.9491231],[-93.6493201,44.9491041],[-93.6491745,44.9490727],[-93.6486917,44.94896],[-93.648498,44.9489174],[-93.6483029,44.9488799],[-93.6481541,44.9488566],[-93.648002,44.9488398],[-93.6478999,44.9488334],[-93.647773,44.9488322],[-93.6476481,44.9488392],[-93.6474965,44.9488559],[-93.6473706,44.9488768],[-93.6472243,44.9489113],[-93.6470883,44.9489578],[-93.6469829,44.949005],[-93.6468616,44.9490687],[-93.6467443,44.9491375],[-93.6464375,44.9493303],[-93.64632,44.9493997],[-93.6461585,44.9494868],[-93.6457478,44.9496986],[-93.6455869,44.949786],[-93.6454895,44.9498433],[-93.6454168,44.9498932],[-93.6453894,44.955546],[-93.6453635,44.9640357],[-93.645432,44.9785984]],[[-93.7575577,44.9049232],[-93.7580055,44.9050699],[-93.758006,44.9053847],[-93.7575539,44.9053907],[-93.7575361,44.9127878],[-93.7472698,44.9130333],[-93.7370697,44.9131101],[-93.7370984,44.9057757],[-93.7371483,44.9020623],[-93.7376925,44.9020584],[-93.7376896,44.9018548],[-93.7371511,44.9018511],[-93.7371982,44.898349],[-93.745831,44.8983573],[-93.744479,44.8995497],[-93.7440294,44.8992906],[-93.7417037,44.9013438],[-93.740688,44.9013511],[-93.740523,44.902038],[-93.7424176,44.9020243],[-93.7429731,44.9015351],[-93.7459917,44.9015778],[-93.745989,44.9007254],[-93.7439273,44.9006928],[-93.7449286,44.8998087],[-93.7447788,44.8997224],[-93.746333,44.8983577],[-93.7473305,44.8983591],[-93.7473493,44.8975637],[-93.747517,44.8974407],[-93.747807,44.8972371],[-93.7481029,44.8970379],[-93.7484321,44.896823],[-93.7487679,44.8966134],[-93.750778,44.8953844],[-93.7513912,44.8950095],[-93.7525174,44.8943208],[-93.7524586,44.89829],[-93.7576127,44.8982211],[-93.7575577,44.9049232]]]}}]}