{"type":"FeatureCollection","name":"minnetonka_beach_border","features":[{"type":"Feature","properties":{"GNIS_FEATURE_ID":2395351,"FEATURE_NAME":"minnetonka_beach","CTU_CLASS":"CITY","COUNTY_GNIS_FEATURE_ID":659472,"COUNTY_CODE":"27","COUNTY_NAME":"Hennepin","POPULATION":547,"SE_ANNO_CAD_DATA":null},"geometry":{"type":"Polygon","coordinates":[[[-93.5866863,44.9409127],[-93.5867865,44.940919],[-93.5868874,44.9409289],[-93.5869885,44.9409422],[-93.5870897,44.9409587],[-93.5872156,44.9409836],[-93.5873155,44.9410066],[-93.587439,44.9410391],[-93.5875604,44.9410752],[-93.5876789,44.9411146],[-93.5877942,44.9411569],[-93.5879273,44.9412109],[-93.5880537,44.9412679],[-93.588134,44.9413081],[-93.5882115,44.9413512],[-93.5882867,44.941397],[-93.5883595,44.9414452],[-93.5884304,44.9414956],[-93.5885167,44.9415611],[-93.5886006,44.9416292],[-93.5887477,44.941756],[-93.5891009,44.9420731],[-93.5891997,44.9421569],[-93.5892839,44.9422247],[-93.5894206,44.9423276],[-93.589574,44.9424931],[-93.589681,44.9426164],[-93.589799,44.9427566],[-93.5901976,44.9432448],[-93.5903405,44.9434169],[-93.5904866,44.9435867],[-93.5906236,44.9437382],[-93.5907655,44.9438862],[-93.5909137,44.9440298],[-93.591006,44.9441136],[-93.5910692,44.9441683],[-93.5911998,44.944275],[-93.591305,44.9443538],[-93.591398,44.9444187],[-93.5915153,44.9444949],[-93.5916171,44.9445566],[-93.5917222,44.9446162],[-93.5918301,44.9446731],[-93.5919402,44.9447269],[-93.5920521,44.9447773],[-93.5921653,44.9448237],[-93.5922793,44.9448657],[-93.5924164,44.9449097],[-93.5925077,44.9449347],[-93.5926437,44.9449654],[-93.592756,44.9449838],[-93.5928495,44.9449913],[-93.5929225,44.9449923],[-93.5929978,44.9449891],[-93.5930748,44.9449823],[-93.5931528,44.9449719],[-93.5932314,44.9449582],[-93.5933102,44.9449415],[-93.5933885,44.9449221],[-93.5934659,44.9448999],[-93.5935418,44.9448755],[-93.5936159,44.9448489],[-93.5936875,44.9448203],[-93.5937783,44.9447796],[-93.5938423,44.9447474],[-93.5939022,44.944714],[-93.5939915,44.9446561],[-93.5940715,44.9445933],[-93.5941301,44.9445388],[-93.5941846,44.9444812],[-93.5942601,44.9443896],[-93.5943183,44.9443095],[-93.5943733,44.9442267],[-93.5945626,44.943919],[-93.59464,44.9438007],[-93.594687,44.9437348],[-93.594724,44.9436865],[-93.594776,44.9436239],[-93.5948175,44.9435785],[-93.5949656,44.9434327],[-93.5951349,44.9432729],[-93.5952941,44.9431292],[-93.5954419,44.9430024],[-93.5955941,44.9428789],[-93.5957333,44.9427727],[-93.5958581,44.9426832],[-93.5960042,44.9425854],[-93.5961164,44.9425155],[-93.5962513,44.9424395],[-93.5963357,44.9424043],[-93.5964031,44.9423823],[-93.5964978,44.9423584],[-93.5965966,44.942339],[-93.5966981,44.9423225],[-93.5969807,44.9422809],[-93.5970561,44.9422676],[-93.5971296,44.9422524],[-93.5973283,44.942209],[-93.5977911,44.9421124],[-93.5979849,44.9420698],[-93.598177,44.9420239],[-93.5983665,44.9419734],[-93.5985765,44.9419104],[-93.5988071,44.9418349],[-93.5990358,44.9417555],[-93.5996049,44.941553],[-93.5997651,44.9414983],[-93.5999264,44.9414457],[-93.6001123,44.9413891],[-93.6003004,44.9413371],[-93.6004432,44.9413018],[-93.6006357,44.9412593],[-93.6008788,44.9412109],[-93.601124,44.9411671],[-93.6013958,44.9411234],[-93.6016942,44.9410797],[-93.6020189,44.9410357],[-93.6027697,44.940938],[-93.6033425,44.9408597],[-93.6035923,44.9408291],[-93.6043712,44.9407704],[-93.6044089,44.9346637],[-93.6003827,44.9346637],[-93.6003449,44.9347913],[-93.6003412,44.9350133],[-93.6003436,44.9350864],[-93.6003529,44.9351579],[-93.6003717,44.9352272],[-93.6004032,44.9352935],[-93.6004459,44.9353574],[-93.6004947,44.9354203],[-93.6005489,44.9354823],[-93.6006073,44.9355435],[-93.6006694,44.9356041],[-93.600734,44.9356642],[-93.6010016,44.9359019],[-93.6011286,44.936021],[-93.6011874,44.9360811],[-93.6012418,44.9361417],[-93.601291,44.9362029],[-93.6013342,44.9362649],[-93.6013704,44.9363278],[-93.6013988,44.9363917],[-93.6014185,44.9364567],[-93.6014314,44.9365238],[-93.6014405,44.9365937],[-93.6014458,44.9366659],[-93.6014472,44.9367401],[-93.6014448,44.9368157],[-93.6014386,44.9368925],[-93.6014285,44.93697],[-93.6014146,44.9370477],[-93.6013968,44.9371253],[-93.6013751,44.9372023],[-93.6013496,44.9372783],[-93.6013201,44.937353],[-93.6012867,44.9374258],[-93.6012494,44.9374963],[-93.6012082,44.9375643],[-93.601163,44.9376291],[-93.6011139,44.9376905],[-93.6010608,44.9377479],[-93.6010037,44.9378011],[-93.6009426,44.9378498],[-93.6008771,44.9378959],[-93.6008073,44.9379401],[-93.6007334,44.9379825],[-93.6006557,44.938023],[-93.6005745,44.9380619],[-93.60049,44.9380991],[-93.6004026,44.9381347],[-93.6003125,44.9381688],[-93.6002199,44.9382015],[-93.6001252,44.9382329],[-93.5999304,44.9382918],[-93.5997301,44.9383461],[-93.5995265,44.9383965],[-93.5992198,44.9384659],[-93.5987229,44.9385699],[-93.5986265,44.9385876],[-93.5985287,44.9386012],[-93.5984297,44.938611],[-93.5983296,44.9386176],[-93.5982285,44.9386216],[-93.5980244,44.9386234],[-93.5976122,44.9386177],[-93.5974067,44.9386184],[-93.5973047,44.9386215],[-93.5972034,44.938627],[-93.5971029,44.9386356],[-93.5970034,44.9386475],[-93.5969043,44.9386611],[-93.5967071,44.9386919],[-93.5964129,44.9387454],[-93.5961202,44.9388049],[-93.5954382,44.9389501],[-93.5951445,44.9390077],[-93.5942566,44.939163],[-93.5939594,44.9392122],[-93.5937608,44.9392424],[-93.593462,44.9392822],[-93.593262,44.9393042],[-93.5931618,44.9393135],[-93.5923532,44.9393726],[-93.5919456,44.9393992],[-93.5917414,44.9394104],[-93.5915373,44.9394197],[-93.5913332,44.9394267],[-93.5911295,44.939431],[-93.5908248,44.9394313],[-93.5906225,44.9394269],[-93.5905216,44.9394231],[-93.5903206,44.9394122],[-93.5902204,44.939405],[-93.590021,44.9393867],[-93.5898224,44.9393646],[-93.589624,44.9393406],[-93.589228,44.939287],[-93.588833,44.939227],[-93.5884387,44.9391614],[-93.5880452,44.939091],[-93.5876524,44.9390166],[-93.587064,44.9388997],[-93.5855967,44.9385969],[-93.5850103,44.9384793],[-93.5848122,44.9384424],[-93.5844938,44.9383947],[-93.5843877,44.9383773],[-93.5842844,44.9383575],[-93.5841857,44.9383342],[-93.5840931,44.9383064],[-93.5840086,44.9382732],[-93.5839336,44.9382335],[-93.5838699,44.9381864],[-93.5838134,44.9381337],[-93.5837615,44.9380769],[-93.5837137,44.9380166],[-93.5836698,44.9379532],[-93.5836295,44.937887],[-93.5835925,44.9378185],[-93.5835584,44.9377481],[-93.583527,44.9376762],[-93.5834981,44.9376033],[-93.5834461,44.9374559],[-93.5833578,44.937167],[-93.5833414,44.9370974],[-93.5833363,44.9370266],[-93.58334,44.936955],[-93.5833499,44.9368828],[-93.5833888,44.9366646],[-93.5833959,44.9365922],[-93.5833974,44.9365202],[-93.5833945,44.9363043],[-93.5833787,44.9359118],[-93.5833182,44.9358098],[-93.583281,44.9357415],[-93.5832106,44.9356025],[-93.5830407,44.9352513],[-93.5829672,44.9351141],[-93.5829278,44.9350472],[-93.5828862,44.9349817],[-93.5828419,44.9349177],[-93.5827945,44.9348556],[-93.5827438,44.9347956],[-93.5826893,44.9347379],[-93.5826306,44.9346828],[-93.5825674,44.9346304],[-93.5824998,44.9345807],[-93.5824283,44.9345336],[-93.5823531,44.9344888],[-93.5822747,44.9344461],[-93.5821933,44.9344052],[-93.5821094,44.9343659],[-93.5820231,44.9343281],[-93.5818452,44.9342557],[-93.5816624,44.9341862],[-93.5812924,44.9340488],[-93.5811108,44.9339773],[-93.580935,44.9339014],[-93.5808501,44.9338614],[-93.5807677,44.9338195],[-93.5806881,44.9337757],[-93.5806117,44.9337293],[-93.5805381,44.9336806],[-93.580467,44.9336298],[-93.5803979,44.9335772],[-93.5802644,44.9334683],[-93.5799383,44.9331892],[-93.5798023,44.9330818],[-93.5797281,44.9330309],[-93.5796488,44.9329816],[-93.5794855,44.9328849],[-93.5794069,44.9328357],[-93.5793338,44.9327849],[-93.5792689,44.9327316],[-93.5792148,44.9326749],[-93.5791742,44.9326141],[-93.5791481,44.9325491],[-93.5791342,44.9324807],[-93.5791298,44.9324095],[-93.5791322,44.9323364],[-93.5791524,44.9321115],[-93.5791544,44.9320372],[-93.5791496,44.9319643],[-93.5791353,44.9318934],[-93.579115,44.9318223],[-93.5790908,44.9317508],[-93.5790625,44.9316794],[-93.57903,44.9316091],[-93.5789932,44.9315406],[-93.578952,44.9314747],[-93.5789063,44.9314121],[-93.5788537,44.9313528],[-93.5787574,44.9312862],[-93.5786412,44.9312315],[-93.5785413,44.9312418],[-93.5785103,44.9313872],[-93.5785031,44.9314513],[-93.5784929,44.931585],[-93.5784865,44.931797],[-93.5784887,44.9320192],[-93.5784971,44.9322476],[-93.5785393,44.9330004],[-93.5785512,44.933144],[-93.5785685,44.9332874],[-93.5785894,44.9334307],[-93.5786462,44.9337889],[-93.5786762,44.9340043],[-93.5786889,44.934077],[-93.5787038,44.9341503],[-93.5787386,44.9342984],[-93.5788166,44.9345968],[-93.578853,44.9347454],[-93.5788832,44.9348923],[-93.5788949,44.934965],[-93.5789039,44.9350368],[-93.5789095,44.9351079],[-93.5789115,44.9351779],[-93.5789094,44.9352469],[-93.5789028,44.9353147],[-93.5788913,44.9353812],[-93.5788744,44.9354463],[-93.5788517,44.9355099],[-93.5788194,44.9355709],[-93.5787761,44.935629],[-93.578723,44.9356844],[-93.5786614,44.9357375],[-93.5785923,44.9357888],[-93.5785172,44.9358383],[-93.5784371,44.9358867],[-93.5783533,44.9359341],[-93.5780055,44.9361211],[-93.5779215,44.9361689],[-93.577841,44.9362177],[-93.5777654,44.9362681],[-93.5775554,44.9364245],[-93.5773491,44.9365833],[-93.576739,44.9370653],[-93.5766697,44.9371186],[-93.5765975,44.9371713],[-93.5764468,44.9372752],[-93.5761348,44.9374811],[-93.5759819,44.9375848],[-93.5758367,44.9376904],[-93.5757683,44.9377441],[-93.5757034,44.9377986],[-93.5756425,44.937854],[-93.5755862,44.9379104],[-93.5755349,44.937968],[-93.5754893,44.9380268],[-93.5754498,44.938087],[-93.5754176,44.938149],[-93.5753947,44.9382138],[-93.5753805,44.9382812],[-93.5753742,44.9383508],[-93.5753751,44.9384222],[-93.5753823,44.9384951],[-93.575395,44.9385691],[-93.5754125,44.9386438],[-93.5754339,44.9387189],[-93.5754583,44.938794],[-93.5755135,44.9389427],[-93.5756562,44.9392941],[-93.5757153,44.9394315],[-93.5758088,44.9396372],[-93.5759422,44.9399103],[-93.5760487,44.9401138],[-93.5761226,44.9402487],[-93.5761989,44.9403829],[-93.5762775,44.9405162],[-93.5763583,44.9406487],[-93.5764414,44.9407802],[-93.57657,44.9409754],[-93.5766598,44.9411037],[-93.5767577,44.9412289],[-93.5768628,44.9413516],[-93.5769175,44.9414121],[-93.5770306,44.9415318],[-93.5771471,44.9416504],[-93.5775024,44.9420038],[-93.5776739,44.9421827],[-93.5777104,44.9422277],[-93.5777872,44.9423332],[-93.5778748,44.9424071],[-93.5779608,44.9424465],[-93.5780602,44.9424852],[-93.5782208,44.9425409],[-93.5783866,44.9425927],[-93.5788185,44.942721],[-93.5789356,44.9427585],[-93.5790384,44.9427939],[-93.5791381,44.9428315],[-93.5792341,44.9428716],[-93.5793255,44.9429149],[-93.5794036,44.9429586],[-93.579457,44.9430019],[-93.5794961,44.9430582],[-93.5795292,44.9431307],[-93.5795891,44.9433022],[-93.5796326,44.9433797],[-93.5797091,44.9434469],[-93.5798146,44.9434959],[-93.579912,44.943527],[-93.5799908,44.9435459],[-93.5800719,44.9435606],[-93.5801534,44.9435711],[-93.5802649,44.9435778],[-93.5803924,44.9435721],[-93.5804774,44.9435474],[-93.5805557,44.9434951],[-93.5806062,44.9434486],[-93.5806527,44.943398],[-93.5807289,44.9433081],[-93.5807667,44.9432616],[-93.5808204,44.9431905],[-93.5808986,44.9430774],[-93.5810369,44.9428638],[-93.5811025,44.9427659],[-93.5811723,44.94267],[-93.5812286,44.9425998],[-93.5812901,44.9425319],[-93.5813566,44.9424663],[-93.5816699,44.9421829],[-93.5817658,44.9420745],[-93.5818324,44.9420216],[-93.5824267,44.9417435],[-93.5825785,44.9416752],[-93.5827318,44.941609],[-93.582887,44.9415457],[-93.5830215,44.9414943],[-93.5831578,44.9414462],[-93.5832957,44.9414019],[-93.5834357,44.9413619],[-93.5835302,44.941338],[-93.583818,44.9412721],[-93.5841107,44.9412093],[-93.5843577,44.9411598],[-93.5845819,44.9411179],[-93.5848074,44.9410788],[-93.5850339,44.9410429],[-93.5852357,44.941014],[-93.5854376,44.9409881],[-93.5856394,44.9409655],[-93.5858407,44.9409464],[-93.5860413,44.940931],[-93.5862408,44.9409196],[-93.586439,44.9409124],[-93.5865868,44.9409103],[-93.5866863,44.9409127]]]}}]}