{"type":"FeatureCollection","name":"minneapolis_border","features":[{"type":"Feature","properties":{"GNIS_FEATURE_ID":2395345,"FEATURE_NAME":"minneapolis","CTU_CLASS":"CITY","COUNTY_GNIS_FEATURE_ID":659472,"COUNTY_CODE":"27","COUNTY_NAME":"Hennepin","POPULATION":436934,"SE_ANNO_CAD_DATA":null},"geometry":{"type":"Polygon","coordinates":[[[-93.2075734,44.8962473],[-93.207479,44.9053935],[-93.1938752,44.9054177],[-93.1949477,44.9059934],[-93.1970371,44.907079],[-93.1985021,44.907885],[-93.199358,44.9084223],[-93.1999597,44.9089817],[-93.2004767,44.9096124],[-93.2006699,44.9100896],[-93.2007479,44.9109124],[-93.200834,44.912059],[-93.2008509,44.9133481],[-93.2008756,44.9147305],[-93.2009233,44.9160141],[-93.2009173,44.9174021],[-93.2010114,44.9188503],[-93.2009353,44.919739],[-93.2006753,44.9214232],[-93.2002238,44.9243417],[-93.1999482,44.9258449],[-93.1999034,44.927178],[-93.2001287,44.9287634],[-93.2003783,44.9312483],[-93.2004887,44.9334042],[-93.2005832,44.9352034],[-93.2005544,44.936915],[-93.200549,44.9389996],[-93.2004736,44.9404917],[-93.2004907,44.9419345],[-93.200531,44.9433937],[-93.2006711,44.9445621],[-93.2009194,44.9458457],[-93.201368,44.9470798],[-93.2017318,44.9482317],[-93.2021105,44.9490269],[-93.2026513,44.9498552],[-93.2032152,44.9506065],[-93.203856,44.9512097],[-93.2044118,44.9517087],[-93.2051296,44.9521748],[-93.2063717,44.952646],[-93.2076215,44.9529967],[-93.2076616,44.9542309],[-93.2078654,44.9627996],[-93.2077603,44.977227],[-93.2077046,44.988083],[-93.2076863,44.9916652],[-93.2077481,44.9999772],[-93.2077445,45.0006673],[-93.2077156,45.0061681],[-93.2176757,45.0060436],[-93.2178723,45.0133724],[-93.22689,45.0132612],[-93.226856,45.0204805],[-93.2269092,45.0356329],[-93.2472515,45.0355159],[-93.2502481,45.0355241],[-93.2677142,45.0355339],[-93.2720296,45.035504],[-93.2831884,45.0354259],[-93.2830652,45.0358514],[-93.2829826,45.0361922],[-93.2825381,45.037781],[-93.2821517,45.0388974],[-93.2816443,45.0403546],[-93.281236,45.0416247],[-93.2809344,45.0426858],[-93.2807962,45.0439001],[-93.2807108,45.0449164],[-93.2807796,45.0458773],[-93.2809594,45.0471891],[-93.2811075,45.0484187],[-93.281956,45.0511635],[-93.2991985,45.0511294],[-93.3195367,45.0513072],[-93.3194346,45.0419038],[-93.322608,45.0426464],[-93.3229547,45.0421088],[-93.3232342,45.0404492],[-93.3194185,45.0404226],[-93.3193026,45.0364802],[-93.3192885,45.0354532],[-93.3188762,45.0354542],[-93.3186525,45.027717],[-93.3184565,45.0205176],[-93.3184886,45.0138118],[-93.3185835,45.0060619],[-93.3186342,45.0019208],[-93.3184647,45.0010098],[-93.3184643,44.9999781],[-93.3184721,44.9771758],[-93.3286498,44.9771912],[-93.3286937,44.9664841],[-93.3287083,44.9629023],[-93.3288052,44.9484704],[-93.3289486,44.9341814],[-93.3289574,44.9305883],[-93.3289837,44.9197385],[-93.3289957,44.9054164],[-93.3187963,44.9053487],[-93.3188284,44.8907959],[-93.3086626,44.8907379],[-93.2883546,44.8905913],[-93.2678336,44.890716],[-93.2513758,44.8907162],[-93.2508879,44.8907162],[-93.2508721,44.8907984],[-93.2527915,44.8907985],[-93.252713,44.8926075],[-93.2539896,44.8926077],[-93.2539507,44.8943332],[-93.2546875,44.8943304],[-93.2546691,44.8949109],[-93.2547231,44.8949108],[-93.2547024,44.8955579],[-93.2554291,44.895557],[-93.2553778,44.897163],[-93.254651,44.8971646],[-93.2546291,44.8978501],[-93.2482398,44.8978652],[-93.2482385,44.897591],[-93.2478228,44.897592],[-93.2476034,44.8975925],[-93.2476443,44.8961554],[-93.2451073,44.8961552],[-93.2450783,44.8970655],[-93.2449626,44.8970664],[-93.2449588,44.8972035],[-93.2444663,44.8972077],[-93.2444724,44.8969883],[-93.2436945,44.8969948],[-93.2436847,44.8973513],[-93.2431383,44.8973559],[-93.2431308,44.8976301],[-93.2426384,44.8976342],[-93.2426533,44.8970858],[-93.2425375,44.8970868],[-93.2425361,44.897137],[-93.2424204,44.8971356],[-93.2424177,44.8972335],[-93.2419034,44.8972378],[-93.241899,44.8973663],[-93.2413866,44.8973706],[-93.2413924,44.8971234],[-93.2374979,44.8970771],[-93.2374989,44.897004],[-93.2325688,44.8970298],[-93.2325174,44.8969684],[-93.2325195,44.8962033],[-93.2350718,44.896182],[-93.2350844,44.8950845],[-93.2322995,44.8951042],[-93.2322956,44.895471],[-93.2317461,44.8954733],[-93.2317315,44.8969067],[-93.2272924,44.8969342],[-93.2272916,44.8970352],[-93.2228536,44.8970406],[-93.2228535,44.8970469],[-93.2228528,44.8970555],[-93.22285,44.897064],[-93.2228454,44.8970721],[-93.2228391,44.8970796],[-93.2228311,44.8970862],[-93.2228218,44.8970919],[-93.2228114,44.8970964],[-93.2228,44.8970997],[-93.222788,44.8971017],[-93.2227758,44.8971022],[-93.2205471,44.897105],[-93.2205458,44.8972206],[-93.2203131,44.897336],[-93.2192647,44.897798],[-93.2190322,44.897886],[-93.219044,44.896876],[-93.2195226,44.8968753],[-93.2197685,44.8969905],[-93.2210968,44.8969888],[-93.2213453,44.8968729],[-93.2225022,44.8968713],[-93.2224999,44.89618],[-93.2224849,44.8960511],[-93.2224848,44.8960146],[-93.2203798,44.894963],[-93.2190659,44.8949652],[-93.2190542,44.8959824],[-93.2170653,44.8959853],[-93.2170846,44.8937897],[-93.216119,44.893394],[-93.2109074,44.8934021],[-93.2108776,44.8962431],[-93.2075734,44.8962473]]]}}]}