{"type":"FeatureCollection","name":"minnetonka_border","features":[{"type":"Feature","properties":{"GNIS_FEATURE_ID":2395350,"FEATURE_NAME":"minnetonka","CTU_CLASS":"CITY","COUNTY_GNIS_FEATURE_ID":659472,"COUNTY_CODE":"27","COUNTY_NAME":"Hennepin","POPULATION":54474,"SE_ANNO_CAD_DATA":null},"geometry":{"type":"MultiPolygon","coordinates":[[[[-93.5233252,44.9059143],[-93.5233551,44.8914754],[-93.520652,44.8914896],[-93.5167236,44.8915419],[-93.5002541,44.8918634],[-93.4924686,44.8920717],[-93.4823449,44.8915673],[-93.480258,44.8915946],[-93.4622618,44.8917415],[-93.4602442,44.8917576],[-93.4419486,44.8917468],[-93.4398848,44.8917515],[-93.4218504,44.8918261],[-93.4196753,44.8919762],[-93.4196752,44.8919763],[-93.4196782,44.8919974],[-93.4193676,44.8921422],[-93.4186182,44.8922602],[-93.4184262,44.8920159],[-93.4116833,44.8922801],[-93.4016229,44.8916433],[-93.4013848,44.9061374],[-93.4038068,44.9061214],[-93.4038021,44.9063025],[-93.4065814,44.9063052],[-93.4065861,44.9061242],[-93.4217772,44.9061379],[-93.4219347,44.917574],[-93.4233587,44.9172313],[-93.4231324,44.9208729],[-93.4259023,44.920861],[-93.4258932,44.9209765],[-93.4270657,44.9209745],[-93.4270459,44.9212326],[-93.4269993,44.9218383],[-93.4273448,44.9218443],[-93.4274969,44.9218527],[-93.4276237,44.9218702],[-93.4279284,44.9219501],[-93.4278009,44.923553],[-93.4279657,44.9235613],[-93.4278724,44.9246419],[-93.4277159,44.9246341],[-93.4269278,44.9245947],[-93.4267877,44.9245877],[-93.4266671,44.9261498],[-93.4272681,44.9261362],[-93.4274712,44.9267096],[-93.4287026,44.9282627],[-93.4288147,44.9284026],[-93.4288609,44.9284617],[-93.4289124,44.9285311],[-93.4289615,44.9286013],[-93.4289969,44.9286545],[-93.4290382,44.9287201],[-93.4290706,44.9287743],[-93.4290982,44.9288228],[-93.4291246,44.9288715],[-93.4291501,44.9289206],[-93.4291744,44.92897],[-93.4291975,44.9290196],[-93.4292196,44.9290695],[-93.4292406,44.9291196],[-93.4292604,44.92917],[-93.4292858,44.9292396],[-93.4293111,44.9293159],[-93.4293338,44.9293927],[-93.4293539,44.9294698],[-93.4293674,44.9295278],[-93.4293781,44.9295796],[-93.4293876,44.9296314],[-93.429396,44.9296834],[-93.4294056,44.929755],[-93.4268211,44.9297345],[-93.4267861,44.9311793],[-93.4262322,44.9315347],[-93.422635,44.9315737],[-93.424014,44.9322803],[-93.4227568,44.9325128],[-93.4223894,44.9325645],[-93.4210527,44.9326493],[-93.4209833,44.9369008],[-93.4195812,44.9369045],[-93.4195742,44.9391338],[-93.4163368,44.9391785],[-93.4164223,44.9416678],[-93.4164149,44.9424141],[-93.4210492,44.9424375],[-93.4210627,44.9456737],[-93.4236157,44.9454669],[-93.4236215,44.9448642],[-93.4249897,44.9446939],[-93.4253511,44.9459869],[-93.4255828,44.9459857],[-93.4255537,44.9475993],[-93.4239733,44.9480314],[-93.4233798,44.9481783],[-93.4225187,44.9483394],[-93.421381,44.948464],[-93.421167,44.9484783],[-93.4210012,44.9484971],[-93.4209761,44.9488864],[-93.4108849,44.9495512],[-93.41096,44.9404792],[-93.405771,44.9404742],[-93.4057857,44.9387079],[-93.4006179,44.9387487],[-93.400619,44.9405099],[-93.3987255,44.9405018],[-93.3987203,44.9408819],[-93.3987253,44.941021],[-93.3987708,44.9412277],[-93.3988462,44.9414335],[-93.3989291,44.9416036],[-93.3990561,44.9418024],[-93.3993936,44.9423092],[-93.4006203,44.9423052],[-93.4006251,44.9493884],[-93.4008481,44.9567628],[-93.4006785,44.9640479],[-93.4056579,44.9640855],[-93.4056338,44.9671159],[-93.4047028,44.9671094],[-93.4046937,44.967719],[-93.405629,44.9677256],[-93.4056099,44.9701259],[-93.404743,44.9701249],[-93.4047636,44.9713608],[-93.4043161,44.9713602],[-93.4042954,44.9732418],[-93.4077066,44.9731943],[-93.4105142,44.9730764],[-93.4104674,44.9785561],[-93.4207754,44.9786095],[-93.4309695,44.9787575],[-93.440895,44.9786732],[-93.461355,44.9785421],[-93.4815292,44.978511],[-93.4944053,44.9784694],[-93.4938805,44.9768915],[-93.4941144,44.9749356],[-93.4913928,44.9744178],[-93.4899263,44.9767136],[-93.4877257,44.9781762],[-93.485177,44.9762472],[-93.4874588,44.9746526],[-93.4864271,44.9727329],[-93.4852441,44.9727446],[-93.48527,44.9717313],[-93.4852831,44.9712799],[-93.4831845,44.9713006],[-93.4831861,44.9714377],[-93.4834726,44.971431],[-93.4834406,44.9725246],[-93.4834918,44.9725241],[-93.4834844,44.9727763],[-93.4834332,44.9727768],[-93.4833946,44.9740933],[-93.4829594,44.9740968],[-93.4816938,44.9741069],[-93.4817756,44.9713145],[-93.4767171,44.9713096],[-93.4767638,44.9657865],[-93.4867288,44.9658436],[-93.4867461,44.9673828],[-93.4887594,44.9673918],[-93.488774,44.9657398],[-93.4891862,44.9657315],[-93.4892007,44.9640911],[-93.4919804,44.9641036],[-93.4919976,44.958431],[-93.4923077,44.9583592],[-93.492557,44.9581843],[-93.4928061,44.9580315],[-93.4929932,44.9578784],[-93.493335,44.957748],[-93.4936145,44.9576613],[-93.4939246,44.9576186],[-93.4943277,44.9575545],[-93.4945137,44.9575333],[-93.4948236,44.9575126],[-93.4950715,44.9574918],[-93.4953808,44.9575371],[-93.4955665,44.9575599],[-93.4958442,44.957671],[-93.4960296,44.9577158],[-93.4963395,44.9576952],[-93.4965876,44.9576523],[-93.4967121,44.9575869],[-93.4969304,44.9574119],[-93.4970554,44.9572806],[-93.4973038,44.9571937],[-93.497521,44.9571506],[-93.4977386,44.9570636],[-93.4979565,44.9569327],[-93.4982377,44.956648],[-93.4984251,44.9564509],[-93.4986746,44.9562541],[-93.4988929,44.9560792],[-93.499049,44.9559259],[-93.4992671,44.9557729],[-93.4993618,44.9555755],[-93.4995177,44.9554442],[-93.4995814,44.9552466],[-93.4996445,44.9551149],[-93.4996158,44.9548509],[-93.4996488,44.9546092],[-93.4995892,44.954345],[-93.4995597,44.954169],[-93.4993142,44.9539041],[-93.4991296,44.9537714],[-93.4990386,44.9535512],[-93.498917,44.9532867],[-93.4987019,44.9530878],[-93.4985492,44.9528454],[-93.4984276,44.952581],[-93.4983381,44.9521847],[-93.4983406,44.9518989],[-93.4982493,44.9517226],[-93.4981899,44.9514145],[-93.4981607,44.9512164],[-93.4981006,44.9509963],[-93.4981025,44.9507764],[-93.4981653,44.9506887],[-93.4983516,44.9506236],[-93.4985685,44.9506025],[-93.4988163,44.9506036],[-93.4988779,44.9506479],[-93.4989392,44.9507141],[-93.4990308,44.9508684],[-93.4991201,44.9512866],[-93.4992086,44.9517928],[-93.4994822,44.9523876],[-93.4996027,44.952784],[-93.4996,44.9530917],[-93.4997525,44.9533563],[-93.4999663,44.953709],[-93.5002116,44.9539959],[-93.5003327,44.9543043],[-93.5004228,44.9546346],[-93.500451,44.9549425],[-93.5004804,44.9551405],[-93.500602,44.9554049],[-93.500909,44.9557141],[-93.501247,44.9560234],[-93.5014929,44.9562444],[-93.5014902,44.9565522],[-93.5013341,44.9567055],[-93.5009288,44.9570115],[-93.5005553,44.9572298],[-93.5004289,44.9575151],[-93.500334,44.9577566],[-93.5002085,44.9579539],[-93.5000218,44.9580411],[-93.4998351,44.9581502],[-93.4995542,44.9584128],[-93.4993038,44.9587196],[-93.4990837,44.9590925],[-93.4989576,44.9593558],[-93.498706,44.9597945],[-93.4985785,44.9602117],[-93.4985455,44.9604534],[-93.4986364,44.9606737],[-93.4986038,44.9608715],[-93.4984127,44.9614863],[-93.4982221,44.9620352],[-93.4981585,44.9622328],[-93.498156,44.9625186],[-93.4982469,44.962739],[-93.4983057,44.963113],[-93.4984567,44.9635534],[-93.498455,44.9637513],[-93.4985451,44.9640816],[-93.4987586,44.9644563],[-93.4990047,44.9646552],[-93.4993129,44.9648325],[-93.4996525,44.9649659],[-93.4999603,44.9651871],[-93.5002164,44.9653268],[-93.5004048,44.9653694],[-93.5005028,44.9653866],[-93.5005981,44.9654117],[-93.5006907,44.965441],[-93.5008701,44.9655096],[-93.5009611,44.9655412],[-93.5010556,44.9655664],[-93.5011525,44.9655884],[-93.501251,44.9656074],[-93.5013506,44.9656228],[-93.5014507,44.9656335],[-93.5015514,44.9656388],[-93.5016529,44.9656396],[-93.501959,44.9656336],[-93.5020602,44.965635],[-93.5021604,44.9656413],[-93.5022582,44.965658],[-93.5024497,44.965709],[-93.5025473,44.9657286],[-93.5026505,44.9657391],[-93.5027591,44.9657443],[-93.5029774,44.9657511],[-93.5030794,44.9657587],[-93.5031716,44.9657731],[-93.5032501,44.9657972],[-93.5032844,44.9658519],[-93.5033062,44.9660216],[-93.503355,44.9659604],[-93.503368,44.9658118],[-93.5033718,44.9657325],[-93.5033853,44.9656593],[-93.5034565,44.9656359],[-93.5036734,44.96565],[-93.5037707,44.9656333],[-93.5038628,44.9656013],[-93.5039501,44.9655627],[-93.5040301,44.9655153],[-93.5041054,44.9654606],[-93.5041833,44.9654135],[-93.5042705,44.9653887],[-93.5043661,44.9653849],[-93.5044658,44.9653923],[-93.5046717,44.9654212],[-93.504775,44.9654327],[-93.5048767,44.9654366],[-93.5051807,44.96544],[-93.505688,44.9654392],[-93.5063983,44.9654322],[-93.5064999,44.9654304],[-93.5066018,44.9654264],[-93.5069078,44.9654109],[-93.5070092,44.9654082],[-93.5071098,44.9654086],[-93.5072096,44.9654132],[-93.5073105,44.9654232],[-93.5074123,44.9654402],[-93.5075104,44.9654654],[-93.5076,44.9654999],[-93.5076778,44.9655442],[-93.5077518,44.9655917],[-93.5078244,44.9656408],[-93.5079658,44.9657431],[-93.508035,44.965796],[-93.5081711,44.965904],[-93.5086399,44.966287],[-93.5087037,44.9663435],[-93.5088905,44.966516],[-93.5089554,44.9665714],[-93.5090234,44.9666242],[-93.5090959,44.9666733],[-93.5091773,44.9667166],[-93.5092689,44.9667535],[-93.5094631,44.9668189],[-93.5095563,44.9668526],[-93.5096404,44.9668905],[-93.5097107,44.9669351],[-93.5097613,44.9669893],[-93.5097872,44.967054],[-93.5097958,44.9671263],[-93.5097959,44.9672802],[-93.5098048,44.9673551],[-93.5098307,44.9674244],[-93.5098662,44.9674919],[-93.5099048,44.9675598],[-93.5099472,44.9676271],[-93.5099939,44.9676931],[-93.5100454,44.9677566],[-93.5101023,44.9678168],[-93.5101651,44.9678727],[-93.5102344,44.9679234],[-93.5103072,44.9679717],[-93.5103822,44.9680189],[-93.5105381,44.9681103],[-93.5106185,44.9681545],[-93.5107837,44.96824],[-93.5108681,44.9682814],[-93.5110395,44.9683617],[-93.5113008,44.9684762],[-93.5114757,44.9685489],[-93.5115642,44.9685833],[-93.5116544,44.9686155],[-93.511746,44.968646],[-93.5119326,44.9687026],[-93.5125028,44.9688588],[-93.5129731,44.9689939],[-93.513916,44.9692596],[-93.5140092,44.9692881],[-93.5141051,44.9693111],[-93.514789,44.9694508],[-93.5150829,44.9695077],[-93.5152795,44.9695426],[-93.5154767,44.969574],[-93.5155757,44.9695877],[-93.515676,44.9695955],[-93.5157775,44.9695978],[-93.5158796,44.9695964],[-93.5160836,44.96959],[-93.5161854,44.9695884],[-93.5164938,44.9695871],[-93.5165961,44.9695844],[-93.5166973,44.9695787],[-93.5167969,44.969569],[-93.5168945,44.9695542],[-93.5169897,44.9695334],[-93.5170825,44.9695069],[-93.5171736,44.969476],[-93.5172635,44.969442],[-93.5175315,44.969334],[-93.5176222,44.9693004],[-93.5177144,44.9692701],[-93.5178085,44.969244],[-93.5179045,44.9692212],[-93.5180019,44.9692009],[-93.5182967,44.9691449],[-93.5183942,44.9691249],[-93.5184902,44.9691014],[-93.5185786,44.9690655],[-93.5186564,44.9690151],[-93.5186465,44.9689416],[-93.5185807,44.9688932],[-93.5184844,44.9688863],[-93.5182717,44.9688979],[-93.5180642,44.9689179],[-93.5180143,44.9688801],[-93.5180891,44.9688325],[-93.5181735,44.9687883],[-93.5182637,44.9687537],[-93.5183586,44.9687367],[-93.5184608,44.9687364],[-93.5185648,44.9687439],[-93.5186656,44.9687545],[-93.5187655,44.9687733],[-93.518865,44.9687891],[-93.5189642,44.9687898],[-93.5190654,44.9687814],[-93.5191672,44.9687681],[-93.5192674,44.9687498],[-93.5193635,44.9687261],[-93.5194526,44.9686961],[-93.5195282,44.9686497],[-93.5195966,44.9685939],[-93.5196679,44.9685411],[-93.5197474,44.9684959],[-93.5198366,44.9684624],[-93.5199306,44.9684348],[-93.5200231,44.9684051],[-93.5201113,44.9683697],[-93.5203688,44.9682538],[-93.5204506,44.9682115],[-93.5205222,44.9681608],[-93.5205897,44.9681066],[-93.5206562,44.9680049],[-93.5206898,44.9679078],[-93.5207963,44.9677904],[-93.5209131,44.9676844],[-93.5210415,44.9675729],[-93.5214159,44.9672537],[-93.5215265,44.9671549],[-93.5216585,44.9670284],[-93.5217151,44.9669631],[-93.521833,44.9668014],[-93.5218757,44.9667459],[-93.5219153,44.9667003],[-93.5219898,44.9666324],[-93.5220803,44.9665803],[-93.5222623,44.9665006],[-93.5223467,44.9664452],[-93.5224063,44.966386],[-93.5224557,44.9663234],[-93.5225656,44.9661587],[-93.5226277,44.966079],[-93.5226416,44.9573053],[-93.5222338,44.9571044],[-93.5220288,44.9569984],[-93.5219216,44.9569253],[-93.5218332,44.9568898],[-93.5217344,44.9568692],[-93.5216476,44.9568564],[-93.5213954,44.9568242],[-93.5212968,44.9568065],[-93.521225,44.9567891],[-93.5210835,44.95675],[-93.5209202,44.9567006],[-93.5204347,44.9565427],[-93.5202489,44.9564844],[-93.5200728,44.9564338],[-93.5198941,44.9563888],[-93.5197856,44.9563645],[-93.5196399,44.9563343],[-93.5193459,44.9562795],[-93.519099,44.9562381],[-93.5185285,44.956148],[-93.5182813,44.9561072],[-93.5182095,44.9561059],[-93.5178793,44.9561167],[-93.5177533,44.9561259],[-93.5176299,44.9561424],[-93.5174855,44.9561732],[-93.5172937,44.9562192],[-93.5171028,44.9562695],[-93.5169137,44.9563241],[-93.5167268,44.9563826],[-93.5165431,44.956445],[-93.5163631,44.9565111],[-93.5162308,44.9565634],[-93.5161005,44.9566194],[-93.5159727,44.9566793],[-93.5158478,44.9567428],[-93.5157263,44.9568094],[-93.5156088,44.9568788],[-93.5154958,44.9569508],[-93.5153879,44.9570255],[-93.5153045,44.957093],[-93.5152269,44.9571652],[-93.5151422,44.9572566],[-93.5150663,44.9573515],[-93.5149993,44.9574481],[-93.5149599,44.9575139],[-93.5149079,44.9576149],[-93.5148615,44.957718],[-93.5147589,44.9579607],[-93.5147271,44.9580293],[-93.5146927,44.9580971],[-93.5146533,44.9581634],[-93.5146076,44.9582282],[-93.5145117,44.9583563],[-93.5144688,44.9584212],[-93.5144423,44.9584711],[-93.5144225,44.9585408],[-93.5144197,44.9585954],[-93.5144268,44.9586865],[-93.5144447,44.9587416],[-93.5144508,44.9587936],[-93.5143823,44.9588534],[-93.5142955,44.9588109],[-93.5142526,44.9587665],[-93.514198,44.9586996],[-93.5141489,44.9586299],[-93.5141079,44.9585627],[-93.5140721,44.9584946],[-93.5140369,44.9584065],[-93.5140198,44.9583351],[-93.5140154,44.9582461],[-93.5140181,44.9581363],[-93.5140233,44.9580621],[-93.5140327,44.9579882],[-93.5140479,44.9579156],[-93.5140704,44.9578452],[-93.5140932,44.9577947],[-93.5141319,44.9577307],[-93.5141813,44.9576708],[-93.514256,44.9576002],[-93.5143236,44.9575462],[-93.5143956,44.9574937],[-93.5145437,44.9573897],[-93.5146495,44.9573097],[-93.5147274,44.9572391],[-93.5147721,44.9571752],[-93.5147948,44.9571229],[-93.5150034,44.9565633],[-93.5150614,44.9563881],[-93.5150918,44.9562828],[-93.5151134,44.956195],[-93.5151161,44.9561235],[-93.5150987,44.9560512],[-93.515063,44.9559642],[-93.5150259,44.9558971],[-93.5149804,44.9558321],[-93.514941,44.9557855],[-93.5147829,44.9556224],[-93.5145767,44.9554163],[-93.5144244,44.9552718],[-93.5142661,44.9551312],[-93.5141341,44.9550227],[-93.5140645,44.9549707],[-93.5139915,44.9549206],[-93.5138771,44.9548489],[-93.5137581,44.9547806],[-93.5135952,44.9546939],[-93.5134292,44.9546118],[-93.5133013,44.9545535],[-93.5131713,44.9544972],[-93.5126478,44.9542756],[-93.5123842,44.9541661],[-93.5122983,44.9541281],[-93.5121981,44.9540755],[-93.5121407,44.9540163],[-93.5120093,44.9539316],[-93.5119526,44.9538423],[-93.5118616,44.9538153],[-93.5117023,44.9538228],[-93.5109421,44.9537941],[-93.5106761,44.953787],[-93.5105014,44.9537913],[-93.5103422,44.953725],[-93.5101973,44.9536523],[-93.5100345,44.9535636],[-93.5097749,44.953416],[-93.5096991,44.9533678],[-93.5095177,44.95324],[-93.5094421,44.9531924],[-93.5093818,44.9531606],[-93.5093054,44.9531298],[-93.509221,44.9531074],[-93.5090462,44.9530695],[-93.5089763,44.9530486],[-93.508914,44.9530203],[-93.5088583,44.9529855],[-93.5087883,44.9529352],[-93.5086884,44.9528549],[-93.5085775,44.9527562],[-93.5083449,44.9525387],[-93.5082809,44.952482],[-93.508215,44.9524269],[-93.5081112,44.9523482],[-93.5080026,44.9522711],[-93.5079095,44.9522075],[-93.5078137,44.9521458],[-93.507735,44.9520987],[-93.5076542,44.9520544],[-93.5075713,44.9520136],[-93.5074862,44.951977],[-93.5073985,44.9519452],[-93.5073051,44.9519192],[-93.5072316,44.9519035],[-93.5071558,44.9518911],[-93.5070527,44.9518795],[-93.5069746,44.9518745],[-93.506871,44.9518726],[-93.5067694,44.9518761],[-93.5066698,44.9518834],[-93.5065702,44.9518923],[-93.5064208,44.9519083],[-93.5062217,44.951934],[-93.5059978,44.9519672],[-93.505352,44.9520743],[-93.505129,44.9521099],[-93.5050059,44.9521332],[-93.5047372,44.9521921],[-93.504639,44.9522095],[-93.5045401,44.9522214],[-93.5044401,44.9522261],[-93.5043394,44.9522252],[-93.5042127,44.9522185],[-93.5039585,44.9521977],[-93.5038569,44.9521908],[-93.5037556,44.952187],[-93.5036297,44.9521892],[-93.5035045,44.9522025],[-93.5034296,44.9522151],[-93.5032307,44.9522539],[-93.5031563,44.9522667],[-93.5030574,44.9522787],[-93.5029832,44.9522819],[-93.5028839,44.9522771],[-93.5027843,44.9522622],[-93.5026856,44.9522402],[-93.5025419,44.9521996],[-93.502428,44.9521614],[-93.5023178,44.9521172],[-93.5020689,44.9520031],[-93.5020914,44.949124],[-93.5022003,44.9455198],[-93.5072715,44.9456091],[-93.5074496,44.9392112],[-93.5023414,44.9391892],[-93.502346,44.938261],[-93.5023951,44.9363235],[-93.5032949,44.9363017],[-93.5038839,44.9362163],[-93.5044733,44.936065],[-93.5051294,44.9358784],[-93.5050122,44.9356912],[-93.5061257,44.9355049],[-93.5064297,44.9353478],[-93.5069586,44.9350422],[-93.5074258,44.9347143],[-93.5076133,44.9344953],[-93.5078164,44.928801],[-93.5117881,44.9276525],[-93.5130262,44.9276577],[-93.5130604,44.9272841],[-93.5183238,44.9258746],[-93.5183044,44.9203945],[-93.520668,44.9203607],[-93.520824,44.916696],[-93.5233921,44.9167727],[-93.5233393,44.9118908],[-93.5233276,44.9113896],[-93.5233252,44.9059143]]],[[[-93.5226316,44.9570682],[-93.5225834,44.9533769],[-93.5224208,44.9534663],[-93.5223231,44.9535243],[-93.5222466,44.9535718],[-93.5221721,44.9536205],[-93.5221001,44.9536707],[-93.522031,44.9537227],[-93.5219651,44.9537767],[-93.521901,44.953832],[-93.5217768,44.9539456],[-93.5216432,44.9540776],[-93.5215158,44.9542132],[-93.5213684,44.9543825],[-93.5212295,44.9545544],[-93.521158,44.9546493],[-93.5211135,44.9547139],[-93.5210714,44.9547797],[-93.5210219,44.9548631],[-93.5209755,44.9549475],[-93.5209233,44.9550496],[-93.5208744,44.9551522],[-93.5208096,44.9553064],[-93.5208035,44.9553605],[-93.520809,44.9554154],[-93.5208342,44.955522],[-93.5208578,44.955592],[-93.5209244,44.9557663],[-93.5209498,44.9558453],[-93.5209579,44.9559261],[-93.5211661,44.9561737],[-93.521264,44.9562807],[-93.5213531,44.9563693],[-93.5214486,44.9564532],[-93.5215343,44.9565182],[-93.5216256,44.9565788],[-93.5217417,44.9566469],[-93.5218632,44.956711],[-93.5219889,44.9567722],[-93.5224416,44.9569773],[-93.5226316,44.9570682]]],[[[-93.5061257,44.9355049],[-93.5053775,44.9357328],[-93.505572,44.9357409],[-93.5058389,44.9356531],[-93.5061257,44.9355049]]]]}}]}