{"type":"FeatureCollection","name":"monticello_border","features":[{"type":"Feature","properties":{"GNIS_FEATURE_ID":665015,"FEATURE_NAME":"monticello","CTU_CLASS":"TOWNSHIP","COUNTY_GNIS_FEATURE_ID":659530,"COUNTY_CODE":"86","COUNTY_NAME":"Wright","POPULATION":3353,"SE_ANNO_CAD_DATA":null},"geometry":{"type":"MultiPolygon","coordinates":[[[[-93.8001154,45.2739097],[-93.8016254,45.2738779],[-93.8041894,45.2738654],[-93.8073668,45.2738398],[-93.8144498,45.2738634],[-93.8144468,45.273954],[-93.8146474,45.2742336],[-93.812719,45.277113],[-93.8097941,45.2810957],[-93.8179567,45.2812008],[-93.8182674,45.2812051],[-93.8218406,45.2812536],[-93.8218418,45.2812536],[-93.8248965,45.2812969],[-93.8248965,45.2812975],[-93.8248925,45.2824881],[-93.8269626,45.2825167],[-93.8269551,45.2923205],[-93.8259823,45.2927187],[-93.8245303,45.2933199],[-93.8202089,45.2954346],[-93.8193783,45.2958702],[-93.8189104,45.2961313],[-93.817642,45.296817],[-93.8172769,45.2970712],[-93.8218339,45.2971453],[-93.8218644,45.299451],[-93.8239237,45.2994868],[-93.8239037,45.2980455],[-93.8269506,45.2980442],[-93.8269656,45.2995397],[-93.8270327,45.3049407],[-93.8250171,45.3049126],[-93.8250198,45.305125],[-93.8247557,45.305137],[-93.8243906,45.3051537],[-93.8242283,45.3051877],[-93.824244,45.305348],[-93.8241464,45.305451],[-93.8242271,45.305577],[-93.8242267,45.3057143],[-93.8243313,45.3059664],[-93.824436,45.3062184],[-93.824452,45.3063329],[-93.8245164,45.3064819],[-93.824615,45.3067288],[-93.8221294,45.3067161],[-93.8221316,45.3064966],[-93.8204404,45.3064881],[-93.8201248,45.3062236],[-93.8174332,45.3041013],[-93.815567,45.3026916],[-93.8141449,45.3017331],[-93.8122177,45.3008638],[-93.8104926,45.3002961],[-93.809051,45.2999399],[-93.8076216,45.2996598],[-93.8065868,45.2994897],[-93.8065997,45.300303],[-93.8073447,45.3004255],[-93.8087158,45.3006942],[-93.81007,45.3010289],[-93.8116773,45.3015578],[-93.8134503,45.3023575],[-93.8147706,45.3032475],[-93.8166068,45.3046345],[-93.8192793,45.3067417],[-93.8212092,45.3083587],[-93.8232245,45.3099815],[-93.8255596,45.3118455],[-93.8265718,45.3125601],[-93.8283075,45.3135615],[-93.8304131,45.3146737],[-93.8332958,45.3161774],[-93.8353549,45.3172671],[-93.8368154,45.3180988],[-93.838716,45.3193742],[-93.8422737,45.3218664],[-93.8460394,45.324523],[-93.8485761,45.3263496],[-93.8517824,45.3286178],[-93.8524206,45.3290744],[-93.8532151,45.3295375],[-93.8539242,45.3298294],[-93.8561222,45.3307493],[-93.8591619,45.3320171],[-93.8610632,45.3328187],[-93.8610087,45.3383976],[-93.8616108,45.3384626],[-93.8630623,45.3385527],[-93.8644434,45.3386375],[-93.8659114,45.3388761],[-93.8673727,45.3392797],[-93.8687267,45.3400189],[-93.8695973,45.3407868],[-93.87064,45.3416257],[-93.8716276,45.3423987],[-93.8726301,45.3430232],[-93.8735616,45.3435325],[-93.8744453,45.3438823],[-93.875276,45.3441946],[-93.8754767,45.3442555],[-93.8759348,45.3445209],[-93.876245,45.3447693],[-93.8768515,45.3449966],[-93.877644,45.345384],[-93.8785202,45.346085],[-93.8794428,45.3468411],[-93.8803108,45.3476191],[-93.8811791,45.3483365],[-93.88214,45.3492028],[-93.8830766,45.3502118],[-93.883811,45.3511598],[-93.8844435,45.3521514],[-93.8850597,45.3532914],[-93.8858391,45.3545034],[-93.8867741,45.3557598],[-93.8874138,45.3568779],[-93.8878132,45.3578083],[-93.8879323,45.3586499],[-93.8877854,45.359617],[-93.8876467,45.3605348],[-93.8877808,45.3614809],[-93.888204,45.3623288],[-93.8887848,45.3629519],[-93.8899253,45.3638296],[-93.8908724,45.3643579],[-93.8908719,45.3642263],[-93.8908348,45.3549964],[-93.8907981,45.3403692],[-93.8907772,45.3258463],[-93.8908575,45.3113342],[-93.8905117,45.2822331],[-93.8910204,45.2678416],[-93.8911074,45.2524779],[-93.891007,45.2499666],[-93.8906513,45.2378865],[-93.8899351,45.2378866],[-93.8731678,45.2377463],[-93.8682035,45.2377175],[-93.868024,45.2377174],[-93.8478691,45.2377247],[-93.847664,45.237725],[-93.8069716,45.2376596],[-93.806905,45.2376599],[-93.786899,45.2375874],[-93.7864514,45.2375857],[-93.765769,45.237998],[-93.7511214,45.2380087],[-93.7461111,45.2380002],[-93.7454108,45.2380037],[-93.7254378,45.2380346],[-93.7248698,45.2380318],[-93.7049663,45.2380216],[-93.7042584,45.2380236],[-93.7043739,45.2499743],[-93.7043136,45.2523214],[-93.704458,45.2596458],[-93.7147072,45.2652187],[-93.7147131,45.2666695],[-93.7096536,45.2666502],[-93.7045941,45.2666307],[-93.7044388,45.2809896],[-93.7043555,45.2954582],[-93.7043705,45.2961594],[-93.7043884,45.2978949],[-93.7053092,45.29803],[-93.7064457,45.2980757],[-93.707292,45.2982064],[-93.7088756,45.2984718],[-93.7101264,45.298629],[-93.7113071,45.2987909],[-93.7125507,45.2989259],[-93.7136762,45.2991146],[-93.7152042,45.2994234],[-93.7172061,45.299798],[-93.7183338,45.2998877],[-93.7194707,45.2999223],[-93.7207169,45.2999418],[-93.7220583,45.2998961],[-93.7232565,45.2999699],[-93.7247605,45.2999646],[-93.726208,45.3000467],[-93.7277797,45.3001467],[-93.7304072,45.3000766],[-93.7320551,45.2999075],[-93.7336517,45.2999362],[-93.7351862,45.299964],[-93.7366302,45.2998533],[-93.7381788,45.299595],[-93.7395715,45.2993352],[-93.7411145,45.2989777],[-93.7427251,45.2987255],[-93.7443086,45.2982969],[-93.7457464,45.2977677],[-93.7469958,45.2972859],[-93.7482138,45.2968258],[-93.7491887,45.2964235],[-93.7502711,45.2959099],[-93.7506593,45.2955644],[-93.7513673,45.295239],[-93.7529169,45.2948795],[-93.7548336,45.2946569],[-93.7553743,45.2946976],[-93.755339,45.2940561],[-93.7552638,45.2940441],[-93.7551858,45.2940323],[-93.7551137,45.2940235],[-93.7550188,45.2940151],[-93.7549172,45.2940065],[-93.7548154,45.2939986],[-93.7547135,45.2939924],[-93.754618,45.2939887],[-93.754529,45.2939879],[-93.7544274,45.29399],[-93.7543193,45.2939945],[-93.7542174,45.2940006],[-93.7541157,45.2940085],[-93.7540047,45.2940192],[-93.7539006,45.294031],[-93.7538191,45.2940415],[-93.7537442,45.2940522],[-93.7536447,45.2940674],[-93.7535454,45.2940836],[-93.7534587,45.2940985],[-93.7533784,45.2941128],[-93.7533043,45.2941264],[-93.7532179,45.2941425],[-93.7531193,45.2941612],[-93.753033,45.2941777],[-93.7529374,45.2941958],[-93.7528079,45.2942201],[-93.7526905,45.2942415],[-93.7525946,45.2942584],[-93.7525203,45.2942712],[-93.7524149,45.2942892],[-93.7523095,45.294307],[-93.7522289,45.2943206],[-93.7521389,45.2943357],[-93.7520365,45.2943528],[-93.7519217,45.294372],[-93.7518008,45.2943913],[-93.7517862,45.2885394],[-93.7452349,45.288494],[-93.7452443,45.2875886],[-93.7427184,45.2875648],[-93.7427089,45.2884701],[-93.7401716,45.2884462],[-93.7402498,45.2812035],[-93.7453104,45.2812575],[-93.7453146,45.2808514],[-93.7491015,45.2830722],[-93.7509957,45.2845456],[-93.75289,45.286019],[-93.7543358,45.2875897],[-93.7554415,45.2883122],[-93.7554436,45.2885384],[-93.755821,45.2885401],[-93.7560301,45.2885425],[-93.7563247,45.2886881],[-93.7568503,45.2889121],[-93.7573393,45.2890881],[-93.7576873,45.2892059],[-93.7583167,45.2893809],[-93.7588588,45.2895059],[-93.759203,45.289571],[-93.7596578,45.2896439],[-93.7600137,45.2896858],[-93.7605697,45.2897242],[-93.7608116,45.2897331],[-93.7610774,45.2897378],[-93.7614654,45.2897246],[-93.7593352,45.2886096],[-93.7514509,45.284268],[-93.7468675,45.2812647],[-93.7555047,45.2813042],[-93.7555485,45.2705272],[-93.7606092,45.2705478],[-93.7606067,45.274141],[-93.7656899,45.2741591],[-93.7708278,45.274107],[-93.770755,45.2819001],[-93.7715623,45.2819004],[-93.771562,45.28132],[-93.7757136,45.2812688],[-93.7806504,45.2812471],[-93.7859211,45.2812253],[-93.785967,45.2801834],[-93.7821467,45.2777748],[-93.7821495,45.2764891],[-93.7803882,45.2765011],[-93.7802713,45.2763545],[-93.7802073,45.2762642],[-93.780148,45.2761724],[-93.7800934,45.2760791],[-93.7800283,45.2759526],[-93.7799989,45.2758886],[-93.7799482,45.2757625],[-93.7799157,45.275667],[-93.7798881,45.2755707],[-93.7798723,45.2755061],[-93.7798362,45.2753469],[-93.7796483,45.274519],[-93.7796249,45.2744494],[-93.7795871,45.274383],[-93.7795358,45.2743213],[-93.7794989,45.274287],[-93.7794131,45.2742263],[-93.7793479,45.2741921],[-93.7792775,45.2741637],[-93.7792218,45.2741464],[-93.7791446,45.2741289],[-93.779065,45.274118],[-93.7811543,45.2740985],[-93.7812793,45.2717112],[-93.7901215,45.2715969],[-93.7901311,45.2713552],[-93.7901494,45.2711137],[-93.7901847,45.2708125],[-93.7902564,45.2703304],[-93.7904526,45.2690175],[-93.7908312,45.2667844],[-93.7909608,45.265897],[-93.7910057,45.265669],[-93.7911992,45.2649702],[-93.79173,45.2649643],[-93.7917351,45.2658669],[-93.7967935,45.2649063],[-93.7967879,45.2667181],[-93.7966382,45.2703324],[-93.7964885,45.2739467],[-93.8001154,45.2739097]],[[-93.7392003,45.2848146],[-93.739161,45.2884408],[-93.7390826,45.2956805],[-93.7350272,45.2956469],[-93.7351081,45.2883981],[-93.7351486,45.2847737],[-93.7392003,45.2848146]]],[[[-93.7964885,45.2739467],[-93.7910237,45.2740024],[-93.7909444,45.2759121],[-93.7913045,45.2759084],[-93.7947176,45.275873],[-93.7946949,45.2764212],[-93.7963867,45.2764037],[-93.7964885,45.2739467]]],[[[-93.7672337,45.2900651],[-93.7688025,45.2905097],[-93.770296,45.2910552],[-93.7703086,45.2924834],[-93.7706584,45.292484],[-93.7706404,45.2904258],[-93.7681941,45.2895787],[-93.76756,45.289407],[-93.7669823,45.2892773],[-93.7663018,45.2891606],[-93.7655521,45.2890794],[-93.7646773,45.2889972],[-93.7638216,45.2889835],[-93.761738,45.2890208],[-93.7629199,45.289672],[-93.7638228,45.2896559],[-93.7646974,45.2896209],[-93.7655086,45.2896855],[-93.766118,45.289804],[-93.766686,45.2899257],[-93.7672337,45.2900651]]],[[[-93.7642791,45.2834879],[-93.7644452,45.2836609],[-93.7645605,45.2837598],[-93.7647679,45.2839088],[-93.7649213,45.2839991],[-93.7656257,45.2843461],[-93.7657058,45.2843847],[-93.765699,45.2813501],[-93.7625315,45.2813372],[-93.7630227,45.2819685],[-93.7637343,45.282839],[-93.7640898,45.2832636],[-93.7642791,45.2834879]]],[[[-93.8163009,45.2977395],[-93.8152445,45.2983592],[-93.8143307,45.2989763],[-93.8138669,45.2993117],[-93.8171066,45.2993683],[-93.8181448,45.2984882],[-93.8167394,45.2976623],[-93.8167364,45.2974475],[-93.8163009,45.2977395]]],[[[-93.8093471,45.2836623],[-93.8081259,45.2833845],[-93.8074495,45.2843296],[-93.8089002,45.2843386],[-93.8093471,45.2836623]]],[[[-93.7452775,45.2844103],[-93.7431616,45.2843877],[-93.7431558,45.2849366],[-93.7452717,45.2849591],[-93.7452775,45.2844103]]],[[[-93.8610087,45.3383976],[-93.8610632,45.3328187],[-93.8591619,45.3320171],[-93.8561222,45.3307493],[-93.8539242,45.3298294],[-93.8532151,45.3295375],[-93.8524206,45.3290744],[-93.8517824,45.3286178],[-93.8485761,45.3263496],[-93.8460394,45.324523],[-93.8422737,45.3218664],[-93.838716,45.3193742],[-93.8368154,45.3180988],[-93.8353549,45.3172671],[-93.8332958,45.3161774],[-93.8304131,45.3146737],[-93.8283075,45.3135615],[-93.8265718,45.3125601],[-93.8255596,45.3118455],[-93.8232245,45.3099815],[-93.8212092,45.3083587],[-93.8192793,45.3067417],[-93.8166068,45.3046345],[-93.8147706,45.3032475],[-93.8134503,45.3023575],[-93.8116773,45.3015578],[-93.81007,45.3010289],[-93.8087158,45.3006942],[-93.8073447,45.3004255],[-93.8065997,45.300303],[-93.8065868,45.2994897],[-93.8076216,45.2996598],[-93.809051,45.2999399],[-93.8104926,45.3002961],[-93.8122177,45.3008638],[-93.8141449,45.3017331],[-93.815567,45.3026916],[-93.8174332,45.3041013],[-93.8201248,45.3062236],[-93.8204404,45.3064881],[-93.8221316,45.3064966],[-93.8221294,45.3067161],[-93.824615,45.3067288],[-93.8245164,45.3064819],[-93.824452,45.3063329],[-93.824436,45.3062184],[-93.8243313,45.3059664],[-93.8242267,45.3057143],[-93.8242271,45.305577],[-93.8241464,45.305451],[-93.824244,45.305348],[-93.8242283,45.3051877],[-93.8243906,45.3051537],[-93.8247557,45.305137],[-93.8250198,45.305125],[-93.8250171,45.3049126],[-93.8270327,45.3049407],[-93.8269656,45.2995397],[-93.8269506,45.2980442],[-93.8239037,45.2980455],[-93.8239237,45.2994868],[-93.8218644,45.299451],[-93.8218339,45.2971453],[-93.8172769,45.2970712],[-93.817642,45.296817],[-93.8189104,45.2961313],[-93.8193783,45.2958702],[-93.8202089,45.2954346],[-93.8245303,45.2933199],[-93.8259823,45.2927187],[-93.8269551,45.2923205],[-93.8269626,45.2825167],[-93.8248925,45.2824881],[-93.8248965,45.2812975],[-93.8248965,45.2812969],[-93.8218418,45.2812536],[-93.8218406,45.2812536],[-93.8182674,45.2812051],[-93.8179567,45.2812008],[-93.8097941,45.2810957],[-93.812719,45.277113],[-93.8146474,45.2742336],[-93.8144468,45.273954],[-93.8144498,45.2738634],[-93.8073668,45.2738398],[-93.8041894,45.2738654],[-93.8016254,45.2738779],[-93.8001154,45.2739097],[-93.7964885,45.2739467],[-93.7966382,45.2703324],[-93.7967879,45.2667181],[-93.7967935,45.2649063],[-93.7917351,45.2658669],[-93.79173,45.2649643],[-93.7911992,45.2649702],[-93.7910057,45.265669],[-93.7909608,45.265897],[-93.7908312,45.2667844],[-93.7904526,45.2690175],[-93.7902564,45.2703304],[-93.7901847,45.2708125],[-93.7901494,45.2711137],[-93.7901311,45.2713552],[-93.7901215,45.2715969],[-93.7812793,45.2717112],[-93.7811543,45.2740985],[-93.779065,45.274118],[-93.7791446,45.2741289],[-93.7792218,45.2741464],[-93.7792775,45.2741637],[-93.7793479,45.2741921],[-93.7794131,45.2742263],[-93.7794989,45.274287],[-93.7795358,45.2743213],[-93.7795871,45.274383],[-93.7796249,45.2744494],[-93.7796483,45.274519],[-93.7798362,45.2753469],[-93.7798723,45.2755061],[-93.7798881,45.2755707],[-93.7799157,45.275667],[-93.7799482,45.2757625],[-93.7799989,45.2758886],[-93.7800283,45.2759526],[-93.7800934,45.2760791],[-93.780148,45.2761724],[-93.7802073,45.2762642],[-93.7802713,45.2763545],[-93.7803882,45.2765011],[-93.7821495,45.2764891],[-93.7821467,45.2777748],[-93.785967,45.2801834],[-93.7859211,45.2812253],[-93.7806504,45.2812471],[-93.7757136,45.2812688],[-93.771562,45.28132],[-93.7715623,45.2819004],[-93.770755,45.2819001],[-93.7708278,45.274107],[-93.7656899,45.2741591],[-93.7606067,45.274141],[-93.7606092,45.2705478],[-93.7555485,45.2705272],[-93.7555047,45.2813042],[-93.7468675,45.2812647],[-93.7514509,45.284268],[-93.7593352,45.2886096],[-93.7614654,45.2897246],[-93.7610774,45.2897378],[-93.7608116,45.2897331],[-93.7605697,45.2897242],[-93.7600137,45.2896858],[-93.7596578,45.2896439],[-93.759203,45.289571],[-93.7588588,45.2895059],[-93.7583167,45.2893809],[-93.7576873,45.2892059],[-93.7573393,45.2890881],[-93.7568503,45.2889121],[-93.7563247,45.2886881],[-93.7560301,45.2885425],[-93.755821,45.2885401],[-93.7554436,45.2885384],[-93.7554415,45.2883122],[-93.7543358,45.2875897],[-93.75289,45.286019],[-93.7509957,45.2845456],[-93.7491015,45.2830722],[-93.7453146,45.2808514],[-93.7453104,45.2812575],[-93.7402498,45.2812035],[-93.7401716,45.2884462],[-93.7427089,45.2884701],[-93.7427184,45.2875648],[-93.7452443,45.2875886],[-93.7452349,45.288494],[-93.7517862,45.2885394],[-93.7518008,45.2943913],[-93.7519217,45.294372],[-93.7520365,45.2943528],[-93.7521389,45.2943357],[-93.7522289,45.2943206],[-93.7523095,45.294307],[-93.7524149,45.2942892],[-93.7525203,45.2942712],[-93.7525946,45.2942584],[-93.7526905,45.2942415],[-93.7528079,45.2942201],[-93.7529374,45.2941958],[-93.753033,45.2941777],[-93.7531193,45.2941612],[-93.7532179,45.2941425],[-93.7533043,45.2941264],[-93.7533784,45.2941128],[-93.7534587,45.2940985],[-93.7535454,45.2940836],[-93.7536447,45.2940674],[-93.7537442,45.2940522],[-93.7538191,45.2940415],[-93.7539006,45.294031],[-93.7540047,45.2940192],[-93.7541157,45.2940085],[-93.7542174,45.2940006],[-93.7543193,45.2939945],[-93.7544274,45.29399],[-93.754529,45.2939879],[-93.754618,45.2939887],[-93.7547135,45.2939924],[-93.7548154,45.2939986],[-93.7549172,45.2940065],[-93.7550188,45.2940151],[-93.7551137,45.2940235],[-93.7551858,45.2940323],[-93.7552638,45.2940441],[-93.755339,45.2940561],[-93.7553743,45.2946976],[-93.7566268,45.294792],[-93.7594443,45.295668],[-93.7641806,45.2967721],[-93.7681045,45.2974593],[-93.7728145,45.2996135],[-93.7746028,45.3003367],[-93.7765807,45.301571],[-93.7784488,45.3026734],[-93.78219,45.3041743],[-93.7836355,45.304876],[-93.7860738,45.3061479],[-93.7880674,45.3073214],[-93.7896922,45.3079842],[-93.791511,45.3084651],[-93.7933226,45.309045],[-93.7947442,45.309565],[-93.7967975,45.3101279],[-93.7995898,45.3103375],[-93.8014164,45.3107798],[-93.802682,45.3112779],[-93.8042528,45.3120066],[-93.8061066,45.3131911],[-93.8078196,45.3142494],[-93.808993,45.3150007],[-93.8107216,45.3160369],[-93.8123803,45.3171337],[-93.8135385,45.3179399],[-93.8142224,45.3189945],[-93.814525,45.3202203],[-93.8149738,45.3210334],[-93.8159065,45.3219501],[-93.8168222,45.3225752],[-93.8183087,45.3234908],[-93.8195451,45.3242803],[-93.8201744,45.3246343],[-93.8212112,45.3252175],[-93.8229257,45.326457],[-93.824772,45.3275258],[-93.8259313,45.3284694],[-93.827083,45.3294405],[-93.82782,45.3301429],[-93.8285428,45.3311039],[-93.8288051,45.3320272],[-93.8289206,45.3331929],[-93.8294707,45.3339397],[-93.8302619,45.3345541],[-93.8310515,45.3349044],[-93.8324491,45.3351381],[-93.8337216,45.3353224],[-93.8350801,45.3355562],[-93.8368445,45.3358385],[-93.8389067,45.3363511],[-93.8403042,45.3365626],[-93.8420129,45.3366635],[-93.8433704,45.3366881],[-93.8448992,45.3366739],[-93.8464039,45.3365386],[-93.8488765,45.3365168],[-93.8498302,45.3368777],[-93.8510647,45.3372214],[-93.8529534,45.3373767],[-93.8543432,45.3375991],[-93.8563345,45.3379851],[-93.8568022,45.3379126],[-93.8578474,45.3378937],[-93.8603148,45.3383226],[-93.8607415,45.3383687],[-93.8610087,45.3383976]],[[-93.7964885,45.2739467],[-93.7963867,45.2764037],[-93.7946949,45.2764212],[-93.7947176,45.275873],[-93.7913045,45.2759084],[-93.7909444,45.2759121],[-93.7910237,45.2740024],[-93.7964885,45.2739467]],[[-93.7452775,45.2844103],[-93.7452717,45.2849591],[-93.7431558,45.2849366],[-93.7431616,45.2843877],[-93.7452775,45.2844103]],[[-93.8093471,45.2836623],[-93.8089002,45.2843386],[-93.8074495,45.2843296],[-93.8081259,45.2833845],[-93.8093471,45.2836623]],[[-93.8181448,45.2984882],[-93.8171066,45.2993683],[-93.8138669,45.2993117],[-93.8143307,45.2989763],[-93.8152445,45.2983592],[-93.8163009,45.2977395],[-93.8167364,45.2974475],[-93.8167394,45.2976623],[-93.8181448,45.2984882]],[[-93.765699,45.2813501],[-93.7657058,45.2843847],[-93.7656257,45.2843461],[-93.7649213,45.2839991],[-93.7647679,45.2839088],[-93.7645605,45.2837598],[-93.7644452,45.2836609],[-93.7642791,45.2834879],[-93.7640898,45.2832636],[-93.7637343,45.282839],[-93.7630227,45.2819685],[-93.7625315,45.2813372],[-93.765699,45.2813501]],[[-93.7706404,45.2904258],[-93.7706584,45.292484],[-93.7703086,45.2924834],[-93.770296,45.2910552],[-93.7688025,45.2905097],[-93.7672337,45.2900651],[-93.766686,45.2899257],[-93.766118,45.289804],[-93.7655086,45.2896855],[-93.7646974,45.2896209],[-93.7638228,45.2896559],[-93.7629199,45.289672],[-93.761738,45.2890208],[-93.7638216,45.2889835],[-93.7646773,45.2889972],[-93.7655521,45.2890794],[-93.7663018,45.2891606],[-93.7669823,45.2892773],[-93.76756,45.289407],[-93.7681941,45.2895787],[-93.7706404,45.2904258]]],[[[-93.7392003,45.2848146],[-93.7351486,45.2847737],[-93.7351081,45.2883981],[-93.7350272,45.2956469],[-93.7390826,45.2956805],[-93.739161,45.2884408],[-93.7392003,45.2848146]]]]}}]}