{"type":"FeatureCollection","name":"mounds_view_border","features":[{"type":"Feature","properties":{"GNIS_FEATURE_ID":2395118,"FEATURE_NAME":"mounds_view","CTU_CLASS":"CITY","COUNTY_GNIS_FEATURE_ID":659507,"COUNTY_CODE":"62","COUNTY_NAME":"Ramsey","POPULATION":12965,"SE_ANNO_CAD_DATA":null},"geometry":{"type":"Polygon","coordinates":[[[-93.1988766,45.1243772],[-93.2045949,45.1244094],[-93.209151,45.1244231],[-93.2250815,45.1244888],[-93.2278648,45.1245287],[-93.2277121,45.1162033],[-93.2229504,45.1134263],[-93.2229542,45.1117844],[-93.224853,45.1117279],[-93.2248271,45.1113656],[-93.2276434,45.1113551],[-93.2278144,45.1076944],[-93.2278095,45.107084],[-93.2276283,45.0932066],[-93.2086923,45.0935421],[-93.1984081,45.0935759],[-93.1982285,45.0863806],[-93.1882636,45.0864057],[-93.1883322,45.0936082],[-93.1884946,45.1080358],[-93.1886046,45.1185707],[-93.1987921,45.118618],[-93.1988766,45.1243772]]]}}]}