{"type":"FeatureCollection","name":"mound_border","features":[{"type":"Feature","properties":{"GNIS_FEATURE_ID":2395111,"FEATURE_NAME":"mound","CTU_CLASS":"CITY","COUNTY_GNIS_FEATURE_ID":659472,"COUNTY_CODE":"27","COUNTY_NAME":"Hennepin","POPULATION":9284,"SE_ANNO_CAD_DATA":null},"geometry":{"type":"Polygon","coordinates":[[[-93.6454168,44.9498932],[-93.6454895,44.9498433],[-93.6455869,44.949786],[-93.6457478,44.9496986],[-93.6461585,44.9494868],[-93.64632,44.9493997],[-93.6464375,44.9493303],[-93.6467443,44.9491375],[-93.6468616,44.9490687],[-93.6469829,44.949005],[-93.6470883,44.9489578],[-93.6472243,44.9489113],[-93.6473706,44.9488768],[-93.6474965,44.9488559],[-93.6476481,44.9488392],[-93.647773,44.9488322],[-93.6478999,44.9488334],[-93.648002,44.9488398],[-93.6481541,44.9488566],[-93.6483029,44.9488799],[-93.648498,44.9489174],[-93.6486917,44.94896],[-93.6491745,44.9490727],[-93.6493201,44.9491041],[-93.6494178,44.9491231],[-93.6495171,44.9491375],[-93.6497175,44.9491608],[-93.6498168,44.9491756],[-93.6502614,44.9492492],[-93.6506295,44.9493167],[-93.65075,44.9493444],[-93.6509392,44.9493967],[-93.651108,44.9494395],[-93.6511974,44.9494719],[-93.6512773,44.9495149],[-93.6513691,44.9495777],[-93.6514379,44.9496316],[-93.6515036,44.9496865],[-93.6515657,44.9497437],[-93.6517163,44.9498899],[-93.6517795,44.9499462],[-93.6518471,44.9499991],[-93.6519402,44.950059],[-93.6520406,44.9501133],[-93.6522952,44.9502337],[-93.6524195,44.9502964],[-93.6525799,44.9503846],[-93.653017,44.9506311],[-93.6531792,44.9507174],[-93.6533034,44.9507795],[-93.6534298,44.9508398],[-93.6535579,44.9508985],[-93.6537753,44.9509919],[-93.6539967,44.9510791],[-93.6541116,44.9511178],[-93.6542562,44.9511543],[-93.6544042,44.9511774],[-93.6545074,44.951184],[-93.6546107,44.9511807],[-93.6547073,44.9511641],[-93.6547992,44.9511325],[-93.6548829,44.9510877],[-93.654948,44.9510326],[-93.6550132,44.9509571],[-93.6550845,44.9508624],[-93.655151,44.9507647],[-93.6552798,44.9505668],[-93.6553473,44.9504696],[-93.6553975,44.9504064],[-93.6555025,44.9502811],[-93.655559,44.9502008],[-93.6555927,44.9501341],[-93.6556237,44.9500296],[-93.6556385,44.9499401],[-93.655657,44.9497587],[-93.655667,44.9496866],[-93.6556821,44.9496155],[-93.655699,44.9495634],[-93.6557228,44.9495126],[-93.6557643,44.9494467],[-93.6558329,44.9493492],[-93.6558756,44.9492836],[-93.655988,44.9491211],[-93.6560322,44.9490375],[-93.6560513,44.9489857],[-93.6560693,44.948915],[-93.6560813,44.9488432],[-93.6560969,44.9486988],[-93.6561026,44.9486269],[-93.6561056,44.9485187],[-93.6561029,44.9483928],[-93.6560859,44.9483404],[-93.656703,44.9475013],[-93.6567742,44.9474829],[-93.6569141,44.9474402],[-93.657098,44.9473772],[-93.6571689,44.9473584],[-93.6575662,44.9472935],[-93.6576923,44.9472761],[-93.6577933,44.9472642],[-93.6578943,44.9472547],[-93.6579699,44.9472496],[-93.6580704,44.9472458],[-93.6581952,44.9472469],[-93.6583196,44.9472546],[-93.6584688,44.947272],[-93.6585434,44.9472834],[-93.6586425,44.9473007],[-93.6588399,44.9473411],[-93.6591563,44.9474125],[-93.659409,44.947466],[-93.6595342,44.9474967],[-93.6596057,44.9475179],[-93.6596731,44.9475418],[-93.6597348,44.9475695],[-93.6598072,44.9476123],[-93.6598671,44.9476656],[-93.6599155,44.9477291],[-93.6599539,44.9477996],[-93.6599762,44.947855],[-93.6599936,44.9479111],[-93.6600065,44.9479661],[-93.6600151,44.9480358],[-93.659995,44.9481035],[-93.6599162,44.9482269],[-93.6598885,44.9483097],[-93.6598948,44.9484183],[-93.6598876,44.9485273],[-93.659908,44.9485969],[-93.659941,44.9486672],[-93.6599835,44.9487343],[-93.6600394,44.9487925],[-93.6601121,44.9488411],[-93.6601992,44.9488818],[-93.6602944,44.9489121],[-93.6603917,44.9489304],[-93.660515,44.9489448],[-93.6606155,44.9489524],[-93.6606916,44.9489565],[-93.6609983,44.9489676],[-93.6611788,44.9489761],[-93.6613662,44.9489756],[-93.6614558,44.9490162],[-93.6614198,44.9490793],[-93.6613496,44.9491389],[-93.6612686,44.9491862],[-93.6611889,44.9492064],[-93.6610943,44.9492149],[-93.6610198,44.9492159],[-93.6609429,44.9492131],[-93.6606279,44.9491884],[-93.660398,44.9491792],[-93.660324,44.9491686],[-93.6602039,44.9491404],[-93.6601093,44.9491129],[-93.6600172,44.949082],[-93.6599511,44.9490561],[-93.6598913,44.9490234],[-93.6598187,44.9489721],[-93.6597208,44.9489134],[-93.659666,44.948876],[-93.6596133,44.9488254],[-93.6595682,44.9487645],[-93.6594657,44.9486054],[-93.6594029,44.9485678],[-93.6593637,44.9486378],[-93.6593597,44.9486935],[-93.6593605,44.9487666],[-93.6593662,44.9488215],[-93.6593783,44.948875],[-93.6594073,44.9489422],[-93.6594435,44.9489889],[-93.6595502,44.9490923],[-93.659715,44.949274],[-93.659766,44.9493362],[-93.6598466,44.9494485],[-93.6599125,44.949527],[-93.6656166,44.9495438],[-93.6658265,44.9456472],[-93.6704457,44.9456603],[-93.6703981,44.9454706],[-93.6703833,44.9453994],[-93.6703745,44.9453278],[-93.6703589,44.9451112],[-93.6703566,44.9450389],[-93.670357,44.9449666],[-93.6703638,44.9448589],[-93.670377,44.9447701],[-93.6703992,44.9446818],[-93.6704235,44.9446117],[-93.6704677,44.9445075],[-93.6705179,44.944405],[-93.6705719,44.9443042],[-93.6706111,44.9442379],[-93.6706734,44.9441393],[-93.6710385,44.9435844],[-93.6710768,44.9435163],[-93.6711532,44.9433572],[-93.6711956,44.9432918],[-93.6712509,44.9432347],[-93.6713026,44.9431983],[-93.6713782,44.9431536],[-93.6714996,44.9430909],[-93.671585,44.9430518],[-93.6717181,44.9429965],[-93.6718553,44.9429447],[-93.6719944,44.9428956],[-93.672271,44.9428035],[-93.6724109,44.9427617],[-93.6725528,44.9427228],[-93.6726963,44.9426863],[-93.6728891,44.9426403],[-93.673373,44.9425315],[-93.6735192,44.9425015],[-93.6737153,44.9424641],[-93.6738631,44.9424381],[-93.6740607,44.9424062],[-93.6742598,44.9423762],[-93.6744102,44.9423559],[-93.6745611,44.9423403],[-93.6746618,44.9423336],[-93.6747625,44.9423309],[-93.6749136,44.9423336],[-93.6750145,44.9423388],[-93.6751659,44.9423504],[-93.6756697,44.9424013],[-93.6758201,44.9424215],[-93.6761201,44.9424669],[-93.6762201,44.9424797],[-93.6763452,44.9424911],[-93.6764704,44.942496],[-93.6766208,44.9424923],[-93.676721,44.9424859],[-93.6768213,44.9424772],[-93.6770219,44.9424544],[-93.6774236,44.9424028],[-93.6775746,44.9423867],[-93.6776754,44.9423783],[-93.6777763,44.942372],[-93.6779279,44.9423652],[-93.6780799,44.9423606],[-93.6785871,44.9423496],[-93.6790454,44.9423311],[-93.6791988,44.9423218],[-93.6792989,44.9423108],[-93.679372,44.9422987],[-93.6795127,44.9422634],[-93.6796264,44.9422249],[-93.6797152,44.9421894],[-93.6798022,44.9421506],[-93.6798872,44.9421094],[-93.6799703,44.9420666],[-93.6800912,44.9420009],[-93.6801694,44.9419553],[-93.6802461,44.9419082],[-93.680359,44.9418354],[-93.680656,44.9416375],[-93.6808074,44.9415415],[-93.6808849,44.9414954],[-93.6809642,44.9414512],[-93.6810879,44.9413889],[-93.6811745,44.9413508],[-93.6812638,44.9413153],[-93.6813552,44.9412825],[-93.6814951,44.9412386],[-93.681613,44.9412069],[-93.6817094,44.9411875],[-93.6818343,44.9411726],[-93.6820893,44.9411565],[-93.6822928,44.9411393],[-93.6823949,44.9411329],[-93.6824706,44.9411322],[-93.6825696,44.941139],[-93.6826656,44.941158],[-93.6829,44.9412312],[-93.6829958,44.9412551],[-93.6831187,44.9412764],[-93.6835175,44.9413316],[-93.6836403,44.9413535],[-93.683712,44.9413717],[-93.6839462,44.9414464],[-93.6840408,44.9414718],[-93.6841134,44.9414851],[-93.6841872,44.9414934],[-93.6842872,44.9415002],[-93.6844391,44.9415046],[-93.6845923,44.9415036],[-93.6847967,44.941496],[-93.684999,44.9414842],[-93.685149,44.9414681],[-93.685497,44.9414155],[-93.6855967,44.9414022],[-93.6857469,44.9413856],[-93.6859979,44.9413603],[-93.6859437,44.925547],[-93.6867425,44.9255491],[-93.6867459,44.9249137],[-93.6874434,44.924874],[-93.688195,44.9248483],[-93.6883709,44.924828],[-93.6885272,44.9247868],[-93.6926913,44.923543],[-93.6930898,44.9233846],[-93.6930929,44.9228022],[-93.6927446,44.9223305],[-93.6932066,44.9220745],[-93.6926157,44.9212774],[-93.6923488,44.9214277],[-93.6922709,44.9214737],[-93.692214,44.9215095],[-93.6920855,44.9215962],[-93.6919588,44.9216846],[-93.6918519,44.9217617],[-93.6917471,44.9218401],[-93.6916195,44.9219401],[-93.6915298,44.9220158],[-93.6914553,44.9220895],[-93.6913291,44.9222271],[-93.6912717,44.922287],[-93.6912028,44.922351],[-93.6911398,44.9224003],[-93.6910423,44.9224623],[-93.6909323,44.9225224],[-93.690827,44.9225734],[-93.6907178,44.922621],[-93.6906057,44.9226655],[-93.6904688,44.9227146],[-93.6903193,44.9227631],[-93.6902142,44.9227936],[-93.6900953,44.9228247],[-93.6899504,44.9228584],[-93.6898036,44.9228887],[-93.6896557,44.9229162],[-93.6894704,44.9229473],[-93.689222,44.922985],[-93.6890713,44.9230049],[-93.6889199,44.9230213],[-93.6887936,44.9230312],[-93.6886548,44.9230374],[-93.6885416,44.9230381],[-93.6884664,44.9230362],[-93.6883912,44.9230323],[-93.6882784,44.9230237],[-93.6881281,44.9230078],[-93.6880029,44.9229919],[-93.6876523,44.9229439],[-93.687502,44.9229258],[-93.6869019,44.9228004],[-93.6866117,44.9227363],[-93.686516,44.9227118],[-93.6863035,44.9226493],[-93.6862087,44.9226236],[-93.6861128,44.9226025],[-93.6860395,44.9225925],[-93.6859644,44.9225912],[-93.6858364,44.922601],[-93.6857599,44.9226031],[-93.6856343,44.9225936],[-93.6854075,44.9225703],[-93.6852068,44.9225447],[-93.6850338,44.9225168],[-93.6849366,44.922498],[-93.6848642,44.9224822],[-93.6847638,44.9224552],[-93.6846658,44.9224216],[-93.6845539,44.9223649],[-93.6845078,44.9222968],[-93.6845528,44.9221978],[-93.6845327,44.9221459],[-93.6844714,44.922105],[-93.6843912,44.9220702],[-93.684291,44.9220393],[-93.6841689,44.9220187],[-93.6840683,44.9220176],[-93.683812,44.9220401],[-93.6837587,44.9220748],[-93.6836896,44.9221725],[-93.6836391,44.9222114],[-93.6835794,44.9222462],[-93.683492,44.9222856],[-93.6833994,44.9223139],[-93.6833013,44.9223333],[-93.6832244,44.9223437],[-93.6831468,44.9223497],[-93.6830704,44.9223505],[-93.6829971,44.9223446],[-93.6829025,44.9223228],[-93.6828114,44.9222874],[-93.6827469,44.9222558],[-93.6826465,44.9222008],[-93.6825688,44.9221535],[-93.682476,44.9220908],[-93.6823896,44.9220252],[-93.6823288,44.9219578],[-93.6823254,44.9218779],[-93.6823761,44.9217845],[-93.6823841,44.9217221],[-93.682374,44.9216302],[-93.6823769,44.9215768],[-93.6823955,44.9215261],[-93.6824245,44.9214764],[-93.6824719,44.9214115],[-93.6825269,44.9213493],[-93.6825868,44.9212914],[-93.6826609,44.9212441],[-93.682771,44.9211965],[-93.683067,44.9210575],[-93.6832394,44.9209817],[-93.6834389,44.9209032],[-93.6837321,44.9207958],[-93.6838419,44.9207514],[-93.683927,44.9207019],[-93.681695,44.920653],[-93.6815844,44.9207308],[-93.6814891,44.9207502],[-93.6812906,44.9207838],[-93.6811894,44.9207974],[-93.6810877,44.9208077],[-93.6809861,44.9208139],[-93.6808852,44.9208152],[-93.6807852,44.920811],[-93.6806852,44.9208027],[-93.6805853,44.9207912],[-93.6804854,44.9207772],[-93.680086,44.9207129],[-93.6799862,44.9206988],[-93.6798863,44.920687],[-93.6797864,44.9206786],[-93.6796863,44.9206741],[-93.6795846,44.9206742],[-93.6794818,44.9206792],[-93.6793792,44.920689],[-93.6792782,44.9207037],[-93.6791801,44.9207234],[-93.6790861,44.9207481],[-93.6789961,44.9207781],[-93.6789084,44.9208126],[-93.6788227,44.9208508],[-93.6787385,44.9208917],[-93.6784074,44.9210633],[-93.6782282,44.9211438],[-93.678157,44.9211918],[-93.6781232,44.9212548],[-93.6781156,44.9213306],[-93.6781295,44.9214059],[-93.6781691,44.9214672],[-93.6782525,44.9215133],[-93.6783252,44.9215644],[-93.6783591,44.9216323],[-93.6783723,44.9217049],[-93.6783658,44.9217819],[-93.6782953,44.9218266],[-93.6781944,44.9218573],[-93.6780942,44.92186],[-93.6780018,44.9218397],[-93.6779098,44.9218113],[-93.6778183,44.9217773],[-93.6776376,44.9217032],[-93.6774551,44.921632],[-93.6773825,44.9215847],[-93.6773484,44.9215153],[-93.677332,44.9214369],[-93.6773001,44.9213782],[-93.6771971,44.921396],[-93.6771421,44.9214534],[-93.6770715,44.9215921],[-93.6770038,44.9217323],[-93.6769609,44.9217971],[-93.6768995,44.9218508],[-93.6768256,44.9218987],[-93.6767447,44.9219434],[-93.6766586,44.9219845],[-93.6765688,44.9220216],[-93.6764771,44.9220542],[-93.6763847,44.9220817],[-93.6762891,44.9221027],[-93.6761897,44.9221178],[-93.676088,44.9221282],[-93.6758836,44.922141],[-93.6757828,44.9221444],[-93.6756817,44.9221428],[-93.6753774,44.9221284],[-93.6752755,44.9221281],[-93.6751717,44.9221331],[-93.6749622,44.9221482],[-93.6748591,44.9221526],[-93.6747587,44.9221512],[-93.6746624,44.922141],[-93.6745714,44.9221194],[-93.6744858,44.9220866],[-93.6744043,44.9220453],[-93.6743257,44.9219982],[-93.6741712,44.921897],[-93.6740925,44.9218483],[-93.6740112,44.9218045],[-93.6739244,44.9217676],[-93.6738224,44.9217364],[-93.673717,44.9217209],[-93.6736252,44.9217339],[-93.6735469,44.9217697],[-93.6734732,44.9218161],[-93.6734024,44.9218695],[-93.6732628,44.9219834],[-93.6731905,44.922037],[-93.6731151,44.9220854],[-93.6729606,44.9221786],[-93.6726455,44.9223601],[-93.6725632,44.9224033],[-93.6724643,44.9224145],[-93.6722627,44.9224324],[-93.672161,44.9224389],[-93.6720593,44.9224432],[-93.6719578,44.9224452],[-93.6718566,44.9224434],[-93.6717533,44.9224313],[-93.6715458,44.9223951],[-93.6714456,44.9223841],[-93.6713504,44.9223863],[-93.6712615,44.9224068],[-93.6711773,44.9224407],[-93.6710967,44.9224845],[-93.6710189,44.9225348],[-93.6708688,44.9226419],[-93.6707948,44.9226922],[-93.6706434,44.922791],[-93.6705692,44.9228419],[-93.6704989,44.9228946],[-93.6704347,44.9229499],[-93.6703785,44.9230083],[-93.6703301,44.9230703],[-93.6702855,44.9231355],[-93.6702453,44.9232032],[-93.6702106,44.9232728],[-93.6701823,44.9233435],[-93.6701612,44.9234147],[-93.6701483,44.9234857],[-93.6701437,44.9235563],[-93.6701441,44.9236272],[-93.6701488,44.9236984],[-93.670157,44.9237699],[-93.6701682,44.9238417],[-93.6701971,44.9239856],[-93.6703123,44.924486],[-93.6703679,44.9246984],[-93.6705271,44.9252635],[-93.6707928,44.9261804],[-93.6709184,44.9266034],[-93.6709791,44.9268151],[-93.671017,44.9269566],[-93.6710687,44.9271699],[-93.6710841,44.9272419],[-93.6710965,44.927314],[-93.671104,44.927386],[-93.6711051,44.9274575],[-93.671098,44.9275283],[-93.6710806,44.9275988],[-93.6710548,44.9276689],[-93.6710231,44.9277383],[-93.6709878,44.9278066],[-93.6709127,44.9279406],[-93.6708715,44.9280069],[-93.670827,44.9280721],[-93.6707787,44.9281356],[-93.670726,44.9281968],[-93.6706683,44.9282553],[-93.6706054,44.9283116],[-93.6705385,44.928366],[-93.6704688,44.9284189],[-93.6703256,44.9285217],[-93.6701811,44.928623],[-93.6700322,44.9287213],[-93.6699554,44.9287685],[-93.6698766,44.9288136],[-93.6697134,44.9288987],[-93.669545,44.9289799],[-93.6694589,44.9290186],[-93.6693716,44.9290556],[-93.669283,44.9290908],[-93.6691931,44.9291238],[-93.6691018,44.9291544],[-93.669009,44.9291826],[-93.6688197,44.9292335],[-93.6684344,44.9293257],[-93.6682429,44.9293738],[-93.6677708,44.929505],[-93.6666411,44.9298258],[-93.6661686,44.9299559],[-93.6660729,44.9299796],[-93.6656858,44.9300657],[-93.6655904,44.9300901],[-93.6653062,44.9301688],[-93.6652106,44.9301923],[-93.6651136,44.9302121],[-93.6650148,44.9302267],[-93.6649145,44.9302369],[-93.6647122,44.9302526],[-93.6646116,44.9302626],[-93.6645122,44.9302765],[-93.6644136,44.9302937],[-93.6641191,44.9303501],[-93.6640204,44.9303656],[-93.6639209,44.930377],[-93.6638202,44.9303816],[-93.6635151,44.9303786],[-93.6632717,44.9303674],[-93.6630437,44.9303591],[-93.6629423,44.9303561],[-93.662841,44.9303551],[-93.6627147,44.9303591],[-93.6624878,44.9303777],[-93.6623868,44.9303838],[-93.6621583,44.9303894],[-93.6620311,44.9303907],[-93.6619043,44.9303889],[-93.6618034,44.9303844],[-93.6617034,44.9303759],[-93.6616045,44.9303612],[-93.6613594,44.9303128],[-93.6612358,44.9302924],[-93.661086,44.9302744],[-93.660835,44.9302487],[-93.6607099,44.9302343],[-93.6603615,44.9301866],[-93.6600139,44.9301358],[-93.6597662,44.9300976],[-93.6594944,44.9300537],[-93.6585328,44.9298899],[-93.6581377,44.9298254],[-93.6578901,44.9297876],[-93.6577407,44.9297665],[-93.657615,44.9297511],[-93.6574888,44.9297389],[-93.6573624,44.9297311],[-93.6572365,44.9297289],[-93.6571111,44.9297346],[-93.6569859,44.9297486],[-93.6566361,44.9297984],[-93.6563871,44.9298415],[-93.6562875,44.9298566],[-93.6561631,44.9298678],[-93.6560134,44.929866],[-93.6558885,44.9298548],[-93.6557635,44.9298377],[-93.6552912,44.9297609],[-93.6547741,44.9296691],[-93.6546258,44.9296461],[-93.6545015,44.9296304],[-93.6543758,44.9296223],[-93.6540707,44.9296209],[-93.6539051,44.9295748],[-93.6534516,44.9294548],[-93.653311,44.9294137],[-93.6532075,44.9293804],[-93.653073,44.9293318],[-93.6529311,44.929273],[-93.6527812,44.929203],[-93.6526573,44.9291378],[-93.6525585,44.9290799],[-93.652456,44.9290125],[-93.6524032,44.9289743],[-93.6523528,44.9289349],[-93.6522838,44.9288721],[-93.652222,44.9288049],[-93.6521777,44.9287503],[-93.6521299,44.9286862],[-93.6520028,44.9285069],[-93.6519426,44.9284287],[-93.6519065,44.9283635],[-93.6518651,44.9283192],[-93.6517765,44.9282557],[-93.6515867,44.9281349],[-93.6515145,44.9280844],[-93.651446,44.9280303],[-93.6513984,44.9279864],[-93.6513529,44.9279226],[-93.6513344,44.9278712],[-93.6513058,44.927766],[-93.6512827,44.9276593],[-93.651264,44.9275514],[-93.651244,44.927407],[-93.6512199,44.9271912],[-93.6512117,44.9270833],[-93.6512059,44.9269391],[-93.6512067,44.926759],[-93.6512159,44.9265792],[-93.651234,44.9263635],[-93.6512575,44.926148],[-93.6513044,44.9257894],[-93.6513233,44.9256821],[-93.6513947,44.9253252],[-93.6514108,44.9252179],[-93.6514184,44.9251463],[-93.6514216,44.9250745],[-93.6514202,44.9250026],[-93.6514019,44.9247504],[-93.6513994,44.9246423],[-93.6514127,44.9243177],[-93.6514228,44.9241371],[-93.6514351,44.923993],[-93.6514531,44.9238497],[-93.6514786,44.9237074],[-93.6515041,44.9236015],[-93.6515369,44.9234959],[-93.6515761,44.9233909],[-93.6516372,44.9232524],[-93.6517061,44.9231162],[-93.6517921,44.9229673],[-93.6518455,44.922907],[-93.6519965,44.9227828],[-93.6521598,44.9226448],[-93.6522288,44.922592],[-93.6523383,44.9225169],[-93.6524516,44.9224431],[-93.6525503,44.9223862],[-93.6526547,44.9223367],[-93.6527446,44.9223037],[-93.6528649,44.9222706],[-93.6529641,44.9222517],[-93.6530634,44.9222412],[-93.6531628,44.922242],[-93.6532381,44.922249],[-93.65339,44.922269],[-93.653466,44.922276],[-93.6536948,44.9222827],[-93.6537972,44.9222836],[-93.653899,44.9222819],[-93.654,44.9222765],[-93.6540993,44.9222662],[-93.6541975,44.9222506],[-93.6543195,44.9222249],[-93.6544397,44.9221936],[-93.6545337,44.9221649],[-93.6546698,44.9221171],[-93.6547557,44.92208],[-93.6548379,44.9220378],[-93.6549175,44.9219924],[-93.65515,44.921852],[-93.6556404,44.9215393],[-93.6559494,44.9213512],[-93.6560284,44.9213055],[-93.6561092,44.921262],[-93.6561926,44.9212218],[-93.6562575,44.921195],[-93.6563255,44.9211721],[-93.6564209,44.9211474],[-93.6566166,44.921105],[-93.6567126,44.9210816],[-93.6570476,44.9209955],[-93.657144,44.9209731],[-93.6572412,44.9209531],[-93.6573639,44.920933],[-93.6575386,44.9209147],[-93.6576904,44.9209059],[-93.6579957,44.9208947],[-93.658097,44.9208895],[-93.6582479,44.9208774],[-93.6583472,44.9208652],[-93.6584453,44.9208486],[-93.6585425,44.9208285],[-93.6586389,44.9208059],[-93.658975,44.9207224],[-93.6594096,44.9206239],[-93.6596781,44.9205678],[-93.6597709,44.9205403],[-93.6598799,44.9204954],[-93.659963,44.9204536],[-93.6601864,44.9203308],[-93.6602525,44.9202778],[-93.6602919,44.9202099],[-93.660292,44.9201379],[-93.6602519,44.9200546],[-93.6602125,44.9199883],[-93.6601683,44.9199225],[-93.6601203,44.9198577],[-93.6600693,44.9197943],[-93.6600161,44.9197328],[-93.6599314,44.9196437],[-93.65981,44.9195283],[-93.6594936,44.919246],[-93.6593602,44.9191366],[-93.6592965,44.9190806],[-93.6592536,44.9190364],[-93.6591884,44.9189592],[-93.6591163,44.9188626],[-93.6590656,44.9187794],[-93.6590214,44.9186772],[-93.6589968,44.9185711],[-93.658988,44.9184804],[-93.6589888,44.9183712],[-93.6589972,44.9182817],[-93.6590163,44.918193],[-93.6590509,44.9180872],[-93.6591035,44.9179476],[-93.6591334,44.9178789],[-93.6592299,44.9176739],[-93.6592569,44.9176042],[-93.6593054,44.9174632],[-93.6593343,44.9173943],[-93.6593614,44.9173443],[-93.6593936,44.9172961],[-93.6594435,44.917234],[-93.6594988,44.9171736],[-93.6595575,44.9171145],[-93.6597224,44.9169537],[-93.6586735,44.9168083],[-93.6583072,44.9171084],[-93.6575967,44.9168411],[-93.6574336,44.9169872],[-93.6555574,44.9169641],[-93.652472,44.9170034],[-93.6523612,44.9170318],[-93.6520675,44.9171001],[-93.6519717,44.9171247],[-93.6518793,44.9171521],[-93.6517919,44.9171836],[-93.6517241,44.9172368],[-93.6516904,44.9173081],[-93.6516945,44.9173792],[-93.6517151,44.9174528],[-93.6517107,44.9175227],[-93.6516776,44.9175909],[-93.6516308,44.9176575],[-93.6515722,44.9177178],[-93.6515031,44.917768],[-93.651421,44.9178106],[-93.6513299,44.9178462],[-93.6512348,44.9178748],[-93.6511391,44.9178958],[-93.6510402,44.9179093],[-93.6508373,44.9179262],[-93.6507362,44.917936],[-93.6505336,44.9179602],[-93.650436,44.9179793],[-93.650348,44.9180125],[-93.6502645,44.9180521],[-93.6501832,44.918095],[-93.6499445,44.9182313],[-93.6498638,44.9182757],[-93.6497812,44.9183176],[-93.6496958,44.9183559],[-93.6495191,44.9184266],[-93.6493387,44.9184947],[-93.6491548,44.9185581],[-93.6490616,44.9185874],[-93.6489676,44.9186148],[-93.6488728,44.9186399],[-93.6487773,44.9186626],[-93.6486809,44.9186824],[-93.6485834,44.9186992],[-93.6484847,44.9187131],[-93.6483849,44.9187245],[-93.6482844,44.918734],[-93.6480816,44.9187486],[-93.6477763,44.9187666],[-93.6472711,44.9188015],[-93.6465631,44.9188426],[-93.6462608,44.9188649],[-93.6460602,44.9188836],[-93.6458605,44.9189066],[-93.6456618,44.9189343],[-93.6454407,44.91897],[-93.6451685,44.9190184],[-93.6446784,44.9191114],[-93.644584,44.9191391],[-93.6444904,44.9191684],[-93.644394,44.919188],[-93.6442942,44.9191975],[-93.6440924,44.9192111],[-93.6439907,44.9192153],[-93.6437872,44.919219],[-93.6431738,44.9192141],[-93.6429683,44.9192098],[-93.6428663,44.9192055],[-93.6427651,44.9191991],[-93.642665,44.9191902],[-93.6425661,44.9191784],[-93.6424689,44.9191633],[-93.6423734,44.9191444],[-93.6422801,44.9191205],[-93.6421888,44.919092],[-93.6420992,44.9190597],[-93.6420108,44.9190242],[-93.6419235,44.9189865],[-93.6415763,44.918829],[-93.6414883,44.9187919],[-93.6413991,44.9187573],[-93.6413076,44.9187258],[-93.6412101,44.9186985],[-93.6411101,44.9186801],[-93.6410122,44.9186755],[-93.6409143,44.9186907],[-93.6408186,44.9187222],[-93.6407335,44.9187624],[-93.640663,44.9188131],[-93.6406039,44.9188735],[-93.6405528,44.9189362],[-93.6404573,44.9190633],[-93.6401862,44.9194516],[-93.6400927,44.9195795],[-93.6399933,44.9197046],[-93.6399407,44.9197658],[-93.6398856,44.9198258],[-93.6398278,44.9198845],[-93.6397675,44.9199422],[-93.639705,44.9199988],[-93.6395749,44.9201095],[-93.6394401,44.9202179],[-93.6391674,44.9204321],[-93.638965,44.920595],[-93.6388276,44.9207022],[-93.6386855,44.9208053],[-93.6386119,44.9208545],[-93.6385363,44.9209017],[-93.6384584,44.9209465],[-93.6383767,44.9209882],[-93.6382913,44.9210267],[-93.6382028,44.9210624],[-93.638112,44.9210958],[-93.6380196,44.9211273],[-93.637833,44.921186],[-93.6377396,44.9212131],[-93.6376392,44.9212276],[-93.6375358,44.9212362],[-93.6374377,44.9212516],[-93.6373515,44.9212847],[-93.6372748,44.9213325],[-93.6372052,44.9213875],[-93.6370737,44.9214996],[-93.6370104,44.9215578],[-93.6369563,44.921619],[-93.6369177,44.921684],[-93.6368923,44.9217522],[-93.6368739,44.9218223],[-93.6368606,44.9218938],[-93.6368334,44.9221116],[-93.6368226,44.9221837],[-93.6367965,44.9223268],[-93.6367909,44.9223985],[-93.6367915,44.9224704],[-93.6368001,44.9226144],[-93.636812,44.9227584],[-93.6368358,44.9229032],[-93.6368452,44.9229754],[-93.636847,44.9230468],[-93.6368367,44.9231172],[-93.6368157,44.9231867],[-93.6367869,44.9232557],[-93.6367526,44.9233242],[-93.6365638,44.9236604],[-93.6364854,44.9237937],[-93.6364444,44.9238597],[-93.636357,44.9239895],[-93.63631,44.9240531],[-93.63626,44.9241154],[-93.6362066,44.9241765],[-93.6361504,44.9242364],[-93.6360321,44.9243539],[-93.63585,44.9245274],[-93.6356695,44.9247027],[-93.6356077,44.9247602],[-93.635544,44.9248163],[-93.6354778,44.9248707],[-93.6354086,44.9249228],[-93.6353359,44.9249723],[-93.6352608,44.9250203],[-93.6351836,44.925067],[-93.6350238,44.9251567],[-93.6349417,44.9251997],[-93.6347745,44.9252823],[-93.6346046,44.9253605],[-93.6345169,44.9253957],[-93.634425,44.9254259],[-93.6343305,44.9254527],[-93.6340437,44.9255278],[-93.6339453,44.9255449],[-93.6338424,44.9255492],[-93.6337498,44.9255223],[-93.6336575,44.9254907],[-93.6335667,44.9254561],[-93.6334795,44.9254183],[-93.6333982,44.9253771],[-93.633341,44.9253199],[-93.6332979,44.9252524],[-93.6331827,44.9251315],[-93.6331399,44.925068],[-93.6331361,44.9249967],[-93.6331403,44.9249232],[-93.6331115,44.9248551],[-93.6330727,44.9247885],[-93.6329877,44.9246563],[-93.6329507,44.9245893],[-93.6329256,44.9245205],[-93.6329219,44.9244481],[-93.6329268,44.9243755],[-93.6329466,44.9243048],[-93.6329586,44.924233],[-93.6329625,44.9241608],[-93.6329421,44.924091],[-93.6329006,44.9240238],[-93.6328551,44.9239557],[-93.6327842,44.9239132],[-93.6326779,44.9239176],[-93.6325973,44.9239639],[-93.6325675,44.9240302],[-93.6325628,44.9241765],[-93.6325615,44.9243207],[-93.6325571,44.9243926],[-93.6325407,44.9244634],[-93.6325174,44.9245337],[-93.6325009,44.9246054],[-93.6324932,44.9246772],[-93.6325144,44.9247464],[-93.6325535,44.9248139],[-93.6326211,44.92495],[-93.6326606,44.9250161],[-93.6327128,44.9250776],[-93.6327703,44.9251372],[-93.6328229,44.9252],[-93.6328873,44.925254],[-93.6329788,44.9252871],[-93.6330561,44.9253308],[-93.6331073,44.9253941],[-93.6331665,44.9254531],[-93.6332298,44.9255096],[-93.6333043,44.9255575],[-93.6333852,44.9256009],[-93.6334695,44.9256415],[-93.6335555,44.9256802],[-93.6336435,44.9257156],[-93.6339183,44.9258083],[-93.6340837,44.9258917],[-93.6342551,44.925969],[-93.6343337,44.9260155],[-93.6344102,44.9260652],[-93.6344724,44.926121],[-93.6345166,44.9261849],[-93.6345518,44.9262543],[-93.6345749,44.9263261],[-93.6345825,44.9263973],[-93.6345739,44.9264674],[-93.6345534,44.9265378],[-93.6344973,44.9266786],[-93.6344715,44.9267487],[-93.6344051,44.9269605],[-93.6343802,44.9270305],[-93.6343511,44.9270992],[-93.6343161,44.9271663],[-93.6342754,44.9272318],[-93.6342304,44.9272962],[-93.6341823,44.9273597],[-93.6339263,44.9276718],[-93.633821,44.9277952],[-93.6337658,44.9278557],[-93.6337082,44.9279148],[-93.6336477,44.9279723],[-93.6335842,44.9280283],[-93.633451,44.9281368],[-93.6331088,44.9284031],[-93.6328331,44.9286145],[-93.6326983,44.928722],[-93.6325683,44.9288325],[-93.6324404,44.9289443],[-93.6323146,44.9290574],[-93.6321914,44.9291719],[-93.6320715,44.929288],[-93.6319553,44.9294059],[-93.6318421,44.9295254],[-93.6316771,44.929707],[-93.6315167,44.9298908],[-93.63136,44.930076],[-93.6313081,44.9301389],[-93.6312587,44.9302028],[-93.6312141,44.9302677],[-93.6311767,44.9303337],[-93.6311546,44.9304024],[-93.6311577,44.9304756],[-93.6311703,44.930548],[-93.6311916,44.9306184],[-93.6312175,44.9306885],[-93.6312367,44.9307591],[-93.6312438,44.9308306],[-93.6312449,44.9309028],[-93.631241,44.9309751],[-93.6312328,44.931047],[-93.6312205,44.9311183],[-93.6312048,44.9311894],[-93.6311504,44.9314022],[-93.631089,44.931687],[-93.6310749,44.9317585],[-93.6310544,44.9319041],[-93.6310336,44.9319731],[-93.6309797,44.9320311],[-93.6308974,44.932077],[-93.6308137,44.9321176],[-93.6307264,44.9321571],[-93.6306693,44.9322027],[-93.6307249,44.9322662],[-93.630805,44.9323103],[-93.6309091,44.9323169],[-93.6310106,44.9323141],[-93.6309669,44.9324014],[-93.6309258,44.9324535],[-93.6308546,44.9325077],[-93.6307864,44.9325486],[-93.6306473,44.9326161],[-93.6305992,44.932664],[-93.6305468,44.9328003],[-93.6305988,44.9329214],[-93.6309504,44.9328702],[-93.6310505,44.9328586],[-93.6311495,44.9328441],[-93.6313955,44.9328009],[-93.6315913,44.9327626],[-93.6317855,44.9327207],[-93.6319778,44.9326752],[-93.6321684,44.9326262],[-93.6324046,44.9325609],[-93.632639,44.9324919],[-93.6329178,44.9324054],[-93.6330098,44.9323743],[-93.6331468,44.9323246],[-93.6335093,44.9321856],[-93.6336455,44.932135],[-93.6337825,44.9320875],[-93.6339208,44.9320445],[-93.6340608,44.9320075],[-93.6341553,44.9319868],[-93.634227,44.931974],[-93.6343244,44.9319625],[-93.6344487,44.9319566],[-93.6345499,44.9319578],[-93.6346522,44.9319629],[-93.6347551,44.9319707],[-93.6350638,44.9320002],[-93.6351653,44.9320084],[-93.6355723,44.9320326],[-93.6357252,44.9320431],[-93.6358265,44.9320517],[-93.6359271,44.9320621],[-93.6360266,44.9320747],[-93.6361249,44.9320899],[-93.6362217,44.9321082],[-93.6363399,44.9321371],[-93.6364542,44.9321746],[-93.6365875,44.9322284],[-93.6368493,44.9323464],[-93.6369374,44.9323838],[-93.6370267,44.9324181],[-93.6371181,44.9324477],[-93.637212,44.9324714],[-93.6373083,44.9324897],[-93.6374061,44.9325056],[-93.637505,44.9325194],[-93.6376049,44.9325312],[-93.6378071,44.9325494],[-93.6379601,44.9325591],[-93.638165,44.9325674],[-93.6383695,44.9325719],[-93.6386229,44.9325735],[-93.6387239,44.9325721],[-93.6388755,44.9325668],[-93.6390273,44.9325582],[-93.639179,44.9325467],[-93.6393304,44.9325328],[-93.6395318,44.9325115],[-93.6397821,44.9324818],[-93.6399313,44.9324614],[-93.6401786,44.932421],[-93.6406219,44.9323399],[-93.6408191,44.9323055],[-93.6409673,44.9322821],[-93.6411161,44.9322617],[-93.6412656,44.9322454],[-93.6414173,44.9322345],[-93.6415706,44.9322297],[-93.641673,44.9322299],[-93.641775,44.932233],[-93.6418764,44.9322391],[-93.6420262,44.9322539],[-93.642125,44.9322674],[-93.6422235,44.9322831],[-93.6423217,44.9323011],[-93.6424683,44.9323315],[-93.6425654,44.9323537],[-93.6427101,44.9323894],[-93.6428533,44.9324272],[-93.6430419,44.9324797],[-93.643182,44.9325214],[-93.6433212,44.932565],[-93.643597,44.932657],[-93.6439143,44.9327706],[-93.6442739,44.9329057],[-93.6444509,44.9329781],[-93.6445788,44.9330367],[-93.6447004,44.9331005],[-93.6449753,44.9332661],[-93.6450531,44.9333163],[-93.6451279,44.9333683],[-93.6452149,44.933436],[-93.6452925,44.9335071],[-93.6453328,44.9335517],[-93.6453787,44.9336134],[-93.645425,44.933694],[-93.6454741,44.9337944],[-93.6455036,44.9338633],[-93.6455304,44.9339333],[-93.6455545,44.9340044],[-93.645576,44.9340763],[-93.6455949,44.9341489],[-93.6456112,44.9342219],[-93.6456247,44.9342951],[-93.6456356,44.9343683],[-93.6456439,44.9344414],[-93.6456495,44.9345141],[-93.6456524,44.9345863],[-93.6456526,44.9346576],[-93.6456477,44.9347455],[-93.6456321,44.9348328],[-93.6456122,44.9349023],[-93.6455726,44.9350063],[-93.645525,44.9351099],[-93.6453872,44.9353865],[-93.6453564,44.935456],[-93.6453293,44.9355258],[-93.645307,44.9355961],[-93.6452895,44.9356672],[-93.6452753,44.9357389],[-93.6452389,44.9359551],[-93.6452242,44.9360265],[-93.6451949,44.9361318],[-93.6451605,44.9362172],[-93.6451336,44.9362669],[-93.6450895,44.9363312],[-93.6450393,44.9363939],[-93.6449055,44.936549],[-93.6448452,44.9366286],[-93.6447286,44.9368084],[-93.644626,44.936973],[-93.6442434,44.9376753],[-93.6443195,44.9378295],[-93.6443654,44.9379325],[-93.6445055,44.9382788],[-93.6445412,44.9384075],[-93.6445804,44.9384851],[-93.6446802,44.9385692],[-93.6447349,44.9386049],[-93.6448214,44.9386564],[-93.6449532,44.9387273],[-93.6452692,44.9388852],[-93.6453921,44.9389501],[-93.6453995,44.9432503],[-93.6452932,44.9431102],[-93.6449921,44.942693],[-93.6449434,44.9426299],[-93.6448747,44.9425549],[-93.6448073,44.9425001],[-93.6447289,44.9424543],[-93.6446622,44.9424302],[-93.6445398,44.9424025],[-93.6444337,44.9423547],[-93.6443532,44.9423112],[-93.6440384,44.9421284],[-93.6439583,44.9420841],[-93.6438763,44.9420419],[-93.6437911,44.9420032],[-93.6437031,44.9419674],[-93.6435247,44.9418982],[-93.6433948,44.941842],[-93.6432255,44.9417614],[-93.6428063,44.9415541],[-93.6426793,44.9414952],[-93.6425937,44.9414579],[-93.6424402,44.9414016],[-93.6423377,44.9414034],[-93.6422359,44.9414054],[-93.6421495,44.9413695],[-93.642086,44.9413128],[-93.6420078,44.9411793],[-93.6419234,44.9410685],[-93.6417245,44.9408173],[-93.6416298,44.94069],[-93.6415652,44.9405916],[-93.6414248,44.9403577],[-93.6413594,44.940261],[-93.6412934,44.9401846],[-93.6411932,44.9401412],[-93.6410988,44.9401879],[-93.6410838,44.9402875],[-93.6411749,44.9404085],[-93.6412113,44.9404793],[-93.641234,44.9405362],[-93.6412188,44.9406121],[-93.6411178,44.940597],[-93.6410323,44.9405431],[-93.6409045,44.9405481],[-93.6408165,44.9405872],[-93.6407582,44.9406215],[-93.6406079,44.9407195],[-93.6404644,44.9407954],[-93.6403761,44.9408296],[-93.6402779,44.9408462],[-93.640176,44.9408438],[-93.6401019,44.9408332],[-93.6399294,44.9408011],[-93.6398541,44.9407942],[-93.6397004,44.940794],[-93.6396256,44.940789],[-93.6395545,44.9407727],[-93.6394425,44.9407283],[-93.6393341,44.9407276],[-93.6392761,44.94079],[-93.6392756,44.9408444],[-93.6392862,44.9408987],[-93.6393106,44.9409499],[-93.6393634,44.9410313],[-93.6394107,44.9410953],[-93.6394612,44.9411582],[-93.6395142,44.9412198],[-93.6395968,44.9413104],[-93.6396822,44.9413997],[-93.6398884,44.9416051],[-93.640009,44.9417209],[-93.6403515,44.942034],[-93.6404407,44.9421213],[-93.6404976,44.9421807],[-93.6405519,44.9422414],[-93.6406293,44.9423343],[-93.6408265,44.9425864],[-93.6409287,44.942711],[-93.6410763,44.9429048],[-93.6411307,44.9429659],[-93.6411761,44.9430081],[-93.6412443,44.9430588],[-93.6413611,44.9431245],[-93.641467,44.9431734],[-93.6416015,44.9432265],[-93.641787,44.9432908],[-93.6419722,44.9433512],[-93.6420658,44.9433784],[-93.642209,44.9434154],[-93.6424985,44.9434846],[-93.6426414,44.9435217],[-93.642781,44.9435638],[-93.6428714,44.9435956],[-93.64296,44.9436301],[-93.64309,44.9436859],[-93.643472,44.943865],[-93.6437299,44.9439802],[-93.6438109,44.9440232],[-93.6439288,44.9440926],[-93.6440179,44.9441567],[-93.6441537,44.9442861],[-93.6442664,44.9444065],[-93.6443711,44.9445305],[-93.6444199,44.9445936],[-93.6444661,44.9446574],[-93.6445092,44.9447224],[-93.6445694,44.9448215],[-93.6447362,44.9451238],[-93.6449482,44.9454903],[-93.6450408,44.9456579],[-93.6450931,44.9457593],[-93.6451415,44.9458616],[-93.6453303,44.9462913],[-93.6453669,44.9463384],[-93.6453553,44.9497222],[-93.6449413,44.9500252],[-93.644841,44.9501066],[-93.6447492,44.950148],[-93.6446766,44.9501895],[-93.6446908,44.9502407],[-93.6447852,44.9502653],[-93.6449833,44.950196],[-93.6450639,44.9501525],[-93.6451188,44.9501153],[-93.6453418,44.949951],[-93.6454168,44.9498932]]]}}]}