{"type":"FeatureCollection","name":"new_trier_border","features":[{"type":"Feature","properties":{"GNIS_FEATURE_ID":2395216,"FEATURE_NAME":"new_trier","CTU_CLASS":"CITY","COUNTY_GNIS_FEATURE_ID":659464,"COUNTY_CODE":"19","COUNTY_NAME":"Dakota","POPULATION":85,"SE_ANNO_CAD_DATA":null},"geometry":{"type":"Polygon","coordinates":[[[-92.9381912,44.6025722],[-92.9381931,44.601223],[-92.9356478,44.6012242],[-92.9356517,44.600146],[-92.9348455,44.6001464],[-92.9348466,44.5998504],[-92.9348476,44.5995761],[-92.9341451,44.5995764],[-92.9341492,44.5984301],[-92.9333131,44.5984292],[-92.9322995,44.5984295],[-92.9322932,44.6001381],[-92.9325938,44.6001382],[-92.9325898,44.6012245],[-92.9290583,44.6012237],[-92.9290252,44.6084482],[-92.9340938,44.6084548],[-92.9341164,44.6048398],[-92.9371572,44.6048403],[-92.9371776,44.6025754],[-92.9381912,44.6025722]]]}}]}