{"type":"FeatureCollection","name":"new_brighton_border","features":[{"type":"Feature","properties":{"GNIS_FEATURE_ID":2395187,"FEATURE_NAME":"new_brighton","CTU_CLASS":"CITY","COUNTY_GNIS_FEATURE_ID":659507,"COUNTY_CODE":"62","COUNTY_NAME":"Ramsey","POPULATION":23405,"SE_ANNO_CAD_DATA":null},"geometry":{"type":"Polygon","coordinates":[[[-93.1882636,45.0864057],[-93.1982285,45.0863806],[-93.1984081,45.0935759],[-93.2086923,45.0935421],[-93.2276283,45.0932066],[-93.2273714,45.0787075],[-93.2270288,45.0643673],[-93.2269871,45.0616221],[-93.2268103,45.0499999],[-93.2182359,45.0500989],[-93.2182862,45.0428927],[-93.208165,45.0430177],[-93.2082013,45.035793],[-93.1876837,45.0358257],[-93.1877183,45.0429791],[-93.1825924,45.0429909],[-93.1826306,45.0502339],[-93.1877531,45.050215],[-93.1880236,45.0592684],[-93.1880318,45.0597076],[-93.1878586,45.0598171],[-93.1877809,45.0598992],[-93.1876796,45.0600693],[-93.1876326,45.0602119],[-93.1873815,45.0609855],[-93.1873024,45.0613642],[-93.187255,45.0615836],[-93.1872,45.0618031],[-93.1871991,45.0619788],[-93.1871908,45.0621215],[-93.1872132,45.0623082],[-93.1872815,45.0626323],[-93.1873038,45.0628629],[-93.1872955,45.0629671],[-93.1872484,45.0631263],[-93.1871858,45.0632689],[-93.1869131,45.0636965],[-93.1867553,45.0644044],[-93.1881189,45.0643907],[-93.1881241,45.0646706],[-93.188101,45.0647808],[-93.1876594,45.0647208],[-93.1873185,45.0646828],[-93.1869467,45.0646832],[-93.1864124,45.0647112],[-93.186277,45.0647277],[-93.185398,45.0723703],[-93.1852671,45.0736776],[-93.1852101,45.0744411],[-93.1852117,45.0758852],[-93.1856031,45.0801067],[-93.1856776,45.0808203],[-93.1857675,45.0815668],[-93.1858891,45.0823735],[-93.185962,45.0828675],[-93.1860581,45.0833504],[-93.1861773,45.0838113],[-93.1863355,45.0843104],[-93.1867304,45.0854568],[-93.1870714,45.0863355],[-93.1870997,45.0864086],[-93.1882636,45.0864057]]]}}]}