{"type":"FeatureCollection","name":"new_hope_border","features":[{"type":"Feature","properties":{"GNIS_FEATURE_ID":2395201,"FEATURE_NAME":"new_hope","CTU_CLASS":"CITY","COUNTY_GNIS_FEATURE_ID":659472,"COUNTY_CODE":"27","COUNTY_NAME":"Hennepin","POPULATION":21552,"SE_ANNO_CAD_DATA":null},"geometry":{"type":"MultiPolygon","coordinates":[[[[-93.3702498,45.0630963],[-93.3702027,45.0657086],[-93.375253,45.0657281],[-93.3804645,45.0657624],[-93.4006877,45.0657375],[-93.4007512,45.0511973],[-93.400643,45.0367161],[-93.4006013,45.0220043],[-93.400743,45.0074261],[-93.3803028,45.0073057],[-93.3752526,45.0072908],[-93.3702991,45.0072861],[-93.3702679,45.0136268],[-93.3751558,45.0136516],[-93.375155,45.0109305],[-93.3752527,45.0109316],[-93.3802933,45.0109238],[-93.3903843,45.0110397],[-93.3904333,45.0165504],[-93.3854032,45.0165036],[-93.3853953,45.0200892],[-93.3802693,45.0200968],[-93.3802835,45.0146744],[-93.3777151,45.0146615],[-93.3777531,45.0182474],[-93.3752527,45.0182239],[-93.372753,45.0181777],[-93.372701,45.0218387],[-93.3701655,45.0218349],[-93.3702747,45.0337171],[-93.3709888,45.0337218],[-93.3710122,45.0364405],[-93.372783,45.0364487],[-93.3727865,45.0437325],[-93.3703267,45.0437148],[-93.3703972,45.0472901],[-93.3728773,45.0472971],[-93.3728487,45.0520213],[-93.37283,45.0537897],[-93.3730514,45.0537916],[-93.3730702,45.0520127],[-93.3747599,45.0520447],[-93.3752509,45.0520537],[-93.3757708,45.0520504],[-93.3757168,45.0538335],[-93.3761038,45.0538357],[-93.3760995,45.0547612],[-93.3750709,45.0547503],[-93.3750767,45.0556114],[-93.3752907,45.0556081],[-93.375251,45.0583774],[-93.3766409,45.0583809],[-93.3767032,45.0556242],[-93.3772439,45.0556161],[-93.377271,45.0547762],[-93.378397,45.0547904],[-93.3783145,45.0582709],[-93.3803066,45.0582817],[-93.3803647,45.0619761],[-93.372758,45.0619852],[-93.3706659,45.0619478],[-93.3706749,45.0610948],[-93.370256,45.0610925],[-93.3702498,45.0630963]],[[-93.3802519,45.0219513],[-93.3802403,45.0269339],[-93.3751458,45.0268829],[-93.3751328,45.0219234],[-93.3802519,45.0219513]]],[[[-93.369961,45.0556761],[-93.3708468,45.0556809],[-93.3708449,45.0547674],[-93.3711934,45.0547662],[-93.3712039,45.0537761],[-93.3703668,45.0537691],[-93.3703561,45.0547628],[-93.3701417,45.0547636],[-93.3701523,45.0537673],[-93.3693252,45.0537604],[-93.3692842,45.0547734],[-93.3699866,45.0547707],[-93.369961,45.0556761]]],[[[-93.3728264,45.0562241],[-93.3741093,45.056231],[-93.3741099,45.0547752],[-93.3728582,45.0547597],[-93.3728264,45.0562241]]],[[[-93.3715323,45.054765],[-93.3726118,45.0547574],[-93.372622,45.0537921],[-93.3715428,45.0537789],[-93.3715323,45.054765]]]]}}]}