{"type":"FeatureCollection","name":"newport_border","features":[{"type":"Feature","properties":{"GNIS_FEATURE_ID":2395227,"FEATURE_NAME":"newport","CTU_CLASS":"CITY","COUNTY_GNIS_FEATURE_ID":659526,"COUNTY_CODE":"82","COUNTY_NAME":"Washington","POPULATION":4501,"SE_ANNO_CAD_DATA":null},"geometry":{"type":"Polygon","coordinates":[[[-92.9840828,44.8619513],[-92.9841433,44.8749715],[-92.9840523,44.876507],[-92.9841479,44.8862919],[-92.9841202,44.8874268],[-92.9806942,44.8874225],[-92.9807358,44.8873579],[-92.9808041,44.887285],[-92.9808406,44.8872118],[-92.9808654,44.8871349],[-92.9808799,44.8870813],[-92.9808957,44.8870281],[-92.980922,44.8869633],[-92.9809571,44.8869009],[-92.9809901,44.886852],[-92.9810265,44.8868043],[-92.9810653,44.8867576],[-92.9811165,44.8867008],[-92.981171,44.8866457],[-92.9812167,44.8866024],[-92.9812634,44.8865597],[-92.9813266,44.8865032],[-92.9802771,44.8864974],[-92.9802433,44.8854638],[-92.9772648,44.8838144],[-92.9743784,44.8838449],[-92.9741668,44.8838472],[-92.9743245,44.8891265],[-92.9743265,44.8891911],[-92.9743286,44.8892644],[-92.9790237,44.8892137],[-92.9794152,44.8892094],[-92.9795788,44.8946276],[-92.9835597,44.8946035],[-92.9841475,44.8945994],[-92.9841424,44.8909799],[-93.0002369,44.8908299],[-93.0044593,44.8907925],[-93.0174853,44.8907916],[-93.0195381,44.8907892],[-93.0190914,44.8897992],[-93.0183787,44.8885779],[-93.0177917,44.8875354],[-93.016934,44.8852972],[-93.0166243,44.8842971],[-93.016574,44.8841401],[-93.0165122,44.8840026],[-93.0164741,44.8839183],[-93.0160765,44.883059],[-93.0157533,44.8820977],[-93.0154853,44.88131],[-93.0151984,44.879984],[-93.015064,44.8793658],[-93.014836,44.8787233],[-93.0146522,44.8779],[-93.0145106,44.8769962],[-93.0144671,44.8762175],[-93.0144568,44.8760922],[-93.0143523,44.8755396],[-93.0143229,44.8753812],[-93.0142578,44.8750259],[-93.014101,44.8741014],[-93.0141008,44.8731482],[-93.0137652,44.8718971],[-93.0136295,44.8707893],[-93.0134674,44.8700026],[-93.0133792,44.869569],[-93.0133457,44.8693949],[-93.0129659,44.8687105],[-93.0129286,44.8686647],[-93.011393,44.8669311],[-93.0105474,44.8661528],[-93.0101489,44.8657628],[-93.0094309,44.8637305],[-93.0089833,44.8619712],[-93.0088336,44.8606115],[-93.0086876,44.8576194],[-93.0089929,44.8551819],[-93.0002361,44.8551464],[-92.994185,44.8551605],[-92.9939267,44.8546247],[-92.9931642,44.8532258],[-92.9920407,44.8515395],[-92.9840199,44.8515847],[-92.9840828,44.8619513]]]}}]}