{"type":"FeatureCollection","name":"north_oaks_border","features":[{"type":"Feature","properties":{"GNIS_FEATURE_ID":2395259,"FEATURE_NAME":"north_oaks","CTU_CLASS":"CITY","COUNTY_GNIS_FEATURE_ID":659507,"COUNTY_CODE":"62","COUNTY_NAME":"Ramsey","POPULATION":5195,"SE_ANNO_CAD_DATA":null},"geometry":{"type":"Polygon","coordinates":[[[-93.0564178,45.1240234],[-93.0608446,45.1240516],[-93.0662102,45.1240297],[-93.0811891,45.1240414],[-93.0867708,45.1240752],[-93.086769,45.1188899],[-93.0969736,45.1189764],[-93.096977,45.1154422],[-93.1066783,45.1156143],[-93.1066572,45.1119653],[-93.1118612,45.1119316],[-93.1117718,45.1082834],[-93.1252453,45.1082292],[-93.1272283,45.1082232],[-93.1270116,45.0937624],[-93.12698,45.091665],[-93.126746,45.0913023],[-93.1265231,45.0910108],[-93.1263383,45.0908182],[-93.126061,45.0905375],[-93.1257372,45.0902731],[-93.125245,45.0898546],[-93.1233622,45.0883937],[-93.1169017,45.0883543],[-93.1168456,45.0829019],[-93.1188509,45.0828979],[-93.1180154,45.0813454],[-93.1171113,45.0794275],[-93.1064783,45.0791251],[-93.0969628,45.0792589],[-93.0867831,45.0792547],[-93.0748756,45.0793184],[-93.0684597,45.0833146],[-93.0680079,45.0835707],[-93.0670145,45.0840588],[-93.0666317,45.0842154],[-93.0662602,45.0843364],[-93.0659059,45.0844461],[-93.0655103,45.0845336],[-93.0612812,45.0852442],[-93.0609583,45.0853108],[-93.0606944,45.0853827],[-93.0604272,45.0854554],[-93.0600565,45.0855954],[-93.0597175,45.0857325],[-93.0561414,45.0872513],[-93.0561811,45.0938355],[-93.056277,45.1046099],[-93.0563944,45.1228803],[-93.0564178,45.1240234]]]}}]}