{"type":"FeatureCollection","name":"north_saint paul_border","features":[{"type":"Feature","properties":{"GNIS_FEATURE_ID":2395261,"FEATURE_NAME":"north_saint paul","CTU_CLASS":"CITY","COUNTY_GNIS_FEATURE_ID":659507,"COUNTY_CODE":"62","COUNTY_NAME":"Ramsey","POPULATION":12486,"SE_ANNO_CAD_DATA":null},"geometry":{"type":"Polygon","coordinates":[[[-92.9846859,45.0290077],[-92.984765,45.0290517],[-92.9848592,45.0291168],[-92.9849177,45.0291528],[-92.984977,45.0291875],[-92.9850603,45.0292271],[-92.985152,45.0292546],[-92.9852518,45.0292709],[-92.9853289,45.0292778],[-92.9854077,45.0292811],[-92.9855084,45.029281],[-92.9855866,45.0292773],[-92.9856626,45.0292704],[-92.9857627,45.0292577],[-92.9858607,45.0292393],[-92.9859333,45.0292223],[-92.9860057,45.0292048],[-92.986103,45.0291842],[-92.9862041,45.0291679],[-92.9863122,45.0291513],[-92.9864144,45.0291435],[-92.9865018,45.0291558],[-92.9865708,45.0292022],[-92.9866194,45.0292735],[-92.9866401,45.0293463],[-92.9866326,45.0294158],[-92.9866142,45.0294692],[-92.9865882,45.0295224],[-92.9865491,45.0295904],[-92.9864893,45.029651],[-92.986428,45.0297084],[-92.9864275,45.0297756],[-92.9864841,45.029838],[-92.9865609,45.029884],[-92.9866474,45.029924],[-92.9867365,45.0299598],[-92.986804,45.0299855],[-92.9868732,45.0300095],[-92.9869674,45.0300371],[-92.9870639,45.0300564],[-92.9871666,45.0300622],[-92.9872677,45.0300614],[-92.9873688,45.0300656],[-92.9874451,45.0300739],[-92.9875203,45.0300866],[-92.9876115,45.0301151],[-92.9876845,45.0301675],[-92.9877611,45.0302121],[-92.9878728,45.0302043],[-92.9879121,45.0301393],[-92.9879004,45.0300817],[-92.987875,45.0300296],[-92.987863,45.0299779],[-92.9878924,45.0299035],[-92.9878289,45.029851],[-92.9877557,45.0298251],[-92.9876845,45.0298022],[-92.9876121,45.029781],[-92.9875285,45.0297446],[-92.9875158,45.029679],[-92.9875676,45.0296424],[-92.9876362,45.0296127],[-92.9877319,45.0295889],[-92.987805,45.0295884],[-92.9878813,45.0295988],[-92.9879781,45.0296213],[-92.9880735,45.0296485],[-92.9881703,45.0296695],[-92.9882701,45.0296779],[-92.9883711,45.0296826],[-92.9884727,45.0296857],[-92.9885771,45.029687],[-92.9886531,45.029687],[-92.9887316,45.0296859],[-92.9888335,45.0296831],[-92.988935,45.0296788],[-92.9890359,45.0296726],[-92.9891361,45.0296604],[-92.9892356,45.0296418],[-92.98931,45.0296262],[-92.9893842,45.0296111],[-92.9894828,45.0295945],[-92.9895792,45.0295863],[-92.9896749,45.0295967],[-92.9897712,45.0296241],[-92.9898683,45.0296488],[-92.989946,45.0296566],[-92.9900236,45.029651],[-92.9901199,45.02963],[-92.9901909,45.0296099],[-92.9902616,45.0295888],[-92.9903543,45.0295626],[-92.9903734,45.0310187],[-92.9905056,45.0310112],[-92.9906832,45.0309887],[-92.9908838,45.0309388],[-92.9910534,45.0308998],[-92.9911536,45.0308557],[-92.9912973,45.0308014],[-92.9915991,45.0311725],[-92.9916546,45.0319046],[-92.9949067,45.0318713],[-92.9948798,45.0283004],[-92.9964283,45.028269],[-92.9982347,45.0282735],[-92.9993946,45.0282331],[-93.0005727,45.0282375],[-93.0038891,45.0281835],[-93.005053,45.0281611],[-93.005034,45.026366],[-93.0151505,45.0262366],[-93.0150755,45.0108433],[-93.0154719,45.0106876],[-93.0154748,45.0101946],[-93.0150719,45.010195],[-93.0150472,45.005205],[-93.0161789,45.0047816],[-93.016198,45.0036525],[-93.0150497,45.0036426],[-93.0150364,44.9999695],[-93.015091,44.9990981],[-93.0002438,44.9992482],[-92.997467,44.9993009],[-92.9975103,44.9957466],[-92.9948285,44.9956911],[-92.9948193,44.9993288],[-92.9847176,44.9994889],[-92.9847157,44.99997],[-92.9846699,45.0068323],[-92.9846874,45.0212844],[-92.9846859,45.0290077]]]}}]}