{"type":"FeatureCollection","name":"oak_grove_border","features":[{"type":"Feature","properties":{"GNIS_FEATURE_ID":2395282,"FEATURE_NAME":"oak_grove","CTU_CLASS":"CITY","COUNTY_GNIS_FEATURE_ID":659447,"COUNTY_CODE":"02","COUNTY_NAME":"Anoka","POPULATION":9102,"SE_ANNO_CAD_DATA":null},"geometry":{"type":"Polygon","coordinates":[[[-93.265314,45.3847551],[-93.2756869,45.3847073],[-93.2859509,45.3847411],[-93.3063856,45.3847951],[-93.3268746,45.384796],[-93.3473717,45.3848593],[-93.3524416,45.3848815],[-93.3525182,45.3779196],[-93.3679836,45.3781657],[-93.3752572,45.3782211],[-93.3781731,45.3782717],[-93.378127,45.3814909],[-93.3752572,45.3814735],[-93.373373,45.3814666],[-93.373303,45.384718],[-93.375257,45.3847367],[-93.3886214,45.3846899],[-93.3885073,45.3749659],[-93.3884634,45.3720844],[-93.3884544,45.3709369],[-93.3885442,45.3675435],[-93.388626,45.3639471],[-93.3886029,45.356573],[-93.3885257,45.3420994],[-93.3885575,45.3277574],[-93.3884339,45.313311],[-93.3884995,45.3015551],[-93.3885278,45.298903],[-93.3862059,45.2988549],[-93.3774701,45.2987408],[-93.375256,45.2987118],[-93.3673945,45.2985962],[-93.3470667,45.2983097],[-93.3266458,45.2980037],[-93.3061508,45.2980458],[-93.2858038,45.2981605],[-93.2653775,45.2980632],[-93.2656269,45.3054368],[-93.2655885,45.3127675],[-93.2658203,45.3271476],[-93.2659175,45.333978],[-93.2657351,45.3417101],[-93.2657412,45.3560525],[-93.2655312,45.3705658],[-93.2655012,45.3749661],[-93.265314,45.3847551]]]}}]}