{"type":"FeatureCollection","name":"oakdale_border","features":[{"type":"Feature","properties":{"GNIS_FEATURE_ID":2395287,"FEATURE_NAME":"oakdale","CTU_CLASS":"CITY","COUNTY_GNIS_FEATURE_ID":659526,"COUNTY_CODE":"82","COUNTY_NAME":"Washington","POPULATION":27858,"SE_ANNO_CAD_DATA":null},"geometry":{"type":"Polygon","coordinates":[[[-92.964757,45.032102],[-92.9650386,45.0322096],[-92.9654181,45.0323575],[-92.9663945,45.0326646],[-92.9668399,45.0327931],[-92.9674465,45.0329557],[-92.9680004,45.0330778],[-92.9683565,45.0331572],[-92.9687165,45.0332171],[-92.9690472,45.0332524],[-92.9712193,45.0334119],[-92.9779869,45.0339642],[-92.9795868,45.0342031],[-92.9804252,45.0343563],[-92.9813752,45.0345962],[-92.9835199,45.0351868],[-92.9839349,45.0353068],[-92.9843791,45.0353801],[-92.9845774,45.0354179],[-92.9847709,45.0354113],[-92.9846851,45.0330721],[-92.9846859,45.0290077],[-92.9846874,45.0212844],[-92.9846699,45.0068323],[-92.9847157,44.99997],[-92.9847176,44.9994889],[-92.9847142,44.9922587],[-92.9846722,44.9777493],[-92.9847348,44.9633141],[-92.9845467,44.9487087],[-92.9842919,44.9486567],[-92.9840961,44.9486106],[-92.9838976,44.9485709],[-92.9837187,44.948543],[-92.9835202,44.9485145],[-92.9833777,44.9484993],[-92.98321,44.9484854],[-92.9830088,44.9484714],[-92.9827597,44.9484669],[-92.9817399,44.9484752],[-92.9750428,44.9485651],[-92.9747756,44.9485726],[-92.9745673,44.9485825],[-92.9744427,44.9485898],[-92.9741985,44.9486043],[-92.9738454,44.9486371],[-92.9735702,44.9486666],[-92.973296,44.948701],[-92.9732082,44.9487132],[-92.9729618,44.9487426],[-92.9728505,44.9487559],[-92.9727154,44.9487721],[-92.9725916,44.9487833],[-92.9724774,44.9487935],[-92.972234,44.9488153],[-92.9720864,44.9488276],[-92.9717526,44.9488585],[-92.9541938,44.9491222],[-92.9528328,44.9491325],[-92.9502613,44.9490302],[-92.9486803,44.9489625],[-92.9466237,44.9489106],[-92.946007,44.9489067],[-92.945118,44.9489116],[-92.9438124,44.9489148],[-92.942001,44.9489112],[-92.9400886,44.9489183],[-92.9364338,44.9489186],[-92.9361207,44.9489185],[-92.9359483,44.9489199],[-92.9356982,44.9489379],[-92.9355483,44.9489488],[-92.9353928,44.9489617],[-92.9352514,44.9489718],[-92.9349855,44.9489922],[-92.9346381,44.9490175],[-92.9344784,44.9490292],[-92.9343006,44.9490428],[-92.9341844,44.9490519],[-92.9340611,44.9504474],[-92.9339805,44.9516458],[-92.9339207,44.9525513],[-92.9338586,44.953878],[-92.9338435,44.9544105],[-92.9339052,44.9557617],[-92.9339719,44.9634108],[-92.9440377,44.9633808],[-92.9440778,44.9777422],[-92.944189,44.991252],[-92.9439399,44.9912795],[-92.9440411,44.999979],[-92.9439671,45.0067851],[-92.9442765,45.0067828],[-92.9442566,45.0130626],[-92.9442727,45.0133594],[-92.9443102,45.0134252],[-92.9443867,45.0135706],[-92.9444707,45.0136987],[-92.9445762,45.0137979],[-92.9446842,45.0138944],[-92.9448042,45.0139741],[-92.944884,45.0140211],[-92.9450412,45.0140865],[-92.9452892,45.0141818],[-92.946264,45.0144923],[-92.9464445,45.0145617],[-92.9466059,45.0146357],[-92.9467643,45.0147121],[-92.9468961,45.0147992],[-92.9470634,45.0149061],[-92.9471538,45.0149763],[-92.9472774,45.015107],[-92.9477038,45.015829],[-92.947833,45.0160427],[-92.9479641,45.0162112],[-92.9481509,45.0164969],[-92.9484506,45.0172647],[-92.9486595,45.0176995],[-92.9488347,45.0180463],[-92.9489005,45.018281],[-92.9489335,45.0184245],[-92.9489509,45.0185826],[-92.9489443,45.0188308],[-92.9489303,45.0190636],[-92.9489385,45.0192167],[-92.9489543,45.0193812],[-92.9489921,45.0195697],[-92.949073,45.0198113],[-92.9491397,45.0199103],[-92.9494633,45.0205697],[-92.949761,45.0212263],[-92.9541315,45.0211166],[-92.9542146,45.0288218],[-92.9574143,45.0273779],[-92.9587572,45.0268754],[-92.9591355,45.0267702],[-92.9595757,45.0266649],[-92.9600932,45.026554],[-92.9602709,45.0265262],[-92.9606494,45.026476],[-92.9609277,45.0264699],[-92.9612293,45.0264748],[-92.9615154,45.0264906],[-92.9617552,45.0265066],[-92.9620259,45.0265334],[-92.9646584,45.0268244],[-92.964757,45.032102]],[[-92.9734469,44.9523957],[-92.9734385,44.9490128],[-92.9831232,44.9489767],[-92.9831815,44.9498706],[-92.9797281,44.9498326],[-92.9796802,44.9524586],[-92.9734469,44.9523957]]]}}]}