{"type":"FeatureCollection","name":"orono_border","features":[{"type":"Feature","properties":{"GNIS_FEATURE_ID":2396081,"FEATURE_NAME":"orono","CTU_CLASS":"CITY","COUNTY_GNIS_FEATURE_ID":659472,"COUNTY_CODE":"27","COUNTY_NAME":"Hennepin","POPULATION":8447,"SE_ANNO_CAD_DATA":null},"geometry":{"type":"Polygon","coordinates":[[[-93.5760499,44.9999751],[-93.6145737,45.0005657],[-93.6252602,45.0005795],[-93.6456121,45.0004503],[-93.6456084,44.999968],[-93.645554,44.9930784],[-93.645432,44.9785984],[-93.6453635,44.9640357],[-93.6453894,44.955546],[-93.6454168,44.9498932],[-93.6453418,44.949951],[-93.6451188,44.9501153],[-93.6450639,44.9501525],[-93.6449833,44.950196],[-93.6447852,44.9502653],[-93.6446908,44.9502407],[-93.6446766,44.9501895],[-93.6447492,44.950148],[-93.644841,44.9501066],[-93.6449413,44.9500252],[-93.6453553,44.9497222],[-93.6453669,44.9463384],[-93.6453303,44.9462913],[-93.6451415,44.9458616],[-93.6450931,44.9457593],[-93.6450408,44.9456579],[-93.6449482,44.9454903],[-93.6447362,44.9451238],[-93.6445694,44.9448215],[-93.6445092,44.9447224],[-93.6444661,44.9446574],[-93.6444199,44.9445936],[-93.6443711,44.9445305],[-93.6442664,44.9444065],[-93.6441537,44.9442861],[-93.6440179,44.9441567],[-93.6439288,44.9440926],[-93.6438109,44.9440232],[-93.6437299,44.9439802],[-93.643472,44.943865],[-93.64309,44.9436859],[-93.64296,44.9436301],[-93.6428714,44.9435956],[-93.642781,44.9435638],[-93.6426414,44.9435217],[-93.6424985,44.9434846],[-93.642209,44.9434154],[-93.6420658,44.9433784],[-93.6419722,44.9433512],[-93.641787,44.9432908],[-93.6416015,44.9432265],[-93.641467,44.9431734],[-93.6413611,44.9431245],[-93.6412443,44.9430588],[-93.6411761,44.9430081],[-93.6411307,44.9429659],[-93.6410763,44.9429048],[-93.6409287,44.942711],[-93.6408265,44.9425864],[-93.6406293,44.9423343],[-93.6405519,44.9422414],[-93.6404976,44.9421807],[-93.6404407,44.9421213],[-93.6403515,44.942034],[-93.640009,44.9417209],[-93.6398884,44.9416051],[-93.6396822,44.9413997],[-93.6395968,44.9413104],[-93.6395142,44.9412198],[-93.6394612,44.9411582],[-93.6394107,44.9410953],[-93.6393634,44.9410313],[-93.6393106,44.9409499],[-93.6392862,44.9408987],[-93.6392756,44.9408444],[-93.6392761,44.94079],[-93.6393341,44.9407276],[-93.6394425,44.9407283],[-93.6395545,44.9407727],[-93.6396256,44.940789],[-93.6397004,44.940794],[-93.6398541,44.9407942],[-93.6399294,44.9408011],[-93.6401019,44.9408332],[-93.640176,44.9408438],[-93.6402779,44.9408462],[-93.6403761,44.9408296],[-93.6404644,44.9407954],[-93.6406079,44.9407195],[-93.6407582,44.9406215],[-93.6408165,44.9405872],[-93.6409045,44.9405481],[-93.6410323,44.9405431],[-93.6411178,44.940597],[-93.6412188,44.9406121],[-93.641234,44.9405362],[-93.6412113,44.9404793],[-93.6411749,44.9404085],[-93.6410838,44.9402875],[-93.6410988,44.9401879],[-93.6411932,44.9401412],[-93.6412934,44.9401846],[-93.6413594,44.940261],[-93.6414248,44.9403577],[-93.6415652,44.9405916],[-93.6416298,44.94069],[-93.6417245,44.9408173],[-93.6419234,44.9410685],[-93.6420078,44.9411793],[-93.642086,44.9413128],[-93.6421495,44.9413695],[-93.6422359,44.9414054],[-93.6423377,44.9414034],[-93.6424402,44.9414016],[-93.6425937,44.9414579],[-93.6426793,44.9414952],[-93.6428063,44.9415541],[-93.6432255,44.9417614],[-93.6433948,44.941842],[-93.6435247,44.9418982],[-93.6437031,44.9419674],[-93.6437911,44.9420032],[-93.6438763,44.9420419],[-93.6439583,44.9420841],[-93.6440384,44.9421284],[-93.6443532,44.9423112],[-93.6444337,44.9423547],[-93.6445398,44.9424025],[-93.6446622,44.9424302],[-93.6447289,44.9424543],[-93.6448073,44.9425001],[-93.6448747,44.9425549],[-93.6449434,44.9426299],[-93.6449921,44.942693],[-93.6452932,44.9431102],[-93.6453995,44.9432503],[-93.6453921,44.9389501],[-93.6452692,44.9388852],[-93.6449532,44.9387273],[-93.6448214,44.9386564],[-93.6447349,44.9386049],[-93.6446802,44.9385692],[-93.6445804,44.9384851],[-93.6445412,44.9384075],[-93.6445055,44.9382788],[-93.6443654,44.9379325],[-93.6443195,44.9378295],[-93.6442434,44.9376753],[-93.6442091,44.9377925],[-93.6442035,44.9378644],[-93.6442075,44.9379378],[-93.6442188,44.9380486],[-93.6442199,44.9381028],[-93.6442106,44.9381725],[-93.6441818,44.9382399],[-93.644131,44.938308],[-93.6440627,44.9383673],[-93.6439819,44.9384064],[-93.6438914,44.9384254],[-93.6437919,44.9384342],[-93.6437137,44.9384358],[-93.6436072,44.938432],[-93.6435017,44.9384233],[-93.6433764,44.9384073],[-93.6432804,44.9383855],[-93.643022,44.9383023],[-93.6429508,44.9382831],[-93.6428539,44.9382655],[-93.6427298,44.9382562],[-93.6425791,44.938252],[-93.6424778,44.9382522],[-93.6423762,44.9382543],[-93.6421721,44.9382624],[-93.6417398,44.9382853],[-93.6416638,44.9382947],[-93.6414872,44.9383206],[-93.6413877,44.9383256],[-93.641314,44.9383205],[-93.641191,44.9383017],[-93.6410444,44.9382686],[-93.6409251,44.9382341],[-93.6408328,44.9382029],[-93.6407438,44.9381693],[-93.6406566,44.9381333],[-93.6405707,44.9380952],[-93.6404859,44.9380555],[-93.6403605,44.9379936],[-93.6400525,44.9378335],[-93.6399942,44.9377969],[-93.6398263,44.937678],[-93.6397481,44.9376323],[-93.6396633,44.9375983],[-93.6395468,44.9375734],[-93.6394497,44.9375582],[-93.6393503,44.9375456],[-93.6392491,44.9375357],[-93.6391466,44.9375282],[-93.6390432,44.9375232],[-93.6389394,44.9375207],[-93.638784,44.9375212],[-93.6386303,44.9375268],[-93.6384798,44.9375372],[-93.6383803,44.9375469],[-93.6382808,44.9375586],[-93.6381317,44.9375799],[-93.6379337,44.9376143],[-93.637737,44.9376545],[-93.6375423,44.9376993],[-93.637398,44.9377352],[-93.6372085,44.9377854],[-93.6371162,44.9378139],[-93.6370259,44.9378458],[-93.6368931,44.9378985],[-93.6366315,44.9380111],[-93.6364996,44.9380658],[-93.6363199,44.9381349],[-93.6360927,44.9382286],[-93.6359779,44.9382703],[-93.6358388,44.9383081],[-93.6357449,44.9383223],[-93.6356476,44.9383245],[-93.6355462,44.9383147],[-93.6354441,44.9382948],[-93.6353689,44.9382747],[-93.6352972,44.9382505],[-93.6351678,44.9381946],[-93.6351098,44.9381617],[-93.6350375,44.9381123],[-93.6349687,44.9380586],[-93.6347997,44.9379196],[-93.6347097,44.9378553],[-93.6346318,44.9378097],[-93.6345289,44.9377582],[-93.634402,44.9376995],[-93.634272,44.9376433],[-93.6341397,44.9375894],[-93.6339608,44.9375202],[-93.6335549,44.9373704],[-93.6331485,44.9372158],[-93.6330115,44.9371663],[-93.6328732,44.9371202],[-93.6327331,44.9370788],[-93.6325911,44.9370435],[-93.6324708,44.93702],[-93.6323487,44.937002],[-93.6322497,44.9369916],[-93.6321496,44.9369841],[-93.6320487,44.9369789],[-93.6318962,44.9369746],[-93.6314349,44.9369708],[-93.631231,44.936965],[-93.6308774,44.9369429],[-93.6300198,44.9368793],[-93.6297673,44.9368639],[-93.6295652,44.9368545],[-93.6294134,44.9368501],[-93.6292612,44.9368497],[-93.6290579,44.9368536],[-93.6287021,44.936864],[-93.6284993,44.9368668],[-93.6283477,44.9368652],[-93.6281967,44.936859],[-93.6280966,44.9368504],[-93.6279477,44.9368299],[-93.6278489,44.9368128],[-93.6275531,44.9367574],[-93.627454,44.9367413],[-93.6273544,44.9367283],[-93.6271531,44.9367093],[-93.6269498,44.9366933],[-93.6267969,44.936685],[-93.6266444,44.9366814],[-93.6264932,44.9366838],[-93.6263433,44.9366935],[-93.6261919,44.9367113],[-93.6260911,44.9367277],[-93.6259669,44.9367532],[-93.6258462,44.936784],[-93.6257537,44.9368127],[-93.625645,44.9368545],[-93.6255663,44.9368974],[-93.6255115,44.9369347],[-93.6254428,44.9369894],[-93.6253112,44.9371033],[-93.6252121,44.9371853],[-93.6250826,44.9372961],[-93.6246696,44.9376611],[-93.6243867,44.9379755],[-93.6242364,44.9381475],[-93.6241674,44.9382437],[-93.6240631,44.9383512],[-93.624002,44.9384197],[-93.6239466,44.9384905],[-93.6239037,44.9385557],[-93.6238335,44.9386716],[-93.6237803,44.9387728],[-93.6237133,44.9389182],[-93.6235876,44.939211],[-93.6231938,44.9399784],[-93.6231529,44.9400644],[-93.6230596,44.9402731],[-93.6230081,44.9403753],[-93.6229794,44.940425],[-93.6229482,44.9404736],[-93.6228953,44.9405438],[-93.6228377,44.9406073],[-93.622774,44.9406696],[-93.6227252,44.9407124],[-93.6226737,44.9407539],[-93.6226198,44.9407939],[-93.6225636,44.9408322],[-93.6225054,44.9408684],[-93.6224455,44.9409022],[-93.6223842,44.9409334],[-93.6223053,44.940968],[-93.6222213,44.9409959],[-93.6221258,44.9410187],[-93.6220263,44.9410369],[-93.621798,44.9410728],[-93.621699,44.941092],[-93.6216102,44.9411149],[-93.6215431,44.941138],[-93.6214424,44.9411905],[-93.6212735,44.9413095],[-93.6211932,44.9413533],[-93.6210676,44.9413843],[-93.6209848,44.9414316],[-93.620971,44.9415126],[-93.620921,44.9415612],[-93.6208155,44.9415806],[-93.6206943,44.9415634],[-93.6206315,44.9414939],[-93.6206527,44.9413474],[-93.6205911,44.9412656],[-93.6204669,44.9411927],[-93.6203841,44.9411504],[-93.6202986,44.9411109],[-93.6202218,44.9410794],[-93.6201396,44.9410507],[-93.6200326,44.9410244],[-93.6199552,44.9410455],[-93.6200328,44.9411283],[-93.6201809,44.9412129],[-93.6202675,44.9412874],[-93.6203022,44.9413472],[-93.62033,44.9414182],[-93.6203614,44.9414876],[-93.6204194,44.941631],[-93.6204746,44.9417102],[-93.6205951,44.9417336],[-93.6207208,44.9417522],[-93.6208093,44.9417756],[-93.6209253,44.941828],[-93.6209779,44.9418712],[-93.6209999,44.941924],[-93.6210023,44.9420618],[-93.6209631,44.9421501],[-93.620871,44.9421698],[-93.6206869,44.9421943],[-93.6205349,44.9422104],[-93.6203806,44.9422231],[-93.6202257,44.9422322],[-93.6200975,44.9422366],[-93.6199524,44.9422374],[-93.6198585,44.9422312],[-93.6197461,44.9422165],[-93.6195219,44.9421788],[-93.6193788,44.9421616],[-93.6192796,44.9421724],[-93.6191383,44.9421368],[-93.6188322,44.942027],[-93.6187433,44.9420025],[-93.6186493,44.9420014],[-93.6183577,44.9420173],[-93.6182058,44.942019],[-93.618105,44.9420079],[-93.6180208,44.9419872],[-93.6179597,44.9419489],[-93.6179231,44.9418968],[-93.6178574,44.9417769],[-93.6178012,44.9417144],[-93.6176986,44.9417018],[-93.6176171,44.941733],[-93.6175526,44.9417625],[-93.6173603,44.9418691],[-93.6174072,44.9419535],[-93.6174607,44.9420348],[-93.6176364,44.9423012],[-93.6174256,44.9423068],[-93.6172675,44.9420701],[-93.6172176,44.9419972],[-93.6171641,44.9419262],[-93.6171048,44.941861],[-93.6169931,44.9417942],[-93.6169001,44.9417997],[-93.6168443,44.9418333],[-93.6168135,44.9419042],[-93.6168196,44.9419754],[-93.6168327,44.9420296],[-93.6168751,44.9421766],[-93.6168868,44.9422393],[-93.6168978,44.9423199],[-93.6167538,44.9423194],[-93.6166164,44.9420049],[-93.6165465,44.9418507],[-93.6164725,44.9416974],[-93.6163027,44.9413581],[-93.616215,44.9411892],[-93.6161232,44.9410214],[-93.6160282,44.9408544],[-93.6159212,44.9406716],[-93.615876,44.940599],[-93.6198703,44.9405437],[-93.6198259,44.9380657],[-93.6193096,44.9380367],[-93.6192834,44.9368816],[-93.6198024,44.9368044],[-93.6197452,44.9366103],[-93.6222592,44.93624],[-93.6222694,44.9346716],[-93.6232289,44.9346673],[-93.6233014,44.9343087],[-93.6234399,44.9222539],[-93.6233949,44.922184],[-93.6233566,44.9221165],[-93.6232487,44.9219107],[-93.6232114,44.9218427],[-93.6231717,44.921776],[-93.6231284,44.9217109],[-93.6230805,44.9216481],[-93.6230269,44.921588],[-93.6229665,44.9215311],[-93.6216509,44.9204288],[-93.6213167,44.9201534],[-93.6209789,44.9198802],[-93.6206366,44.9196106],[-93.6203591,44.9193981],[-93.6200069,44.9191375],[-93.6197205,44.9189338],[-93.6195026,44.9187841],[-93.619282,44.9186374],[-93.6190584,44.918494],[-93.6188317,44.918354],[-93.6186018,44.9182176],[-93.6184458,44.9181294],[-93.6182846,44.9180449],[-93.6181183,44.9179642],[-93.6179474,44.9178872],[-93.6177722,44.9178138],[-93.6175931,44.9177438],[-93.6175023,44.9177101],[-93.6173182,44.9176451],[-93.6171313,44.9175833],[-93.6169419,44.9175246],[-93.6167505,44.9174688],[-93.6164606,44.9173904],[-93.6161684,44.917318],[-93.6158754,44.9172511],[-93.615583,44.9171894],[-93.6152925,44.9171325],[-93.6150982,44.9170977],[-93.6148021,44.9170514],[-93.6145013,44.9170123],[-93.6142989,44.9169903],[-93.6139929,44.9169635],[-93.6136852,44.9169444],[-93.6133769,44.916933],[-93.6131715,44.9169299],[-93.6129665,44.9169303],[-93.6128643,44.9169318],[-93.6126607,44.9169377],[-93.6124584,44.9169473],[-93.6123578,44.9169535],[-93.612158,44.9169687],[-93.6116593,44.9170158],[-93.6112578,44.9170594],[-93.6108552,44.9171086],[-93.6104527,44.9171638],[-93.6100512,44.9172254],[-93.6098512,44.9172588],[-93.6096519,44.9172938],[-93.6094534,44.9173307],[-93.6092558,44.9173694],[-93.6089616,44.917431],[-93.608767,44.9174745],[-93.6085738,44.91752],[-93.6082869,44.9175922],[-93.6080979,44.9176429],[-93.6079107,44.9176959],[-93.6076338,44.9177795],[-93.6073617,44.9178685],[-93.6070936,44.9179644],[-93.6068292,44.9180667],[-93.6066549,44.9181382],[-93.606482,44.9182122],[-93.6063106,44.9182884],[-93.6061404,44.9183667],[-93.6059715,44.918447],[-93.6058038,44.9185291],[-93.6054716,44.9186979],[-93.6051432,44.9188718],[-93.604818,44.9190494],[-93.6044153,44.9192747],[-93.6033803,44.9198601],[-93.6029882,44.9200878],[-93.6026784,44.9202737],[-93.6022956,44.9205103],[-93.601993,44.9207027],[-93.6016191,44.9209468],[-93.6012498,44.9211944],[-93.6008851,44.9214451],[-93.6005247,44.9216984],[-93.6001687,44.921954],[-93.5998886,44.9221619],[-93.5996128,44.9223729],[-93.5993409,44.9225867],[-93.5990058,44.9228573],[-93.5986753,44.923131],[-93.5983487,44.923407],[-93.5979608,44.9237402],[-93.5975765,44.9240748],[-93.597391,44.9242457],[-93.5972706,44.9243615],[-93.5971524,44.9244785],[-93.5969779,44.9246556],[-93.5965752,44.9250714],[-93.5963674,44.9252811],[-93.5955854,44.9259706],[-93.5951909,44.9263228],[-93.5950055,44.926494],[-93.5946715,44.9268112],[-93.5931964,44.928634],[-93.5931298,44.9286897],[-93.5930188,44.9287936],[-93.5929479,44.9288526],[-93.5928472,44.9289146],[-93.5927076,44.9289648],[-93.5925685,44.9290032],[-93.5924249,44.9290365],[-93.5922162,44.9290776],[-93.5918169,44.9291474],[-93.5916438,44.9291799],[-93.5908242,44.9293526],[-93.5907247,44.9293642],[-93.5904204,44.9293858],[-93.5898098,44.9294382],[-93.5896067,44.9294524],[-93.5894042,44.9294622],[-93.5892027,44.9294659],[-93.5891023,44.929465],[-93.5890022,44.929462],[-93.5889026,44.9294567],[-93.5887038,44.9294396],[-93.5885043,44.9294179],[-93.5883045,44.929392],[-93.5881047,44.929362],[-93.5880049,44.9293455],[-93.5878062,44.9293095],[-93.5876087,44.9292697],[-93.5875105,44.9292484],[-93.5873158,44.9292029],[-93.5871236,44.9291537],[-93.5869343,44.929101],[-93.5867484,44.9290447],[-93.5865662,44.928985],[-93.5863863,44.928921],[-93.5862084,44.9288527],[-93.5860326,44.9287806],[-93.585859,44.9287049],[-93.5856877,44.928626],[-93.5854352,44.928502],[-93.58527,44.9284163],[-93.585027,44.9282837],[-93.5848684,44.9281931],[-93.5846357,44.9280546],[-93.5844071,44.9279132],[-93.5841812,44.9277689],[-93.5839582,44.927622],[-93.5837379,44.9274725],[-93.5835203,44.9273208],[-93.5833054,44.927167],[-93.5830931,44.9270113],[-93.5828141,44.9268013],[-93.5824717,44.9265352],[-93.5822028,44.9263201],[-93.5820716,44.9262107],[-93.5818797,44.9260437],[-93.5816926,44.9258736],[-93.5815092,44.9257012],[-93.5812684,44.925469],[-93.5808504,44.9250606],[-93.5806087,44.9248288],[-93.5798082,44.924084],[-93.5795603,44.9238556],[-93.5793719,44.9236859],[-93.5792445,44.9235739],[-93.5791155,44.9234631],[-93.5789846,44.9233535],[-93.5787834,44.9231921],[-93.5786435,44.9230874],[-93.5785717,44.9230361],[-93.5784246,44.922936],[-93.5782731,44.9228392],[-93.5781176,44.9227463],[-93.5780384,44.9227014],[-93.5778774,44.9226148],[-93.5777953,44.922573],[-93.5776269,44.9224924],[-93.577541,44.9224535],[-93.5773658,44.9223791],[-93.5772768,44.9223435],[-93.5770964,44.9222762],[-93.5770052,44.9222444],[-93.5768212,44.9221848],[-93.5767285,44.9221573],[-93.5766339,44.9221318],[-93.5765377,44.9221084],[-93.5764402,44.9220871],[-93.5763415,44.9220681],[-93.5762419,44.9220512],[-93.5761417,44.9220365],[-93.5760412,44.9220241],[-93.5759406,44.922014],[-93.5758402,44.9220061],[-93.5757399,44.9220003],[-93.5756393,44.9219962],[-93.5754373,44.9219923],[-93.575133,44.9219946],[-93.5746245,44.9220069],[-93.5744213,44.9220103],[-93.5714818,44.9220239],[-93.5700627,44.9220269],[-93.5683394,44.9220257],[-93.5671229,44.9220233],[-93.5655011,44.9220158],[-93.5646904,44.9220093],[-93.5642851,44.9220045],[-93.5641837,44.9219997],[-93.5640825,44.9219925],[-93.5637791,44.9219676],[-93.5636781,44.9219615],[-93.5635772,44.9219583],[-93.5634765,44.9219589],[-93.5633758,44.921963],[-93.563174,44.9219756],[-93.5629723,44.9219935],[-93.5627711,44.9220163],[-93.562671,44.9220292],[-93.562472,44.9220578],[-93.562275,44.9220902],[-93.5621771,44.9221093],[-93.5620799,44.9221305],[-93.5619834,44.9221536],[-93.5618878,44.9221787],[-93.5617934,44.9222055],[-93.5617003,44.9222341],[-93.5616086,44.9222643],[-93.5615181,44.9222963],[-93.56134,44.9223644],[-93.5611643,44.9224367],[-93.5609027,44.9225478],[-93.5607037,44.9226303],[-93.5598467,44.9231679],[-93.5431473,44.9347783],[-93.5430247,44.9471799],[-93.5430164,44.9491594],[-93.5429481,44.9549232],[-93.5429772,44.958604],[-93.5429556,44.9637507],[-93.5435977,44.9638769],[-93.543746,44.9639042],[-93.5439088,44.9639663],[-93.5439101,44.9652451],[-93.5429857,44.9652441],[-93.542986,44.9656127],[-93.5442777,44.966572],[-93.5429868,44.9665728],[-93.5429966,44.9744638],[-93.5481094,44.9745155],[-93.5481136,44.9760278],[-93.5429983,44.9759802],[-93.5429993,44.976487],[-93.5461924,44.9781142],[-93.5479969,44.9789398],[-93.5479953,44.9791535],[-93.5441764,44.9791385],[-93.5438172,44.9789295],[-93.5434805,44.9787424],[-93.5431075,44.9785584],[-93.5428795,44.9784543],[-93.5428714,44.9780773],[-93.5264847,44.9780397],[-93.5264968,44.9773656],[-93.5261052,44.977567],[-93.5257086,44.9777557],[-93.5249579,44.9780387],[-93.5226152,44.9780303],[-93.5226504,44.9816004],[-93.5224516,44.9925865],[-93.5224246,44.9972183],[-93.5224035,44.9997754],[-93.5635944,44.9994425],[-93.5760499,44.9999751]],[[-93.5692093,44.9893473],[-93.560513,44.9853035],[-93.5605193,44.9844674],[-93.5573053,44.9846635],[-93.5572898,44.9867114],[-93.5565983,44.9866559],[-93.5543811,44.9870327],[-93.5526527,44.9875095],[-93.5500848,44.9875451],[-93.5499636,44.9848398],[-93.5497687,44.9848129],[-93.5496982,44.9847948],[-93.5496267,44.9847665],[-93.5495628,44.984736],[-93.5493186,44.9846082],[-93.5491637,44.9845201],[-93.5490873,44.9844706],[-93.5490321,44.9844321],[-93.5489716,44.9843857],[-93.5488717,44.9843044],[-93.5487491,44.9842012],[-93.5483056,44.9838134],[-93.5461712,44.9813109],[-93.5458037,44.9808512],[-93.5509409,44.9803635],[-93.5534441,44.9816699],[-93.5545369,44.982166],[-93.554902,44.9822482],[-93.5551666,44.9823518],[-93.5618081,44.9835173],[-93.5618032,44.9830387],[-93.56094,44.9828938],[-93.5611718,44.9824928],[-93.5605234,44.9824174],[-93.5603954,44.9828018],[-93.5583833,44.982464],[-93.5583561,44.9808548],[-93.5622578,44.9798658],[-93.5630516,44.9804728],[-93.5632181,44.980604],[-93.5633154,44.9805393],[-93.5634164,44.9804942],[-93.5635158,44.9804798],[-93.5636364,44.980476],[-93.5637446,44.9804655],[-93.5638199,44.9804536],[-93.5638879,44.9804331],[-93.5639418,44.980397],[-93.564005,44.9803452],[-93.5640936,44.9803017],[-93.5641618,44.9802767],[-93.564256,44.9802506],[-93.5643291,44.9802367],[-93.5645292,44.980209],[-93.5648989,44.980145],[-93.5649738,44.9801361],[-93.5650494,44.9801406],[-93.5651737,44.9801587],[-93.5653507,44.980167],[-93.5655794,44.9801723],[-93.5657345,44.9801812],[-93.5658116,44.9801837],[-93.5658868,44.9801813],[-93.565983,44.9801673],[-93.5660729,44.9801376],[-93.5662665,44.9800465],[-93.5663339,44.980021],[-93.5664518,44.9799884],[-93.566621,44.979949],[-93.5666918,44.9799294],[-93.5669923,44.979833],[-93.5671799,44.9797778],[-93.5673422,44.979723],[-93.5674241,44.9796822],[-93.5674909,44.979629],[-93.5675493,44.9795689],[-93.5675873,44.9795213],[-93.567627,44.9794557],[-93.5676583,44.9793491],[-93.5676838,44.9792986],[-93.5677312,44.9792349],[-93.5678156,44.9791447],[-93.5678769,44.9790874],[-93.5680374,44.9789477],[-93.5681205,44.9788797],[-93.5682463,44.9787651],[-93.5682911,44.9787019],[-93.5683079,44.97865],[-93.5683149,44.9785954],[-93.5683234,44.9784689],[-93.5683266,44.9782565],[-93.5706134,44.9782889],[-93.5713239,44.9779861],[-93.5736632,44.9779633],[-93.5736464,44.9802517],[-93.5750893,44.9799634],[-93.5751583,44.9783062],[-93.5771247,44.9783015],[-93.5772791,44.9783679],[-93.5774587,44.9784806],[-93.5783995,44.9790356],[-93.5802973,44.978481],[-93.5805998,44.978423],[-93.5807472,44.9783961],[-93.581056,44.9783434],[-93.5812299,44.9783176],[-93.5813609,44.9783041],[-93.5814432,44.9783043],[-93.5815705,44.9783101],[-93.5816159,44.9828238],[-93.58122,44.9828007],[-93.5811732,44.9850697],[-93.5839095,44.9850689],[-93.5839119,44.9854569],[-93.5882381,44.9855382],[-93.5881942,44.9892311],[-93.5788284,44.9891024],[-93.5788008,44.9887133],[-93.5781863,44.9885422],[-93.57802,44.988498],[-93.5778767,44.9884621],[-93.5777682,44.9884371],[-93.5776701,44.9884183],[-93.5775706,44.9884028],[-93.5774453,44.988388],[-93.5773321,44.9883784],[-93.5772186,44.9883708],[-93.5770667,44.9883631],[-93.5769146,44.9883573],[-93.5762932,44.9883388],[-93.5750508,44.9883092],[-93.5747594,44.9883],[-93.5745061,44.988289],[-93.5741519,44.9882702],[-93.5740257,44.9882604],[-93.5739382,44.9882491],[-93.5737518,44.988219],[-93.5737382,44.9893537],[-93.5692093,44.9893473]],[[-93.5962513,44.9424395],[-93.5961164,44.9425155],[-93.5960042,44.9425854],[-93.5958581,44.9426832],[-93.5957333,44.9427727],[-93.5955941,44.9428789],[-93.5954419,44.9430024],[-93.5952941,44.9431292],[-93.5951349,44.9432729],[-93.5949656,44.9434327],[-93.5948175,44.9435785],[-93.594776,44.9436239],[-93.594724,44.9436865],[-93.594687,44.9437348],[-93.59464,44.9438007],[-93.5945626,44.943919],[-93.5943733,44.9442267],[-93.5943183,44.9443095],[-93.5942601,44.9443896],[-93.5941846,44.9444812],[-93.5941301,44.9445388],[-93.5940715,44.9445933],[-93.5939915,44.9446561],[-93.5939022,44.944714],[-93.5938423,44.9447474],[-93.5937783,44.9447796],[-93.5936875,44.9448203],[-93.5936159,44.9448489],[-93.5935418,44.9448755],[-93.5934659,44.9448999],[-93.5933885,44.9449221],[-93.5933102,44.9449415],[-93.5932314,44.9449582],[-93.5931528,44.9449719],[-93.5930748,44.9449823],[-93.5929978,44.9449891],[-93.5929225,44.9449923],[-93.5928495,44.9449913],[-93.592756,44.9449838],[-93.5926437,44.9449654],[-93.5925077,44.9449347],[-93.5924164,44.9449097],[-93.5922793,44.9448657],[-93.5921653,44.9448237],[-93.5920521,44.9447773],[-93.5919402,44.9447269],[-93.5918301,44.9446731],[-93.5917222,44.9446162],[-93.5916171,44.9445566],[-93.5915153,44.9444949],[-93.591398,44.9444187],[-93.591305,44.9443538],[-93.5911998,44.944275],[-93.5910692,44.9441683],[-93.591006,44.9441136],[-93.5909137,44.9440298],[-93.5907655,44.9438862],[-93.5906236,44.9437382],[-93.5904866,44.9435867],[-93.5903405,44.9434169],[-93.5901976,44.9432448],[-93.589799,44.9427566],[-93.589681,44.9426164],[-93.589574,44.9424931],[-93.5894206,44.9423276],[-93.5892839,44.9422247],[-93.5891997,44.9421569],[-93.5891009,44.9420731],[-93.5887477,44.941756],[-93.5886006,44.9416292],[-93.5885167,44.9415611],[-93.5884304,44.9414956],[-93.5883595,44.9414452],[-93.5882867,44.941397],[-93.5882115,44.9413512],[-93.588134,44.9413081],[-93.5880537,44.9412679],[-93.5879273,44.9412109],[-93.5877942,44.9411569],[-93.5876789,44.9411146],[-93.5875604,44.9410752],[-93.587439,44.9410391],[-93.5873155,44.9410066],[-93.5872156,44.9409836],[-93.5870897,44.9409587],[-93.5869885,44.9409422],[-93.5868874,44.9409289],[-93.5867865,44.940919],[-93.5866863,44.9409127],[-93.5865868,44.9409103],[-93.586439,44.9409124],[-93.5862408,44.9409196],[-93.5860413,44.940931],[-93.5858407,44.9409464],[-93.5856394,44.9409655],[-93.5854376,44.9409881],[-93.5852357,44.941014],[-93.5850339,44.9410429],[-93.5848074,44.9410788],[-93.5845819,44.9411179],[-93.5843577,44.9411598],[-93.5841107,44.9412093],[-93.583818,44.9412721],[-93.5835302,44.941338],[-93.5834357,44.9413619],[-93.5832957,44.9414019],[-93.5831578,44.9414462],[-93.5830215,44.9414943],[-93.582887,44.9415457],[-93.5827318,44.941609],[-93.5825785,44.9416752],[-93.5824267,44.9417435],[-93.5818324,44.9420216],[-93.5817658,44.9420745],[-93.5816699,44.9421829],[-93.5813566,44.9424663],[-93.5812901,44.9425319],[-93.5812286,44.9425998],[-93.5811723,44.94267],[-93.5811025,44.9427659],[-93.5810369,44.9428638],[-93.5808986,44.9430774],[-93.5808204,44.9431905],[-93.5807667,44.9432616],[-93.5807289,44.9433081],[-93.5806527,44.943398],[-93.5806062,44.9434486],[-93.5805557,44.9434951],[-93.5804774,44.9435474],[-93.5803924,44.9435721],[-93.5802649,44.9435778],[-93.5801534,44.9435711],[-93.5800719,44.9435606],[-93.5799908,44.9435459],[-93.579912,44.943527],[-93.5798146,44.9434959],[-93.5797091,44.9434469],[-93.5796326,44.9433797],[-93.5795891,44.9433022],[-93.5795292,44.9431307],[-93.5794961,44.9430582],[-93.579457,44.9430019],[-93.5794036,44.9429586],[-93.5793255,44.9429149],[-93.5792341,44.9428716],[-93.5791381,44.9428315],[-93.5790384,44.9427939],[-93.5789356,44.9427585],[-93.5788185,44.942721],[-93.5783866,44.9425927],[-93.5782208,44.9425409],[-93.5780602,44.9424852],[-93.5779608,44.9424465],[-93.5778748,44.9424071],[-93.5777872,44.9423332],[-93.5777104,44.9422277],[-93.5776739,44.9421827],[-93.5775024,44.9420038],[-93.5771471,44.9416504],[-93.5770306,44.9415318],[-93.5769175,44.9414121],[-93.5768628,44.9413516],[-93.5767577,44.9412289],[-93.5766598,44.9411037],[-93.57657,44.9409754],[-93.5764414,44.9407802],[-93.5763583,44.9406487],[-93.5762775,44.9405162],[-93.5761989,44.9403829],[-93.5761226,44.9402487],[-93.5760487,44.9401138],[-93.5759422,44.9399103],[-93.5758088,44.9396372],[-93.5757153,44.9394315],[-93.5756562,44.9392941],[-93.5755135,44.9389427],[-93.5754583,44.938794],[-93.5754339,44.9387189],[-93.5754125,44.9386438],[-93.575395,44.9385691],[-93.5753823,44.9384951],[-93.5753751,44.9384222],[-93.5753742,44.9383508],[-93.5753805,44.9382812],[-93.5753947,44.9382138],[-93.5754176,44.938149],[-93.5754498,44.938087],[-93.5754893,44.9380268],[-93.5755349,44.937968],[-93.5755862,44.9379104],[-93.5756425,44.937854],[-93.5757034,44.9377986],[-93.5757683,44.9377441],[-93.5758367,44.9376904],[-93.5759819,44.9375848],[-93.5761348,44.9374811],[-93.5764468,44.9372752],[-93.5765975,44.9371713],[-93.5766697,44.9371186],[-93.576739,44.9370653],[-93.5773491,44.9365833],[-93.5775554,44.9364245],[-93.5777654,44.9362681],[-93.577841,44.9362177],[-93.5779215,44.9361689],[-93.5780055,44.9361211],[-93.5783533,44.9359341],[-93.5784371,44.9358867],[-93.5785172,44.9358383],[-93.5785923,44.9357888],[-93.5786614,44.9357375],[-93.578723,44.9356844],[-93.5787761,44.935629],[-93.5788194,44.9355709],[-93.5788517,44.9355099],[-93.5788744,44.9354463],[-93.5788913,44.9353812],[-93.5789028,44.9353147],[-93.5789094,44.9352469],[-93.5789115,44.9351779],[-93.5789095,44.9351079],[-93.5789039,44.9350368],[-93.5788949,44.934965],[-93.5788832,44.9348923],[-93.578853,44.9347454],[-93.5788166,44.9345968],[-93.5787386,44.9342984],[-93.5787038,44.9341503],[-93.5786889,44.934077],[-93.5786762,44.9340043],[-93.5786462,44.9337889],[-93.5785894,44.9334307],[-93.5785685,44.9332874],[-93.5785512,44.933144],[-93.5785393,44.9330004],[-93.5784971,44.9322476],[-93.5784887,44.9320192],[-93.5784865,44.931797],[-93.5784929,44.931585],[-93.5785031,44.9314513],[-93.5785103,44.9313872],[-93.5785413,44.9312418],[-93.5786412,44.9312315],[-93.5787574,44.9312862],[-93.5788537,44.9313528],[-93.5789063,44.9314121],[-93.578952,44.9314747],[-93.5789932,44.9315406],[-93.57903,44.9316091],[-93.5790625,44.9316794],[-93.5790908,44.9317508],[-93.579115,44.9318223],[-93.5791353,44.9318934],[-93.5791496,44.9319643],[-93.5791544,44.9320372],[-93.5791524,44.9321115],[-93.5791322,44.9323364],[-93.5791298,44.9324095],[-93.5791342,44.9324807],[-93.5791481,44.9325491],[-93.5791742,44.9326141],[-93.5792148,44.9326749],[-93.5792689,44.9327316],[-93.5793338,44.9327849],[-93.5794069,44.9328357],[-93.5794855,44.9328849],[-93.5796488,44.9329816],[-93.5797281,44.9330309],[-93.5798023,44.9330818],[-93.5799383,44.9331892],[-93.5802644,44.9334683],[-93.5803979,44.9335772],[-93.580467,44.9336298],[-93.5805381,44.9336806],[-93.5806117,44.9337293],[-93.5806881,44.9337757],[-93.5807677,44.9338195],[-93.5808501,44.9338614],[-93.580935,44.9339014],[-93.5811108,44.9339773],[-93.5812924,44.9340488],[-93.5816624,44.9341862],[-93.5818452,44.9342557],[-93.5820231,44.9343281],[-93.5821094,44.9343659],[-93.5821933,44.9344052],[-93.5822747,44.9344461],[-93.5823531,44.9344888],[-93.5824283,44.9345336],[-93.5824998,44.9345807],[-93.5825674,44.9346304],[-93.5826306,44.9346828],[-93.5826893,44.9347379],[-93.5827438,44.9347956],[-93.5827945,44.9348556],[-93.5828419,44.9349177],[-93.5828862,44.9349817],[-93.5829278,44.9350472],[-93.5829672,44.9351141],[-93.5830407,44.9352513],[-93.5832106,44.9356025],[-93.583281,44.9357415],[-93.5833182,44.9358098],[-93.5833787,44.9359118],[-93.5833945,44.9363043],[-93.5833974,44.9365202],[-93.5833959,44.9365922],[-93.5833888,44.9366646],[-93.5833499,44.9368828],[-93.58334,44.936955],[-93.5833363,44.9370266],[-93.5833414,44.9370974],[-93.5833578,44.937167],[-93.5834461,44.9374559],[-93.5834981,44.9376033],[-93.583527,44.9376762],[-93.5835584,44.9377481],[-93.5835925,44.9378185],[-93.5836295,44.937887],[-93.5836698,44.9379532],[-93.5837137,44.9380166],[-93.5837615,44.9380769],[-93.5838134,44.9381337],[-93.5838699,44.9381864],[-93.5839336,44.9382335],[-93.5840086,44.9382732],[-93.5840931,44.9383064],[-93.5841857,44.9383342],[-93.5842844,44.9383575],[-93.5843877,44.9383773],[-93.5844938,44.9383947],[-93.5848122,44.9384424],[-93.5850103,44.9384793],[-93.5855967,44.9385969],[-93.587064,44.9388997],[-93.5876524,44.9390166],[-93.5880452,44.939091],[-93.5884387,44.9391614],[-93.588833,44.939227],[-93.589228,44.939287],[-93.589624,44.9393406],[-93.5898224,44.9393646],[-93.590021,44.9393867],[-93.5902204,44.939405],[-93.5903206,44.9394122],[-93.5905216,44.9394231],[-93.5906225,44.9394269],[-93.5908248,44.9394313],[-93.5911295,44.939431],[-93.5913332,44.9394267],[-93.5915373,44.9394197],[-93.5917414,44.9394104],[-93.5919456,44.9393992],[-93.5923532,44.9393726],[-93.5931618,44.9393135],[-93.593262,44.9393042],[-93.593462,44.9392822],[-93.5937608,44.9392424],[-93.5939594,44.9392122],[-93.5942566,44.939163],[-93.5951445,44.9390077],[-93.5954382,44.9389501],[-93.5961202,44.9388049],[-93.5964129,44.9387454],[-93.5967071,44.9386919],[-93.5969043,44.9386611],[-93.5970034,44.9386475],[-93.5971029,44.9386356],[-93.5972034,44.938627],[-93.5973047,44.9386215],[-93.5974067,44.9386184],[-93.5976122,44.9386177],[-93.5980244,44.9386234],[-93.5982285,44.9386216],[-93.5983296,44.9386176],[-93.5984297,44.938611],[-93.5985287,44.9386012],[-93.5986265,44.9385876],[-93.5987229,44.9385699],[-93.5992198,44.9384659],[-93.5995265,44.9383965],[-93.5997301,44.9383461],[-93.5999304,44.9382918],[-93.6001252,44.9382329],[-93.6002199,44.9382015],[-93.6003125,44.9381688],[-93.6004026,44.9381347],[-93.60049,44.9380991],[-93.6005745,44.9380619],[-93.6006557,44.938023],[-93.6007334,44.9379825],[-93.6008073,44.9379401],[-93.6008771,44.9378959],[-93.6009426,44.9378498],[-93.6010037,44.9378011],[-93.6010608,44.9377479],[-93.6011139,44.9376905],[-93.601163,44.9376291],[-93.6012082,44.9375643],[-93.6012494,44.9374963],[-93.6012867,44.9374258],[-93.6013201,44.937353],[-93.6013496,44.9372783],[-93.6013751,44.9372023],[-93.6013968,44.9371253],[-93.6014146,44.9370477],[-93.6014285,44.93697],[-93.6014386,44.9368925],[-93.6014448,44.9368157],[-93.6014472,44.9367401],[-93.6014458,44.9366659],[-93.6014405,44.9365937],[-93.6014314,44.9365238],[-93.6014185,44.9364567],[-93.6013988,44.9363917],[-93.6013704,44.9363278],[-93.6013342,44.9362649],[-93.601291,44.9362029],[-93.6012418,44.9361417],[-93.6011874,44.9360811],[-93.6011286,44.936021],[-93.6010016,44.9359019],[-93.600734,44.9356642],[-93.6006694,44.9356041],[-93.6006073,44.9355435],[-93.6005489,44.9354823],[-93.6004947,44.9354203],[-93.6004459,44.9353574],[-93.6004032,44.9352935],[-93.6003717,44.9352272],[-93.6003529,44.9351579],[-93.6003436,44.9350864],[-93.6003412,44.9350133],[-93.6003449,44.9347913],[-93.6003827,44.9346637],[-93.6044089,44.9346637],[-93.6043712,44.9407704],[-93.6035923,44.9408291],[-93.6033425,44.9408597],[-93.6027697,44.940938],[-93.6020189,44.9410357],[-93.6016942,44.9410797],[-93.6013958,44.9411234],[-93.601124,44.9411671],[-93.6008788,44.9412109],[-93.6006357,44.9412593],[-93.6004432,44.9413018],[-93.6003004,44.9413371],[-93.6001123,44.9413891],[-93.5999264,44.9414457],[-93.5997651,44.9414983],[-93.5996049,44.941553],[-93.5990358,44.9417555],[-93.5988071,44.9418349],[-93.5985765,44.9419104],[-93.5983665,44.9419734],[-93.598177,44.9420239],[-93.5979849,44.9420698],[-93.5977911,44.9421124],[-93.5973283,44.942209],[-93.5971296,44.9422524],[-93.5970561,44.9422676],[-93.5969807,44.9422809],[-93.5966981,44.9423225],[-93.5965966,44.942339],[-93.5964978,44.9423584],[-93.5964031,44.9423823],[-93.5963357,44.9424043],[-93.5962513,44.9424395]]]}}]}