{"type":"FeatureCollection","name":"osseo_border","features":[{"type":"Feature","properties":{"GNIS_FEATURE_ID":2396098,"FEATURE_NAME":"osseo","CTU_CLASS":"CITY","COUNTY_GNIS_FEATURE_ID":659472,"COUNTY_CODE":"27","COUNTY_NAME":"Hennepin","POPULATION":2642,"SE_ANNO_CAD_DATA":null},"geometry":{"type":"Polygon","coordinates":[[[-93.4021615,45.1232422],[-93.4071928,45.1233191],[-93.407202,45.1223623],[-93.4087059,45.1223915],[-93.4087263,45.1219187],[-93.4095945,45.1219337],[-93.4095654,45.1233553],[-93.413613,45.123417],[-93.4135799,45.1204347],[-93.4105346,45.1195295],[-93.4072169,45.1194588],[-93.4072516,45.1161594],[-93.4050503,45.1161159],[-93.4050565,45.1155364],[-93.4034557,45.1155281],[-93.403479,45.1106892],[-93.4023563,45.1106879],[-93.3982858,45.1106832],[-93.397397,45.1097111],[-93.3955055,45.1097239],[-93.3962084,45.1106842],[-93.3918044,45.1107618],[-93.3911881,45.1147183],[-93.3907843,45.1162121],[-93.389666,45.1192643],[-93.3891966,45.1210877],[-93.3889871,45.1233004],[-93.4021615,45.1232422]]]}}]}