{"type":"FeatureCollection","name":"pine_springs_border","features":[{"type":"Feature","properties":{"GNIS_FEATURE_ID":2396211,"FEATURE_NAME":"pine_springs","CTU_CLASS":"CITY","COUNTY_GNIS_FEATURE_ID":659526,"COUNTY_CODE":"82","COUNTY_NAME":"Washington","POPULATION":370,"SE_ANNO_CAD_DATA":null},"geometry":{"type":"Polygon","coordinates":[[[-92.9445869,45.0468374],[-92.954773,45.0468938],[-92.9547752,45.0431543],[-92.9598942,45.0431216],[-92.9598052,45.0358389],[-92.9648266,45.0358266],[-92.964757,45.032102],[-92.9646584,45.0268244],[-92.9620259,45.0265334],[-92.9617552,45.0265066],[-92.9615154,45.0264906],[-92.9612293,45.0264748],[-92.9609277,45.0264699],[-92.9606494,45.026476],[-92.9602709,45.0265262],[-92.9600932,45.026554],[-92.9595757,45.0266649],[-92.9591355,45.0267702],[-92.9587572,45.0268754],[-92.9574143,45.0273779],[-92.9542146,45.0288218],[-92.9515585,45.0300203],[-92.9512115,45.0302351],[-92.9509805,45.0304058],[-92.950757,45.0305876],[-92.9505339,45.0308296],[-92.9503572,45.0310826],[-92.9502039,45.0313409],[-92.9489841,45.0334356],[-92.9488152,45.0336831],[-92.9485845,45.033969],[-92.9483845,45.0342],[-92.9481305,45.0344422],[-92.9478377,45.0346844],[-92.9475064,45.0349377],[-92.947144,45.035169],[-92.946797,45.0353564],[-92.9458329,45.0358718],[-92.9446845,45.0358745],[-92.9445869,45.0468374]]]}}]}