{"type":"FeatureCollection","name":"plymouth_border","features":[{"type":"Feature","properties":{"GNIS_FEATURE_ID":2396242,"FEATURE_NAME":"plymouth","CTU_CLASS":"CITY","COUNTY_GNIS_FEATURE_ID":659472,"COUNTY_CODE":"27","COUNTY_NAME":"Hennepin","POPULATION":80762,"SE_ANNO_CAD_DATA":null},"geometry":{"type":"Polygon","coordinates":[[[-93.4006877,45.0657375],[-93.4149102,45.0656598],[-93.4242779,45.0656188],[-93.4395861,45.0656431],[-93.439584,45.0658684],[-93.440498,45.0658615],[-93.4405194,45.0652786],[-93.4411913,45.0646876],[-93.4436792,45.0653256],[-93.4445907,45.0655826],[-93.44544,45.0658614],[-93.4466584,45.0664167],[-93.4472388,45.0656746],[-93.4616812,45.0657436],[-93.4818956,45.065754],[-93.5002568,45.0655891],[-93.5020816,45.0655785],[-93.517358,45.0656108],[-93.5173527,45.0649777],[-93.5173518,45.0648739],[-93.5174897,45.0649265],[-93.5176682,45.0649946],[-93.517955,45.065104],[-93.5184239,45.0652909],[-93.5187089,45.0653796],[-93.5189944,45.0654324],[-93.5193039,45.065458],[-93.5214254,45.0655882],[-93.5220343,45.0656257],[-93.5221592,45.0509903],[-93.5222846,45.0436801],[-93.5223631,45.0421119],[-93.522363,45.0421119],[-93.5221348,45.0419837],[-93.521913,45.04185],[-93.5216977,45.041711],[-93.5214893,45.0415669],[-93.5214889,45.0415667],[-93.5215103,45.0415666],[-93.5215671,45.0415667],[-93.5216321,45.0415672],[-93.521697,45.0415681],[-93.5217619,45.0415695],[-93.5218268,45.0415713],[-93.5218836,45.0415732],[-93.5219484,45.0415757],[-93.5220132,45.0415787],[-93.5220699,45.0415817],[-93.5221346,45.0415854],[-93.5221993,45.0415896],[-93.5222639,45.0415942],[-93.5223285,45.0415993],[-93.5223884,45.0416043],[-93.522655,45.0362682],[-93.522254,45.0216201],[-93.5223321,45.0071273],[-93.5224019,44.9999689],[-93.5224035,44.9997754],[-93.5224246,44.9972183],[-93.5224516,44.9925865],[-93.5226504,44.9816004],[-93.511962,44.9817825],[-93.5119313,44.9799887],[-93.511351,44.9800403],[-93.510686,44.979281],[-93.5104997,44.9782112],[-93.5085891,44.9782348],[-93.5021631,44.9819684],[-93.502171,44.9783962],[-93.5002104,44.9784349],[-93.4944053,44.9784694],[-93.4815292,44.978511],[-93.461355,44.9785421],[-93.440895,44.9786732],[-93.4309695,44.9787575],[-93.4207754,44.9786095],[-93.4104674,44.9785561],[-93.4005095,44.9785035],[-93.4004091,44.9857998],[-93.40058,44.9929103],[-93.4007012,44.9999715],[-93.400743,45.0074261],[-93.4006013,45.0220043],[-93.400643,45.0367161],[-93.4007512,45.0511973],[-93.4006877,45.0657375]],[[-93.4246926,45.0035737],[-93.4245925,45.0035851],[-93.4244927,45.0035986],[-93.4243931,45.0036135],[-93.4242936,45.0036294],[-93.4241942,45.0036459],[-93.4240949,45.0036626],[-93.4239955,45.0036792],[-93.4238962,45.0036952],[-93.4237967,45.0037103],[-93.4236972,45.0037241],[-93.4235974,45.0037361],[-93.4234975,45.0037461],[-93.4233973,45.0037536],[-93.4232966,45.0037587],[-93.4231948,45.0037625],[-93.4230924,45.0037648],[-93.4229895,45.0037655],[-93.4228865,45.0037645],[-93.4227836,45.0037616],[-93.422681,45.0037568],[-93.4225792,45.0037499],[-93.4224783,45.0037408],[-93.4223786,45.0037293],[-93.4222805,45.0037154],[-93.4221842,45.0036982],[-93.4220904,45.0036742],[-93.4219989,45.003644],[-93.4219093,45.0036088],[-93.4218214,45.0035702],[-93.421735,45.0035294],[-93.4216496,45.0034879],[-93.4215651,45.0034471],[-93.4214808,45.0034069],[-93.4213968,45.0033655],[-93.4213143,45.0033223],[-93.4212344,45.0032769],[-93.4211586,45.0032287],[-93.421088,45.0031774],[-93.4210232,45.0031227],[-93.4209608,45.0030666],[-93.4209,45.0030093],[-93.4208408,45.0029511],[-93.4207828,45.002892],[-93.4207258,45.0028323],[-93.4206697,45.002772],[-93.4206141,45.0027114],[-93.4205589,45.0026505],[-93.4205038,45.0025896],[-93.4204487,45.0025288],[-93.4203932,45.0024682],[-93.4203373,45.002408],[-93.420281,45.0023481],[-93.4202252,45.0022879],[-93.4201698,45.0022276],[-93.4201147,45.0021671],[-93.4200599,45.0021064],[-93.4200051,45.0020458],[-93.4199503,45.0019851],[-93.4198955,45.0019245],[-93.4198404,45.001864],[-93.4197851,45.0018036],[-93.4197294,45.0017434],[-93.4196733,45.0016835],[-93.4196166,45.0016238],[-93.4195591,45.0015644],[-93.4195007,45.0015056],[-93.4194411,45.0014472],[-93.4193807,45.0013893],[-93.4193193,45.0013319],[-93.4192573,45.0012748],[-93.4191947,45.0012181],[-93.4191316,45.0011618],[-93.4190683,45.0011054],[-93.4190047,45.0010491],[-93.4189405,45.000993],[-93.4188753,45.0009377],[-93.4188085,45.0008834],[-93.4187399,45.0008305],[-93.4186691,45.0007792],[-93.418596,45.0007293],[-93.4185213,45.0006807],[-93.4184451,45.000633],[-93.4183678,45.0005862],[-93.4182894,45.0005402],[-93.4182102,45.0004949],[-93.4181305,45.0004502],[-93.4180504,45.000406],[-93.4179688,45.0003632],[-93.4178857,45.0003217],[-93.4178017,45.0002811],[-93.4177174,45.0002408],[-93.4176332,45.0002004],[-93.4175498,45.0001593],[-93.4174678,45.0001171],[-93.4173879,45.000073],[-93.4173131,45.0000242],[-93.4172437,44.9999712],[-93.4171786,44.9999159],[-93.4171156,44.9998595],[-93.417054,44.9998022],[-93.4169939,44.9997439],[-93.4169354,44.999685],[-93.4168784,44.9996256],[-93.4168285,44.999563],[-93.4167844,44.9994979],[-93.4167451,44.9994303],[-93.4167054,44.9993633],[-93.4166375,44.9993129],[-93.4165486,44.9992744],[-93.4164599,44.9992362],[-93.4163924,44.9991867],[-93.4163591,44.9991186],[-93.416337,44.999046],[-93.4163069,44.9989748],[-93.4162904,44.9989039],[-93.4163095,44.998836],[-93.4163479,44.9987694],[-93.4163954,44.9987038],[-93.4164434,44.9986393],[-93.4164931,44.9985762],[-93.4165465,44.9985143],[-93.4166008,44.9984526],[-93.4166529,44.9983904],[-93.4166998,44.9983269],[-93.4167387,44.9982614],[-93.4167691,44.9981933],[-93.4167935,44.9981235],[-93.4168129,44.9980523],[-93.4168281,44.9979804],[-93.41684,44.9979082],[-93.4168493,44.9978364],[-93.4168562,44.9977646],[-93.4168586,44.9976923],[-93.4168563,44.9976197],[-93.4168486,44.9975475],[-93.4168354,44.9974763],[-93.4168157,44.9974061],[-93.416789,44.9973362],[-93.4167558,44.9972674],[-93.4167169,44.9972003],[-93.4166727,44.9971358],[-93.4166205,44.9970747],[-93.4165612,44.9970162],[-93.4164987,44.9969588],[-93.4164367,44.9969013],[-93.4163785,44.9968422],[-93.4163229,44.9967817],[-93.4162662,44.9967219],[-93.4162046,44.996665],[-93.4161324,44.9966139],[-93.41605,44.9965719],[-93.4159653,44.9965324],[-93.41588,44.9964935],[-93.4157942,44.996455],[-93.415708,44.9964169],[-93.4156216,44.9963791],[-93.4155351,44.9963413],[-93.4154486,44.9963034],[-93.4153102,44.9962421],[-93.415889,44.995868],[-93.4154162,44.995577],[-93.4157486,44.9953169],[-93.414568,44.9948921],[-93.4150499,44.9943362],[-93.4157679,44.9946016],[-93.4157891,44.9937118],[-93.4169565,44.9936555],[-93.4169435,44.993195],[-93.4158564,44.9931014],[-93.4157974,44.9928917],[-93.4175326,44.9928133],[-93.4177841,44.9920817],[-93.4209112,44.9920538],[-93.42088,44.9927342],[-93.4191943,44.9927617],[-93.4192278,44.9930574],[-93.4214018,44.9930683],[-93.4214,44.9955387],[-93.4213384,44.9955959],[-93.4212767,44.9956531],[-93.4212149,44.9957103],[-93.4211533,44.9957675],[-93.4210917,44.9958247],[-93.4210304,44.9958821],[-93.4209692,44.9959396],[-93.4209077,44.9959969],[-93.420846,44.9960541],[-93.4207842,44.9961113],[-93.4207223,44.9961685],[-93.4206606,44.9962256],[-93.420599,44.9962829],[-93.4205376,44.9963404],[-93.4204767,44.9963979],[-93.4204162,44.9964557],[-93.4203562,44.9965138],[-93.420297,44.9965722],[-93.4202385,44.9966309],[-93.4201796,44.99669],[-93.4201201,44.9967496],[-93.4200626,44.9968102],[-93.4200097,44.9968723],[-93.419964,44.9969363],[-93.4199284,44.9970027],[-93.4199,44.9970709],[-93.4198746,44.9971402],[-93.419852,44.9972103],[-93.4198319,44.997281],[-93.4198139,44.9973523],[-93.4197978,44.997424],[-93.4197833,44.9974959],[-93.4197702,44.9975679],[-93.4197581,44.9976397],[-93.4197468,44.9977114],[-93.4197367,44.9977828],[-93.4197297,44.9978547],[-93.4197256,44.9979267],[-93.4197242,44.997999],[-93.4197253,44.9980712],[-93.4197287,44.9981434],[-93.419734,44.9982154],[-93.4197411,44.9982871],[-93.4197501,44.9983588],[-93.4197607,44.9984304],[-93.4197728,44.9985019],[-93.4197863,44.9985734],[-93.419801,44.9986448],[-93.4198166,44.9987161],[-93.419833,44.9987873],[-93.4198501,44.9988583],[-93.4198676,44.9989291],[-93.4198875,44.9990002],[-93.4199121,44.9990706],[-93.4199435,44.9991391],[-93.4199837,44.9992047],[-93.4200315,44.9992678],[-93.4200842,44.9993294],[-93.420139,44.9993905],[-93.4201934,44.9994517],[-93.4202447,44.999514],[-93.4202905,44.9995781],[-93.4203305,44.9996444],[-93.4203655,44.9997122],[-93.4203948,44.9997813],[-93.420417,44.9998525],[-93.4204372,44.9999242],[-93.4204612,44.9999944],[-93.4204948,45.0000611],[-93.4205428,45.0001229],[-93.4206038,45.0001807],[-93.4206732,45.0002349],[-93.4207468,45.000286],[-93.4208207,45.000336],[-93.4208966,45.0003876],[-93.4209763,45.0004356],[-93.4210616,45.0004741],[-93.421154,45.0004977],[-93.421251,45.000511],[-93.4213506,45.0005188],[-93.4214523,45.0005226],[-93.4215552,45.0005241],[-93.4216587,45.000525],[-93.421762,45.000527],[-93.4218645,45.0005317],[-93.4219655,45.0005407],[-93.4220644,45.0005553],[-93.4221626,45.0005721],[-93.4222606,45.0005901],[-93.4223583,45.0006093],[-93.4224557,45.0006296],[-93.4225529,45.0006508],[-93.4226498,45.0006729],[-93.4227464,45.0006958],[-93.4228427,45.0007194],[-93.4229388,45.0007435],[-93.4230345,45.0007681],[-93.42313,45.0007931],[-93.4232251,45.0008184],[-93.42332,45.0008438],[-93.4234148,45.0008695],[-93.4235097,45.0008953],[-93.4236045,45.0009212],[-93.4236992,45.0009474],[-93.4237938,45.0009739],[-93.4238883,45.0010006],[-93.4239827,45.0010276],[-93.4240768,45.0010549],[-93.4241707,45.0010826],[-93.4242644,45.0011107],[-93.4243577,45.0011392],[-93.4244508,45.0011681],[-93.4245435,45.0011975],[-93.4246358,45.0012273],[-93.4247277,45.0012577],[-93.4248191,45.0012886],[-93.4249101,45.0013201],[-93.4250003,45.0013524],[-93.4250881,45.001388],[-93.4251735,45.0014267],[-93.4252572,45.0014677],[-93.4253398,45.0015101],[-93.4254219,45.0015531],[-93.4255042,45.001596],[-93.4255872,45.0016377],[-93.4256717,45.0016776],[-93.4257583,45.0017147],[-93.4258486,45.0017471],[-93.4259426,45.0017746],[-93.4260384,45.0017997],[-93.4261342,45.0018246],[-93.4262281,45.0018519],[-93.4263179,45.0018847],[-93.4263966,45.0019317],[-93.426459,45.0019884],[-93.4265193,45.002048],[-93.4265753,45.0021098],[-93.4266226,45.0021734],[-93.4266558,45.0022391],[-93.426661,45.0023124],[-93.4266394,45.002385],[-93.4266026,45.0024513],[-93.4265632,45.0025176],[-93.4265212,45.0025836],[-93.4264766,45.002649],[-93.4264293,45.0027135],[-93.4263792,45.0027766],[-93.4263262,45.0028381],[-93.4262702,45.0028976],[-93.4262105,45.0029556],[-93.4261474,45.0030124],[-93.4260811,45.0030676],[-93.4260119,45.0031211],[-93.4259403,45.0031728],[-93.4258664,45.0032225],[-93.4257908,45.0032701],[-93.4257129,45.0033165],[-93.4256324,45.0033622],[-93.4255496,45.0034062],[-93.4254645,45.0034478],[-93.4253773,45.003486],[-93.4252884,45.00352],[-93.4251977,45.0035489],[-93.4251035,45.003568],[-93.4250034,45.0035738],[-93.4248998,45.0035724],[-93.4247954,45.0035702],[-93.4246926,45.0035737]]]}}]}