{"type":"FeatureCollection","name":"prior_lake_border","features":[{"type":"Feature","properties":{"GNIS_FEATURE_ID":2396284,"FEATURE_NAME":"prior_lake","CTU_CLASS":"CITY","COUNTY_GNIS_FEATURE_ID":659514,"COUNTY_CODE":"70","COUNTY_NAME":"Scott","POPULATION":27855,"SE_ANNO_CAD_DATA":null},"geometry":{"type":"Polygon","coordinates":[[[-93.5119377,44.7105534],[-93.5120108,44.7069179],[-93.5106701,44.7069496],[-93.5066769,44.7070312],[-93.5067005,44.7036014],[-93.5053512,44.7036121],[-93.5053028,44.7070171],[-93.5018704,44.7070548],[-93.5018394,44.7071199],[-93.5018178,44.7071884],[-93.501785,44.7072441],[-93.5017371,44.7073235],[-93.5016506,44.707405],[-93.5016292,44.7074576],[-93.5017294,44.707451],[-93.5018666,44.7075374],[-93.5018015,44.7076071],[-93.5017348,44.7076639],[-93.5016643,44.7077218],[-93.5015699,44.7078101],[-93.5014936,44.7078491],[-93.5013626,44.7078685],[-93.5011611,44.7078957],[-93.5009853,44.707913],[-93.5008951,44.7079145],[-93.5007812,44.7079076],[-93.5006002,44.7078908],[-93.5005083,44.7078927],[-93.5003925,44.7078736],[-93.5002372,44.7078588],[-93.5001543,44.7078589],[-93.5000702,44.7078452],[-93.4999688,44.7078309],[-93.49988,44.70783],[-93.4998006,44.7078328],[-93.4994202,44.7078545],[-93.4992306,44.707899],[-93.4990978,44.7079329],[-93.498997,44.7079567],[-93.498897,44.7079905],[-93.4988065,44.7080488],[-93.498771,44.7081059],[-93.4987774,44.7081655],[-93.4988351,44.7081966],[-93.4989261,44.7082116],[-93.4990253,44.7082119],[-93.4991296,44.7082216],[-93.4992263,44.7082286],[-93.4993405,44.7082315],[-93.4995816,44.7083012],[-93.4997707,44.7083391],[-93.4998969,44.708387],[-93.5000126,44.7084433],[-93.5001998,44.7085434],[-93.5002492,44.70859],[-93.5003084,44.7086236],[-93.5004424,44.7087178],[-93.5005009,44.7087674],[-93.5006844,44.7089271],[-93.5007704,44.7089601],[-93.5008721,44.7089771],[-93.5010454,44.7089827],[-93.5011331,44.7089796],[-93.5012425,44.7089584],[-93.5013172,44.7089111],[-93.5013789,44.7088769],[-93.501579,44.7087021],[-93.5016044,44.7086231],[-93.5016304,44.7085321],[-93.5016596,44.7084805],[-93.501706,44.708415],[-93.5016964,44.7083386],[-93.5016402,44.7082225],[-93.5015846,44.7081266],[-93.5015145,44.7080595],[-93.5015108,44.7079601],[-93.5015757,44.7078956],[-93.5016813,44.7078137],[-93.5018155,44.7076908],[-93.501993,44.7075887],[-93.5020803,44.70763],[-93.5021944,44.7076846],[-93.5023202,44.7077411],[-93.5024533,44.7078193],[-93.5025712,44.7079006],[-93.5026909,44.7079427],[-93.5028256,44.7080245],[-93.5030606,44.7081313],[-93.5031327,44.7081949],[-93.5033218,44.7083208],[-93.5033855,44.7083842],[-93.5035151,44.708448],[-93.5036162,44.7085158],[-93.5037259,44.7086648],[-93.5037466,44.70872],[-93.5037659,44.7087788],[-93.503803,44.7088332],[-93.5038141,44.7089167],[-93.503827,44.7089943],[-93.5038662,44.7090465],[-93.5038805,44.7090967],[-93.5038839,44.7092003],[-93.5039472,44.7093089],[-93.5040048,44.7093614],[-93.5040497,44.7094338],[-93.5041028,44.7094744],[-93.5041845,44.7095275],[-93.5041584,44.7096209],[-93.5041208,44.7097282],[-93.5041179,44.7097888],[-93.5041461,44.7099323],[-93.5041995,44.7099669],[-93.5042614,44.7099993],[-93.5043179,44.7100547],[-93.5043506,44.7101224],[-93.5043569,44.7101818],[-93.5043955,44.7102493],[-93.5044601,44.7102752],[-93.5045381,44.7103019],[-93.5045472,44.7103737],[-93.5044494,44.7104296],[-93.5043457,44.7104354],[-93.5041787,44.7104064],[-93.5040519,44.7103713],[-93.5038689,44.7103252],[-93.5037597,44.7102726],[-93.5036709,44.7102443],[-93.5035653,44.7102204],[-93.5034231,44.7101413],[-93.5032928,44.7100223],[-93.5032213,44.710017],[-93.5031442,44.7100246],[-93.5030522,44.7100307],[-93.5028754,44.7101013],[-93.5027673,44.7101642],[-93.5026499,44.710247],[-93.5025928,44.7102908],[-93.502504,44.7103362],[-93.50239,44.7103823],[-93.5022831,44.7104189],[-93.5021793,44.7104283],[-93.502081,44.7104248],[-93.5019391,44.7103916],[-93.5018341,44.7103915],[-93.5017039,44.7103919],[-93.5015591,44.7104205],[-93.5014744,44.7104482],[-93.5013693,44.710448],[-93.5012812,44.7104423],[-93.501124,44.7103803],[-93.5010104,44.7102788],[-93.5009318,44.7102187],[-93.5008698,44.7101791],[-93.5008277,44.7101346],[-93.5007548,44.7100704],[-93.5006597,44.7099813],[-93.5006354,44.7099308],[-93.5005812,44.7098533],[-93.5005073,44.7097775],[-93.5004016,44.7096747],[-93.5003306,44.709615],[-93.5002515,44.7095712],[-93.5001721,44.709538],[-93.5000781,44.7095408],[-93.4999713,44.7095412],[-93.4998555,44.7095485],[-93.4997147,44.7095457],[-93.4995542,44.7095344],[-93.4994342,44.7095238],[-93.4993238,44.7094964],[-93.4991102,44.7094368],[-93.4990022,44.7093872],[-93.4988976,44.7093356],[-93.4988149,44.7093012],[-93.4987422,44.7092468],[-93.4986369,44.7091778],[-93.498588,44.7091354],[-93.4985519,44.7090884],[-93.4984792,44.7090146],[-93.4983459,44.7089732],[-93.4982024,44.7089463],[-93.4981209,44.7089364],[-93.4980382,44.7089307],[-93.4979261,44.7089289],[-93.4978303,44.7089349],[-93.4977399,44.7089373],[-93.4976037,44.7089152],[-93.4975295,44.7089062],[-93.4974437,44.7088995],[-93.4973432,44.7089079],[-93.4972083,44.7089015],[-93.4970974,44.7088753],[-93.4969875,44.7088456],[-93.4968965,44.7088427],[-93.4968106,44.7088345],[-93.4966269,44.7087915],[-93.4964864,44.7087735],[-93.4963869,44.7087536],[-93.4962626,44.7087451],[-93.496067,44.7087388],[-93.4959633,44.7087684],[-93.4958645,44.70877],[-93.4957436,44.7087597],[-93.4956555,44.70873],[-93.4955821,44.7086892],[-93.4955184,44.7085929],[-93.49542,44.7086785],[-93.4954158,44.7079307],[-93.4954994,44.7079083],[-93.4957834,44.7078123],[-93.49597,44.7076765],[-93.496106,44.7075703],[-93.4961401,44.7074843],[-93.4963014,44.7073378],[-93.4964062,44.7072202],[-93.4964202,44.7071372],[-93.4964638,44.7070277],[-93.4964357,44.7069336],[-93.496437,44.7068189],[-93.4964521,44.7067294],[-93.4964074,44.706425],[-93.4964575,44.7063008],[-93.4966453,44.7061043],[-93.4969005,44.7060688],[-93.4971859,44.7060127],[-93.4971923,44.7058618],[-93.4970412,44.7057249],[-93.4965955,44.7054501],[-93.4964424,44.7051977],[-93.4963888,44.7049407],[-93.496402,44.7046639],[-93.4964463,44.7043622],[-93.4965238,44.7041714],[-93.4966991,44.7039919],[-93.4969518,44.7039213],[-93.4973314,44.7039715],[-93.4974157,44.704039],[-93.4975497,44.7040464],[-93.4976772,44.7041178],[-93.4978075,44.7040788],[-93.4983841,44.7041593],[-93.4987106,44.7042017],[-93.4990185,44.7042341],[-93.4993836,44.7043066],[-93.4996384,44.7043157],[-93.4998395,44.7043646],[-93.5000769,44.7042835],[-93.5005896,44.7043821],[-93.5006136,44.7036394],[-93.4955445,44.7036306],[-93.4957433,44.6963049],[-93.4906778,44.6962699],[-93.4888665,44.6962574],[-93.4877691,44.6962691],[-93.4879044,44.6964781],[-93.4879177,44.6970751],[-93.4876951,44.6974119],[-93.4873409,44.6974145],[-93.4868979,44.6975113],[-93.4866863,44.69776],[-93.4866893,44.698122],[-93.4870379,44.698273],[-93.4874389,44.6983094],[-93.4877798,44.6991373],[-93.4878908,44.6999218],[-93.4879157,44.7005156],[-93.4877447,44.7015276],[-93.4874312,44.7023686],[-93.4866672,44.7032615],[-93.4860202,44.7035728],[-93.4846628,44.7044097],[-93.4836908,44.7052769],[-93.482935,44.7056818],[-93.4817853,44.7059935],[-93.480524,44.7060536],[-93.4799528,44.7061078],[-93.479725,44.7061089],[-93.4792767,44.706133],[-93.479014,44.7061573],[-93.4787244,44.7061902],[-93.4782381,44.7062305],[-93.4778903,44.7062086],[-93.4771922,44.7061234],[-93.4770185,44.7060993],[-93.476846,44.7060718],[-93.4766754,44.7060395],[-93.4764581,44.7059927],[-93.476266,44.7059481],[-93.4758349,44.7058447],[-93.4754212,44.7057626],[-93.475218,44.7056933],[-93.4751203,44.7056836],[-93.4749942,44.7056794],[-93.4748668,44.7056798],[-93.4747397,44.705684],[-93.4746643,44.7056881],[-93.4741908,44.7057438],[-93.4733035,44.7058447],[-93.4728218,44.7058454],[-93.4725033,44.7058903],[-93.472094,44.7060037],[-93.4718945,44.7060772],[-93.4716052,44.7061505],[-93.4713434,44.7061779],[-93.4710016,44.7062886],[-93.4705118,44.7063361],[-93.4704176,44.7063442],[-93.4701181,44.7063758],[-93.4699269,44.706393],[-93.4693582,44.7064192],[-93.46916,44.7064109],[-93.4686257,44.7063733],[-93.4682611,44.7063655],[-93.4680206,44.706372],[-93.467676,44.706389],[-93.4667094,44.7063634],[-93.4660981,44.7062989],[-93.4656287,44.7062115],[-93.4651362,44.7061077],[-93.4651164,44.7061741],[-93.4636888,44.7059201],[-93.463813,44.7057357],[-93.4635358,44.7056278],[-93.463395,44.7057166],[-93.4610335,44.7038869],[-93.4613708,44.7036302],[-93.460825,44.7031521],[-93.4600253,44.7031065],[-93.4599823,44.703075],[-93.4602119,44.702926],[-93.4597069,44.7028687],[-93.4588925,44.7028341],[-93.4583355,44.7027661],[-93.4573615,44.7024106],[-93.4568351,44.7021436],[-93.4567243,44.7021932],[-93.4566365,44.7020901],[-93.4564238,44.7016642],[-93.4564074,44.700903],[-93.4565963,44.6999864],[-93.4568316,44.6994598],[-93.4567957,44.6994593],[-93.456917,44.6991962],[-93.458094,44.6987832],[-93.4594408,44.6981362],[-93.4599251,44.6981067],[-93.4599604,44.6970282],[-93.4600232,44.6969657],[-93.4601467,44.6968068],[-93.4603434,44.6967424],[-93.4603708,44.6954965],[-93.4600491,44.695493],[-93.4600547,44.6953748],[-93.4597549,44.6952542],[-93.4513294,44.6990311],[-93.4513397,44.6990427],[-93.4506894,44.6993356],[-93.4506791,44.699324],[-93.4497769,44.6997314],[-93.4497837,44.699501],[-93.4443545,44.7019649],[-93.4410221,44.7033689],[-93.4395622,44.7034472],[-93.4395639,44.7033621],[-93.4404994,44.7033147],[-93.4446336,44.7016153],[-93.4467015,44.7006578],[-93.4466733,44.700617],[-93.4486854,44.6996806],[-93.4485049,44.6994773],[-93.4491888,44.699449],[-93.450179,44.6989984],[-93.4502292,44.6990382],[-93.4597319,44.6947685],[-93.4600829,44.6943069],[-93.4601726,44.6941942],[-93.460208,44.6930854],[-93.4600761,44.6930859],[-93.458011,44.6931177],[-93.4580201,44.6926788],[-93.4572485,44.6926922],[-93.4572442,44.692545],[-93.4568598,44.6925506],[-93.4568694,44.6921118],[-93.4602329,44.6920541],[-93.4603103,44.6884476],[-93.4551924,44.6885285],[-93.45519,44.6886195],[-93.4527158,44.6886391],[-93.4527712,44.6902874],[-93.4512863,44.6903157],[-93.4512837,44.6904189],[-93.4500219,44.6904346],[-93.4500161,44.6906171],[-93.4512767,44.6905994],[-93.4512294,44.6926873],[-93.4499581,44.6927057],[-93.4499696,44.6917969],[-93.4467967,44.6918879],[-93.4467911,44.6923089],[-93.4453689,44.69234],[-93.4454312,44.6923759],[-93.4454308,44.6924403],[-93.4454056,44.6924945],[-93.4452671,44.6926354],[-93.445163,44.6927252],[-93.4450612,44.692801],[-93.4449869,44.6928752],[-93.4448048,44.6930399],[-93.4447185,44.6931294],[-93.444674,44.6931817],[-93.4446402,44.6932384],[-93.4445988,44.6933338],[-93.4445976,44.6934032],[-93.4446026,44.6934596],[-93.4446124,44.6935333],[-93.4446733,44.6936595],[-93.4447589,44.6937437],[-93.4448625,44.6937928],[-93.445282,44.6939382],[-93.4454347,44.6939689],[-93.4456567,44.6940313],[-93.4457642,44.694076],[-93.4459259,44.6941257],[-93.4461546,44.6942098],[-93.4462065,44.6942559],[-93.446246,44.6943012],[-93.4462945,44.694365],[-93.4463358,44.6944234],[-93.4463644,44.6944971],[-93.4463657,44.6945644],[-93.4463525,44.6946439],[-93.4463624,44.694712],[-93.4463426,44.6948043],[-93.4463252,44.6948998],[-93.4462987,44.6949663],[-93.4461918,44.695181],[-93.4461522,44.6952518],[-93.4461069,44.6952991],[-93.4460429,44.6953838],[-93.4459908,44.6954478],[-93.4459322,44.6955307],[-93.4458916,44.695581],[-93.4458136,44.6956646],[-93.4457589,44.6957253],[-93.4457133,44.6957852],[-93.4456556,44.6958363],[-93.4455195,44.6960063],[-93.4397056,44.6962399],[-93.4395399,44.7017043],[-93.4394221,44.7017439],[-93.4393366,44.7017723],[-93.4390715,44.7017538],[-93.4386854,44.7016767],[-93.4384065,44.701567],[-93.4381844,44.7014498],[-93.4381139,44.7014209],[-93.438012,44.7014412],[-93.4379521,44.7014982],[-93.4379092,44.7015449],[-93.4377908,44.7016423],[-93.437332,44.7020072],[-93.4370818,44.7021536],[-93.4367371,44.702295],[-93.4363303,44.7024022],[-93.4359209,44.7025414],[-93.4355323,44.7026514],[-93.4351994,44.7027314],[-93.4347579,44.702779],[-93.4345171,44.702781],[-93.4343765,44.7027658],[-93.4342473,44.7027555],[-93.4341672,44.7027542],[-93.4340841,44.7026835],[-93.4340277,44.7025578],[-93.4340342,44.7024212],[-93.4342353,44.7021094],[-93.4345077,44.7011612],[-93.4346935,44.7008135],[-93.4349449,44.7002811],[-93.4349928,44.7002357],[-93.4350466,44.7001583],[-93.4351093,44.7000102],[-93.4351432,44.6997677],[-93.4351527,44.6995715],[-93.4351293,44.6994184],[-93.4351342,44.6993131],[-93.4351662,44.6991905],[-93.4352261,44.6991102],[-93.4353092,44.6990438],[-93.4353939,44.6989673],[-93.4354123,44.6988076],[-93.4345319,44.6988023],[-93.4345753,44.6961099],[-93.4294991,44.6961504],[-93.4295278,44.6922762],[-93.424944,44.6922854],[-93.4249124,44.6956106],[-93.4255023,44.6958646],[-93.4260297,44.6961359],[-93.4260962,44.696171],[-93.4258732,44.6961724],[-93.4257287,44.6960903],[-93.4254328,44.6959353],[-93.4251758,44.6958157],[-93.4249331,44.6957112],[-93.4243971,44.6955094],[-93.4240156,44.6953403],[-93.4235466,44.6950922],[-93.4232537,44.6949086],[-93.4225829,44.6944531],[-93.4193349,44.6944728],[-93.4193353,44.6944443],[-93.4142282,44.6943394],[-93.4142641,44.6912366],[-93.415065,44.6912612],[-93.4161694,44.6900432],[-93.4164248,44.6899293],[-93.416826,44.6893859],[-93.4167347,44.6893273],[-93.4166343,44.6892717],[-93.4165123,44.6892176],[-93.4163992,44.6891777],[-93.4162904,44.6891481],[-93.4162179,44.6891321],[-93.4161477,44.6891196],[-93.4163524,44.6890658],[-93.4163536,44.6889753],[-93.4092114,44.6888458],[-93.4066924,44.6888121],[-93.4041662,44.6887699],[-93.4041384,44.6905839],[-93.4066706,44.6906218],[-93.4066765,44.6906235],[-93.4066605,44.6924347],[-93.4043128,44.6923954],[-93.404142,44.6923925],[-93.4041105,44.6933857],[-93.4040639,44.6934956],[-93.4040081,44.6936049],[-93.403964,44.6936804],[-93.403909,44.6937693],[-93.4037613,44.6939528],[-93.4036183,44.6941033],[-93.40355,44.6941688],[-93.4035499,44.6941689],[-93.4014335,44.6960057],[-93.3989154,44.6982284],[-93.3989097,44.6984939],[-93.3990366,44.6984956],[-93.3990416,44.698261],[-93.4016353,44.6960012],[-93.4022564,44.6954731],[-93.4066083,44.6955233],[-93.4066018,44.6960305],[-93.4058485,44.696942],[-93.405831,44.6977648],[-93.4051761,44.6977559],[-93.4045037,44.6985699],[-93.4058137,44.6985875],[-93.4058038,44.6990608],[-93.4011702,44.6989982],[-93.4011564,44.6996546],[-93.3988859,44.6996242],[-93.3989085,44.6985366],[-93.3988848,44.6985984],[-93.3988609,44.6986648],[-93.3988386,44.6987315],[-93.3988179,44.6987985],[-93.3987988,44.6988657],[-93.3987898,44.6988996],[-93.398773,44.6989672],[-93.3987578,44.6990349],[-93.3987442,44.6991028],[-93.3987323,44.6991708],[-93.398722,44.699239],[-93.3987132,44.6993073],[-93.3987061,44.6993757],[-93.3987007,44.6994441],[-93.3986968,44.6995126],[-93.3986944,44.6995812],[-93.3986778,44.7005051],[-93.3986775,44.7005356],[-93.3986757,44.7006041],[-93.3986694,44.7006726],[-93.3986585,44.7007407],[-93.3986432,44.7008084],[-93.3986233,44.7008755],[-93.3985989,44.7009418],[-93.3985701,44.7010073],[-93.3985369,44.7010716],[-93.3984995,44.7011348],[-93.3984579,44.7011966],[-93.3979646,44.7018865],[-93.3977868,44.7021299],[-93.3953191,44.7012129],[-93.3952696,44.7031754],[-93.3970849,44.7031881],[-93.3971,44.7069691],[-93.3988282,44.7069804],[-93.398842,44.7102389],[-93.398842,44.7102394],[-93.3988709,44.7173008],[-93.398758,44.7277494],[-93.3897634,44.7316636],[-93.3896959,44.7316982],[-93.3896293,44.7317324],[-93.3895524,44.7317718],[-93.3894652,44.7318165],[-93.3893985,44.7318506],[-93.3893267,44.7318874],[-93.389237,44.7319334],[-93.3891371,44.7319846],[-93.3890533,44.7320276],[-93.3889628,44.732074],[-93.3888911,44.7321109],[-93.3888143,44.7321504],[-93.3887171,44.7322005],[-93.38863,44.7322453],[-93.3885447,44.7322881],[-93.388469,44.7323252],[-93.3884009,44.7323582],[-93.3883171,44.7323988],[-93.3882335,44.7324397],[-93.3881431,44.7324851],[-93.3880539,44.7325317],[-93.3879742,44.7325757],[-93.3878964,44.7326214],[-93.387821,44.7326689],[-93.3877558,44.7327113],[-93.387686,44.732757],[-93.3876025,44.7328121],[-93.3875193,44.7328676],[-93.3874501,44.7329142],[-93.3873813,44.732961],[-93.3872879,44.7330255],[-93.3871885,44.7330954],[-93.3871101,44.7331514],[-93.3870437,44.7331999],[-93.3869909,44.7332389],[-93.3869343,44.7332814],[-93.3868653,44.7333341],[-93.3867929,44.7333906],[-93.3867258,44.7334443],[-93.3866597,44.7334984],[-93.3865947,44.7335531],[-93.3865308,44.7336082],[-93.3864698,44.7336648],[-93.3864139,44.733724],[-93.3863687,44.7337778],[-93.3863233,44.733837],[-93.3862774,44.7339016],[-93.3862332,44.733967],[-93.3862006,44.7340163],[-93.3861679,44.7340656],[-93.3861238,44.7341311],[-93.3860778,44.7341956],[-93.3835968,44.7372254],[-93.3806186,44.7409987],[-93.3805755,44.7410543],[-93.3805394,44.7411117],[-93.3805047,44.7411745],[-93.3804743,44.7412289],[-93.3804437,44.7412833],[-93.380413,44.7413376],[-93.3803823,44.741392],[-93.3803397,44.7414673],[-93.3803043,44.7415301],[-93.3802761,44.7415803],[-93.3802434,44.741639],[-93.3802017,44.7417145],[-93.3801629,44.741786],[-93.3801271,44.7418534],[-93.3800897,44.7419251],[-93.3800554,44.7419928],[-93.380022,44.7420606],[-93.3799896,44.7421287],[-93.3799583,44.742197],[-93.3799283,44.7422655],[-93.3799006,44.7423345],[-93.3798784,44.7423954],[-93.3798569,44.7424612],[-93.3798373,44.7425273],[-93.379819,44.742596],[-93.3797986,44.7426806],[-93.3797826,44.7427543],[-93.3797682,44.7428258],[-93.3797548,44.7428974],[-93.3797443,44.7429554],[-93.379735,44.7430089],[-93.3797238,44.7430804],[-93.3797138,44.743152],[-93.3797043,44.7432282],[-93.3796938,44.7433247],[-93.3796847,44.7434167],[-93.3796794,44.7434752],[-93.3796743,44.7435337],[-93.3796692,44.7435921],[-93.379664,44.7436528],[-93.3796564,44.7437383],[-93.3796499,44.7438079],[-93.3796432,44.7438753],[-93.379497,44.7462809],[-93.382089,44.7463446],[-93.3845019,44.746384],[-93.3853788,44.7463998],[-93.387368,44.7464336],[-93.3939437,44.7464668],[-93.3990294,44.7465219],[-93.3990058,44.75376],[-93.4193188,44.7538957],[-93.4192956,44.7612345],[-93.4293228,44.7612412],[-93.4292977,44.7576081],[-93.4395676,44.7576118],[-93.4396728,44.7540284],[-93.449448,44.7539113],[-93.4493516,44.7576737],[-93.4595915,44.7576899],[-93.4595355,44.7539052],[-93.4797712,44.7539015],[-93.4798817,44.7499762],[-93.4799287,44.746607],[-93.479968,44.7436241],[-93.4799721,44.7433156],[-93.4801174,44.7322699],[-93.4903587,44.7320586],[-93.4904092,44.7176361],[-93.5004549,44.7177557],[-93.5020563,44.7177516],[-93.5056927,44.7177131],[-93.5056937,44.7157301],[-93.5081157,44.7157285],[-93.5080941,44.7140997],[-93.5106352,44.7140842],[-93.510612,44.7105677],[-93.5119377,44.7105534]],[[-93.404085,44.6941425],[-93.4040843,44.6941896],[-93.4037149,44.6941843],[-93.4037631,44.6941372],[-93.404085,44.6941425]],[[-93.4908416,44.7069609],[-93.4908394,44.7070984],[-93.4906086,44.7070964],[-93.4906045,44.7082451],[-93.4907687,44.7082374],[-93.4907657,44.7083818],[-93.4905871,44.7083751],[-93.4906245,44.7104962],[-93.4803406,44.7105497],[-93.4803974,44.7081177],[-93.4853244,44.7081076],[-93.4853388,44.7070081],[-93.4904172,44.7070425],[-93.4904293,44.706329],[-93.4906136,44.7063331],[-93.4906109,44.7069589],[-93.4908416,44.7069609]],[[-93.4903199,44.7127644],[-93.4902986,44.7140197],[-93.4902371,44.717634],[-93.4851445,44.7176074],[-93.4852165,44.7140779],[-93.4870019,44.7140795],[-93.4870246,44.71274],[-93.4903199,44.7127644]]]}}]}