{"type":"FeatureCollection","name":"ramsey_border","features":[{"type":"Feature","properties":{"GNIS_FEATURE_ID":2396311,"FEATURE_NAME":"ramsey","CTU_CLASS":"CITY","COUNTY_GNIS_FEATURE_ID":659447,"COUNTY_CODE":"02","COUNTY_NAME":"Anoka","POPULATION":28712,"SE_ANNO_CAD_DATA":null},"geometry":{"type":"Polygon","coordinates":[[[-93.3885278,45.298903],[-93.3914507,45.2989398],[-93.4088343,45.2991593],[-93.4292646,45.2991427],[-93.4393907,45.2992211],[-93.4497107,45.2992215],[-93.4698463,45.2992751],[-93.4902226,45.2993522],[-93.5002589,45.2993108],[-93.5110802,45.2993055],[-93.5115109,45.2848747],[-93.5120112,45.2704216],[-93.5125033,45.2558861],[-93.5123693,45.2499657],[-93.5123185,45.245745],[-93.5097261,45.2448858],[-93.50759,45.2440913],[-93.5048818,45.2430512],[-93.5029011,45.2422796],[-93.5017732,45.2417004],[-93.5013102,45.2414224],[-93.5003561,45.2406241],[-93.5002578,45.2405137],[-93.4995676,45.2395619],[-93.4986729,45.2384203],[-93.4982047,45.2374889],[-93.497755,45.2361118],[-93.4974167,45.235511],[-93.4963301,45.2340165],[-93.4950079,45.2328351],[-93.4931361,45.2313],[-93.4906831,45.2294329],[-93.4887546,45.2282278],[-93.4868198,45.2268354],[-93.4854027,45.2259288],[-93.483757,45.2254562],[-93.4816202,45.2251529],[-93.4789992,45.2251454],[-93.4765797,45.2252264],[-93.4744065,45.2256604],[-93.4721727,45.2258684],[-93.4699396,45.2259663],[-93.4667685,45.2256541],[-93.4650218,45.2251976],[-93.4632792,45.2241851],[-93.4616329,45.2227932],[-93.4590163,45.2211616],[-93.4570165,45.2202584],[-93.4552143,45.2199777],[-93.4529841,45.2197231],[-93.4508182,45.2192044],[-93.4487868,45.2183835],[-93.4460967,45.2172798],[-93.4445836,45.2168457],[-93.4424779,45.2166078],[-93.4408593,45.2167401],[-93.4390128,45.2171634],[-93.4359269,45.2179624],[-93.4342687,45.2181826],[-93.4330095,45.2180959],[-93.4318459,45.2177234],[-93.4268168,45.2154556],[-93.4260173,45.2150108],[-93.4225426,45.2159538],[-93.4215861,45.21724],[-93.4218317,45.2172992],[-93.4217054,45.2176177],[-93.4209647,45.2178315],[-93.4201685,45.2174649],[-93.4195605,45.2187673],[-93.4196355,45.219464],[-93.4202101,45.2194523],[-93.4202092,45.226624],[-93.4196881,45.2266192],[-93.4192836,45.2265481],[-93.4188712,45.2263286],[-93.4175842,45.2255601],[-93.4170327,45.2253108],[-93.4162748,45.2251909],[-93.4092709,45.2248995],[-93.4020032,45.224366],[-93.3986735,45.2240284],[-93.3970189,45.2243379],[-93.396804,45.2238636],[-93.3962237,45.2238551],[-93.3957188,45.2230982],[-93.3920598,45.2231031],[-93.391976,45.2231475],[-93.3919054,45.2231991],[-93.3918406,45.2232487],[-93.3917893,45.2232888],[-93.3917383,45.2233291],[-93.391681,45.2233745],[-93.3916104,45.2234297],[-93.3915342,45.2234872],[-93.3914607,45.2235404],[-93.391406,45.2235823],[-93.3913504,45.2236288],[-93.3912941,45.2236766],[-93.391237,45.2237223],[-93.3911792,45.2237624],[-93.3911061,45.2237992],[-93.391027,45.2238157],[-93.3909152,45.2237973],[-93.3908265,45.2237624],[-93.3907632,45.2237286],[-93.3906999,45.2236902],[-93.3906369,45.223649],[-93.3905748,45.2236071],[-93.3905139,45.2235663],[-93.3904546,45.2235286],[-93.3903793,45.2234771],[-93.3903065,45.2234174],[-93.3902522,45.2233698],[-93.3897445,45.2233282],[-93.3901957,45.2237514],[-93.3911837,45.2243502],[-93.3918408,45.2252994],[-93.3916121,45.2259674],[-93.3906173,45.2272779],[-93.3896844,45.2284618],[-93.3893036,45.2291444],[-93.3892418,45.2299807],[-93.3898324,45.2303807],[-93.3920031,45.2306383],[-93.3931155,45.2310444],[-93.3949438,45.2318789],[-93.3959085,45.2324832],[-93.3963196,45.2332031],[-93.3961505,45.2340125],[-93.3955478,45.2348478],[-93.3958136,45.2356736],[-93.3959029,45.2364228],[-93.3958722,45.2373196],[-93.3954836,45.2381013],[-93.3947876,45.2386506],[-93.3942161,45.2386912],[-93.3926213,45.2385113],[-93.3912134,45.2386337],[-93.3904971,45.2388948],[-93.3899536,45.2395702],[-93.3896818,45.2404728],[-93.3896663,45.240869],[-93.389672,45.2410947],[-93.3896277,45.2413978],[-93.3894197,45.2418346],[-93.388954,45.2425657],[-93.388366,45.2433179],[-93.3875658,45.2439179],[-93.3867058,45.2444097],[-93.3858486,45.2446209],[-93.384567,45.2445494],[-93.3834682,45.244522],[-93.3827029,45.2447121],[-93.3818119,45.2452252],[-93.3811042,45.2457394],[-93.3806097,45.2462978],[-93.3804522,45.2467501],[-93.3802314,45.2474179],[-93.3804672,45.248196],[-93.38095,45.2487381],[-93.3817075,45.2492816],[-93.38259,45.2495668],[-93.3833877,45.2499646],[-93.3837207,45.250132],[-93.3839246,45.2503059],[-93.3844592,45.2507825],[-93.3846845,45.2511778],[-93.3847393,45.2516664],[-93.3846007,45.252055],[-93.3842269,45.2527258],[-93.383872,45.2535118],[-93.383756,45.2539072],[-93.3837851,45.2543418],[-93.3842427,45.2548625],[-93.3850299,45.2552684],[-93.3860544,45.255515],[-93.3871564,45.2556901],[-93.3881729,45.2557444],[-93.3890148,45.255606],[-93.3897261,45.2552643],[-93.3903463,45.255013],[-93.3907469,45.2548515],[-93.3911852,45.2547628],[-93.3917179,45.2548364],[-93.3923667,45.2549873],[-93.3930181,45.2554361],[-93.3934341,45.2559776],[-93.393497,45.2566804],[-93.3932728,45.2574602],[-93.3931724,45.2579106],[-93.3933202,45.258196],[-93.3934912,45.258465],[-93.3939179,45.2585866],[-93.3942905,45.2585249],[-93.3947482,45.2584038],[-93.395307,45.2583815],[-93.3958424,45.2584746],[-93.3964945,45.2587048],[-93.3970613,45.25899],[-93.3976409,45.2593971],[-93.3979444,45.2599077],[-93.398028,45.2605355],[-93.3979019,45.2610596],[-93.3976749,45.2616975],[-93.3976165,45.2623699],[-93.3975856,45.2626576],[-93.3975592,45.2629242],[-93.3976327,45.2631407],[-93.3979356,45.2633932],[-93.398417,45.2635411],[-93.398993,45.2636317],[-93.399635,45.2637714],[-93.4003027,45.2639113],[-93.4012426,45.2642092],[-93.4017635,45.2645098],[-93.4021437,45.264862],[-93.4023227,45.2652683],[-93.4023388,45.265702],[-93.4022229,45.2661523],[-93.4021922,45.2664325],[-93.4022681,45.2673672],[-93.4021242,45.2678271],[-93.4019931,45.268563],[-93.4017456,45.2692386],[-93.4015756,45.2697823],[-93.4013749,45.2707049],[-93.4013289,45.2711333],[-93.4014224,45.2713968],[-93.4016166,45.2715724],[-93.4021449,45.2718033],[-93.4030375,45.2719777],[-93.4039697,45.2720672],[-93.4047997,45.2721687],[-93.4053562,45.2724017],[-93.4058165,45.272695],[-93.4061227,45.2729693],[-93.4062837,45.2733867],[-93.4062354,45.2745155],[-93.4061931,45.2751877],[-93.406279,45.275583],[-93.4065668,45.2761099],[-93.4066916,45.2765491],[-93.4066457,45.276994],[-93.4064444,45.2773895],[-93.4061963,45.2776587],[-93.4060493,45.2780157],[-93.4060672,45.2783513],[-93.4061823,45.2787733],[-93.4065216,45.2792264],[-93.4067269,45.2796131],[-93.4068826,45.2800742],[-93.4068988,45.2804366],[-93.4070549,45.2811064],[-93.4070399,45.2815018],[-93.4069393,45.2817709],[-93.4066525,45.282128],[-93.4063345,45.2823643],[-93.4058613,45.2825074],[-93.405217,45.2826012],[-93.4044952,45.2826566],[-93.4039209,45.2827833],[-93.4035251,45.2829428],[-93.4031141,45.2832396],[-93.4028117,45.2835803],[-93.402714,45.2839709],[-93.4027631,45.2841894],[-93.4030152,45.284821],[-93.4031133,45.2851913],[-93.4031375,45.2853368],[-93.4030941,45.2858094],[-93.4028851,45.2862268],[-93.4026061,45.2866278],[-93.40218,45.2873584],[-93.4015988,45.2883087],[-93.4012191,45.2888031],[-93.4008545,45.2891109],[-93.4004744,45.2893033],[-93.3998122,45.289429],[-93.3993245,45.2892993],[-93.3986832,45.2890595],[-93.3982226,45.2887843],[-93.3976784,45.2884979],[-93.3973445,45.2884322],[-93.3969719,45.2884489],[-93.3964983,45.2885535],[-93.3961182,45.2887349],[-93.3956836,45.2889933],[-93.3952025,45.2892407],[-93.3946516,45.2894936],[-93.3938911,45.289818],[-93.3930529,45.2900546],[-93.392401,45.2902911],[-93.3912912,45.290709],[-93.390953,45.2908193],[-93.3899873,45.291215],[-93.3893818,45.2912757],[-93.3889082,45.291254],[-93.3885898,45.2911882],[-93.3882868,45.2910566],[-93.3879384,45.2910034],[-93.3874769,45.2908191],[-93.3869894,45.2906529],[-93.3865937,45.2905195],[-93.3859259,45.2904814],[-93.3852193,45.2904433],[-93.3842877,45.2904749],[-93.3837443,45.2905703],[-93.3831853,45.290609],[-93.3827671,45.2905941],[-93.382152,45.2903363],[-93.3819001,45.2898076],[-93.3819327,45.2891713],[-93.381757,45.2887522],[-93.3814271,45.2882958],[-93.3811483,45.2878761],[-93.3806744,45.287162],[-93.3801693,45.286701],[-93.3797107,45.2860807],[-93.3792056,45.2855923],[-93.3786853,45.2852905],[-93.3780019,45.2850767],[-93.3772875,45.2848518],[-93.3768605,45.2847696],[-93.3764412,45.2847753],[-93.3758125,45.2848799],[-93.3752558,45.2850668],[-93.3751259,45.2851212],[-93.3745911,45.2851897],[-93.3739778,45.2851818],[-93.3733091,45.2850643],[-93.3724535,45.2848819],[-93.3716434,45.2846113],[-93.3709187,45.2843349],[-93.3704865,45.2838262],[-93.3703112,45.2833878],[-93.3701448,45.2830537],[-93.3698829,45.2828383],[-93.3696033,45.2827589],[-93.369162,45.282792],[-93.3689554,45.2828729],[-93.3686941,45.2831158],[-93.3683791,45.2834303],[-93.3681752,45.2839805],[-93.3680256,45.2845248],[-93.3680038,45.2851425],[-93.36814,45.2858367],[-93.3683535,45.28622],[-93.3686217,45.2863773],[-93.3689624,45.2863862],[-93.3690922,45.2863426],[-93.3695561,45.2861811],[-93.3698578,45.2860752],[-93.3701759,45.2860627],[-93.3707482,45.2861906],[-93.3713959,45.2865339],[-93.3717433,45.2868542],[-93.3721297,45.2872456],[-93.3725932,45.2878684],[-93.372808,45.2883724],[-93.372984,45.2888822],[-93.3729967,45.2895505],[-93.3730125,45.2899398],[-93.3731754,45.2901223],[-93.3734184,45.2904021],[-93.3737262,45.2906655],[-93.3741463,45.2909193],[-93.3744974,45.2910877],[-93.3748784,45.2911517],[-93.3752559,45.2911948],[-93.3755303,45.2912001],[-93.3757556,45.2912165],[-93.376074,45.2913097],[-93.3761985,45.2916226],[-93.3760667,45.2918643],[-93.3759115,45.2920675],[-93.375539,45.2922928],[-93.3752559,45.2925126],[-93.3750642,45.2925839],[-93.3746995,45.2926077],[-93.3740211,45.2925781],[-93.3734093,45.2924494],[-93.3727082,45.2922058],[-93.3722317,45.2919281],[-93.371716,45.2915957],[-93.3712948,45.2914165],[-93.370976,45.2913522],[-93.3702853,45.2914254],[-93.3697529,45.2915358],[-93.3694813,45.2916334],[-93.3693109,45.2917394],[-93.3692426,45.2918824],[-93.3692445,45.2920691],[-93.3693841,45.2922698],[-93.3698032,45.292442],[-93.3703589,45.2924865],[-93.3708405,45.2925171],[-93.3713861,45.2925001],[-93.3717343,45.2926225],[-93.3718995,45.2928248],[-93.3719175,45.2930719],[-93.3717953,45.2932536],[-93.3714064,45.293392],[-93.3709943,45.29351],[-93.3707668,45.2936376],[-93.3705588,45.2939111],[-93.370451,45.294144],[-93.3704079,45.2944198],[-93.370394,45.2947878],[-93.3705726,45.2951267],[-93.3707689,45.2953453],[-93.3709679,45.2954562],[-93.3714088,45.2954727],[-93.3718093,45.2953622],[-93.3725465,45.2950118],[-93.3730599,45.2947952],[-93.3732814,45.2947114],[-93.3737634,45.294622],[-93.3743489,45.2947236],[-93.3747388,45.2948754],[-93.375256,45.2951482],[-93.3754405,45.2953019],[-93.3755959,45.295505],[-93.3758835,45.2958727],[-93.3761556,45.2962734],[-93.3765597,45.2965862],[-93.376948,45.2967948],[-93.3773055,45.2969977],[-93.3775075,45.2971953],[-93.3776475,45.2974918],[-93.3776634,45.2979145],[-93.3775706,45.2983373],[-93.3774701,45.2987408],[-93.3862059,45.2988549],[-93.3885278,45.298903]]]}}]}