{"type":"FeatureCollection","name":"richfield_border","features":[{"type":"Feature","properties":{"GNIS_FEATURE_ID":2396362,"FEATURE_NAME":"richfield","CTU_CLASS":"CITY","COUNTY_GNIS_FEATURE_ID":659472,"COUNTY_CODE":"27","COUNTY_NAME":"Hennepin","POPULATION":36543,"SE_ANNO_CAD_DATA":null},"geometry":{"type":"Polygon","coordinates":[[[-93.3187538,44.8763567],[-93.3188232,44.8618957],[-93.3086871,44.8619127],[-93.2884097,44.8619154],[-93.2681439,44.8619201],[-93.2479284,44.8619359],[-93.2479332,44.878105],[-93.2465529,44.8781062],[-93.2465498,44.8781885],[-93.2465174,44.8790453],[-93.2464718,44.8798245],[-93.246467,44.8799068],[-93.2464474,44.8800742],[-93.2457261,44.881686],[-93.2457259,44.881791],[-93.2456542,44.8818285],[-93.2455534,44.8818726],[-93.2454479,44.8819108],[-93.2453592,44.8819434],[-93.2452751,44.8819816],[-93.2451963,44.8820252],[-93.2451236,44.8820738],[-93.2450574,44.882127],[-93.2449984,44.8821843],[-93.2449472,44.8822452],[-93.244904,44.8823092],[-93.2448694,44.8823758],[-93.2448435,44.8824443],[-93.2448267,44.8825143],[-93.244819,44.8825851],[-93.2448206,44.8826561],[-93.2448313,44.8827266],[-93.2448512,44.8827962],[-93.24488,44.8828642],[-93.244895,44.8828944],[-93.2449324,44.8829601],[-93.2449781,44.8830231],[-93.2450316,44.8830829],[-93.2450926,44.883139],[-93.2451605,44.883191],[-93.2452347,44.8832383],[-93.2453147,44.8832806],[-93.2453998,44.8833176],[-93.2454892,44.8833489],[-93.2455823,44.8833744],[-93.2456783,44.8833936],[-93.245735,44.8833595],[-93.2457358,44.8835122],[-93.2465022,44.8835076],[-93.2464626,44.8887669],[-93.2478488,44.8887581],[-93.2477971,44.8907149],[-93.2508879,44.8907162],[-93.2513758,44.8907162],[-93.2678336,44.890716],[-93.2883546,44.8905913],[-93.3086626,44.8907379],[-93.3188284,44.8907959],[-93.3188097,44.8871787],[-93.318791,44.8835615],[-93.3187538,44.8763567]]]}}]}