{"type":"FeatureCollection","name":"robbinsdale_border","features":[{"type":"Feature","properties":{"GNIS_FEATURE_ID":2396388,"FEATURE_NAME":"robbinsdale","CTU_CLASS":"CITY","COUNTY_GNIS_FEATURE_ID":659472,"COUNTY_CODE":"27","COUNTY_NAME":"Hennepin","POPULATION":14986,"SE_ANNO_CAD_DATA":null},"geometry":{"type":"Polygon","coordinates":[[[-93.356267,45.0327106],[-93.3562582,45.0253513],[-93.3495587,45.0253419],[-93.3496035,45.0216657],[-93.3496103,45.0205178],[-93.3337683,45.020566],[-93.333795,45.0169617],[-93.3338754,45.0061113],[-93.3287531,45.0060967],[-93.3185835,45.0060619],[-93.3184886,45.0138118],[-93.3184565,45.0205176],[-93.3186525,45.027717],[-93.3188762,45.0354542],[-93.3192885,45.0354532],[-93.3193026,45.0364802],[-93.3194185,45.0404226],[-93.3232342,45.0404492],[-93.3295798,45.0404049],[-93.3295819,45.040507],[-93.3296618,45.0408847],[-93.3297463,45.0411361],[-93.3301866,45.0420481],[-93.3302964,45.0419723],[-93.3304974,45.04229],[-93.3307396,45.0421317],[-93.3309874,45.041978],[-93.3312408,45.0418289],[-93.3314996,45.0416846],[-93.3317636,45.041545],[-93.3320326,45.0414104],[-93.3323065,45.0412807],[-93.332585,45.0411562],[-93.3328679,45.0410368],[-93.3331552,45.0409226],[-93.3334465,45.0408138],[-93.3337418,45.0407104],[-93.3346668,45.0403691],[-93.339835,45.0403326],[-93.3398359,45.0399975],[-93.3500488,45.0399348],[-93.3500044,45.0354452],[-93.349436,45.0354357],[-93.3494702,45.0326192],[-93.356267,45.0327106]]]}}]}