{"type":"FeatureCollection","name":"rogers_border","features":[{"type":"Feature","properties":{"GNIS_FEATURE_ID":2396415,"FEATURE_NAME":"rogers","CTU_CLASS":"CITY","COUNTY_GNIS_FEATURE_ID":659472,"COUNTY_CODE":"27","COUNTY_NAME":"Hennepin","POPULATION":14430,"SE_ANNO_CAD_DATA":null},"geometry":{"type":"Polygon","coordinates":[[[-93.5221181,45.2323036],[-93.5221954,45.2322608],[-93.5222969,45.2322065],[-93.5223985,45.232152],[-93.5225003,45.2320976],[-93.5226027,45.2320438],[-93.5227063,45.2319913],[-93.5228115,45.2319408],[-93.5229189,45.2318927],[-93.5230292,45.231848],[-93.523142,45.2318062],[-93.5232562,45.231766],[-93.5233709,45.2317262],[-93.5234849,45.2316858],[-93.5235974,45.2316435],[-93.5237072,45.2315981],[-93.5238157,45.2315509],[-93.5239236,45.2315029],[-93.5240307,45.2314539],[-93.524137,45.2314039],[-93.5242422,45.231353],[-93.5243463,45.2313009],[-93.5244491,45.2312478],[-93.5245504,45.2311936],[-93.5246487,45.2311365],[-93.524743,45.2310758],[-93.5248337,45.2310121],[-93.5249215,45.2309466],[-93.5250065,45.2308797],[-93.525088,45.2308106],[-93.5251665,45.2307396],[-93.5252428,45.2306673],[-93.5253178,45.2305944],[-93.5253917,45.2305212],[-93.5254641,45.2304471],[-93.5255353,45.2303724],[-93.5256054,45.2302972],[-93.5256749,45.2302218],[-93.525744,45.2301461],[-93.5258115,45.2300697],[-93.5258767,45.2299924],[-93.5259393,45.229914],[-93.526002,45.2298355],[-93.5260639,45.2297566],[-93.5261234,45.2296769],[-93.5261788,45.229596],[-93.5262291,45.2295134],[-93.5262771,45.2294298],[-93.5263226,45.2293453],[-93.5263649,45.22926],[-93.5264032,45.2291741],[-93.5264368,45.2290876],[-93.5264652,45.2289995],[-93.526486,45.228909],[-93.5264938,45.2288183],[-93.5264831,45.2287298],[-93.5264561,45.2286431],[-93.5264187,45.228557],[-93.5263737,45.2284718],[-93.5263238,45.2283876],[-93.5262718,45.2283048],[-93.5262182,45.2282234],[-93.5261616,45.2281429],[-93.5261029,45.228063],[-93.5260427,45.2279836],[-93.525982,45.2279043],[-93.5259216,45.2278249],[-93.5258622,45.2277451],[-93.5258047,45.2276648],[-93.5257489,45.2275838],[-93.5256916,45.2275026],[-93.5256354,45.227421],[-93.5255836,45.2273383],[-93.5255398,45.2272541],[-93.5255071,45.2271679],[-93.5254815,45.2270803],[-93.5254597,45.226992],[-93.5254411,45.2269029],[-93.5254253,45.2268133],[-93.5254118,45.2267234],[-93.5254,45.2266333],[-93.5253893,45.2265432],[-93.5253794,45.2264531],[-93.5253698,45.2263634],[-93.5253629,45.2262736],[-93.5253598,45.2261836],[-93.5253596,45.2260935],[-93.5253618,45.2260033],[-93.5253657,45.2259132],[-93.5253702,45.2258232],[-93.5253723,45.2257325],[-93.5253739,45.2256414],[-93.5253775,45.2255504],[-93.5253856,45.2254601],[-93.5254009,45.2253711],[-93.5254259,45.2252839],[-93.5254607,45.2251984],[-93.5255002,45.2251134],[-93.5255436,45.2250288],[-93.5255908,45.2249448],[-93.5256412,45.2248614],[-93.5256945,45.2247788],[-93.5257504,45.2246971],[-93.5258085,45.2246163],[-93.5258684,45.2245365],[-93.5259297,45.2244579],[-93.5259944,45.2243809],[-93.5260633,45.2243055],[-93.5261354,45.2242314],[-93.52621,45.2241583],[-93.5262863,45.2240859],[-93.5263634,45.2240138],[-93.5264407,45.2239418],[-93.5265172,45.2238695],[-93.5265922,45.2237966],[-93.5266653,45.2237228],[-93.5267376,45.2236485],[-93.5268101,45.2235743],[-93.5268839,45.2235009],[-93.5269601,45.2234289],[-93.5270399,45.2233589],[-93.5271232,45.223291],[-93.5272092,45.2232246],[-93.5272975,45.2231595],[-93.5273877,45.2230957],[-93.5274793,45.223033],[-93.5275719,45.2229712],[-93.5276654,45.2229101],[-93.5277599,45.2228496],[-93.5278554,45.2227898],[-93.5279519,45.2227309],[-93.5280496,45.222673],[-93.5281484,45.2226162],[-93.5282485,45.2225608],[-93.5283506,45.2225061],[-93.5284559,45.2224532],[-93.5285649,45.2224054],[-93.5286778,45.2223656],[-93.5287968,45.2223368],[-93.5289233,45.2223196],[-93.5290526,45.2223131],[-93.5291798,45.222316],[-93.5293035,45.2223226],[-93.5294331,45.2223315],[-93.5295598,45.2223421],[-93.5296866,45.2223544],[-93.5298131,45.2223682],[-93.5299391,45.2223833],[-93.5300645,45.2223995],[-93.5301891,45.2224168],[-93.5303143,45.2224388],[-93.5304349,45.2224713],[-93.5305427,45.222518],[-93.5306435,45.222572],[-93.5307434,45.2226278],[-93.5308421,45.2226853],[-93.5309393,45.2227443],[-93.5310347,45.2228049],[-93.531128,45.222867],[-93.5312188,45.2229305],[-93.5313069,45.2229954],[-93.5313916,45.2230619],[-93.5314715,45.2231317],[-93.5315468,45.2232045],[-93.531618,45.2232796],[-93.5316859,45.2233565],[-93.531751,45.2234344],[-93.5318138,45.2235128],[-93.5318747,45.2235917],[-93.5319341,45.2236712],[-93.5319922,45.2237512],[-93.5320493,45.2238317],[-93.5321055,45.2239125],[-93.5321611,45.2239935],[-93.5322164,45.2240747],[-93.5322717,45.2241559],[-93.5323272,45.2242371],[-93.5323831,45.224318],[-93.5324397,45.2243987],[-93.5324972,45.224479],[-93.5325566,45.2245587],[-93.5326175,45.2246377],[-93.5326789,45.2247166],[-93.53274,45.2247956],[-93.5327997,45.2248752],[-93.5328571,45.2249555],[-93.5329143,45.2250361],[-93.5329719,45.2251167],[-93.5330296,45.2251973],[-93.5330926,45.2252771],[-93.5331452,45.2253589],[-93.5331871,45.2254258],[-93.5332454,45.2255236],[-93.5332934,45.2256064],[-93.5333368,45.22569],[-93.5333748,45.2257753],[-93.5333987,45.2258642],[-93.5334155,45.2259541],[-93.533426,45.2260558],[-93.5334279,45.2261342],[-93.5334262,45.2262219],[-93.5334049,45.2263129],[-93.5333942,45.2264029],[-93.5333877,45.2264928],[-93.5333883,45.2265827],[-93.5333918,45.226673],[-93.5333973,45.2267636],[-93.533406,45.2268541],[-93.5334197,45.2269439],[-93.5334397,45.2270326],[-93.5334675,45.2271196],[-93.5335036,45.2272052],[-93.5335464,45.2272897],[-93.5335942,45.2273734],[-93.5336454,45.2274564],[-93.5336983,45.227539],[-93.5337512,45.2276214],[-93.5338031,45.2277037],[-93.5338602,45.2277844],[-93.5339205,45.2278643],[-93.5339801,45.2279442],[-93.5340348,45.2280253],[-93.5340806,45.2281086],[-93.5341175,45.2281945],[-93.5341476,45.2282822],[-93.5341717,45.2283712],[-93.5341906,45.2284607],[-93.534205,45.22855],[-93.534217,45.2286397],[-93.5342271,45.2287297],[-93.5342345,45.22882],[-93.5342389,45.2289103],[-93.5342397,45.2290004],[-93.5342363,45.2290903],[-93.5342279,45.2291797],[-93.5342105,45.2292684],[-93.5341858,45.2293567],[-93.5341573,45.2294448],[-93.5341286,45.229533],[-93.5341029,45.2296214],[-93.5340839,45.2297104],[-93.5340703,45.2298],[-93.5340589,45.2298903],[-93.5340493,45.2299809],[-93.5340408,45.2300717],[-93.534033,45.2301624],[-93.5340253,45.230253],[-93.5340172,45.230343],[-93.5340081,45.2304324],[-93.5339976,45.230521],[-93.5339851,45.2306085],[-93.5339511,45.2306585],[-93.5340035,45.2307378],[-93.5340597,45.2308206],[-93.5341208,45.2309033],[-93.5341876,45.2309829],[-93.534261,45.2310559],[-93.534351,45.2311151],[-93.534468,45.231155],[-93.5345913,45.2311873],[-93.5347101,45.2312197],[-93.5348298,45.2312506],[-93.5349506,45.2312799],[-93.5350723,45.2313071],[-93.5351947,45.231332],[-93.535325,45.2313418],[-93.5354456,45.231368],[-93.5355689,45.2313893],[-93.5356935,45.2314077],[-93.5357981,45.2314207],[-93.535945,45.2314329],[-93.5360715,45.2314404],[-93.5361988,45.2314462],[-93.5363264,45.2314496],[-93.5364541,45.23145],[-93.5365816,45.2314481],[-93.5367085,45.2314439],[-93.5368355,45.2314371],[-93.5369625,45.2314298],[-93.5370894,45.2314202],[-93.537216,45.2314096],[-93.5373456,45.2313973],[-93.5374507,45.231384],[-93.5375924,45.231364],[-93.5377168,45.2313452],[-93.537841,45.2313255],[-93.537965,45.2313051],[-93.5380889,45.2312841],[-93.5382128,45.2312628],[-93.5383365,45.2312411],[-93.5384602,45.2312194],[-93.5385839,45.2311976],[-93.5387077,45.231176],[-93.5388315,45.2311547],[-93.5389554,45.2311338],[-93.5390795,45.2311135],[-93.539204,45.2310942],[-93.5393303,45.2310768],[-93.5394567,45.2310658],[-93.5395835,45.2310587],[-93.5397191,45.2310527],[-93.5398397,45.2310487],[-93.5399675,45.2310475],[-93.5401084,45.2310524],[-93.5402254,45.231071],[-93.5403248,45.2311191],[-93.5404125,45.231183],[-93.5404956,45.2312519],[-93.5405607,45.231312],[-93.5406466,45.2313975],[-93.540718,45.2314748],[-93.540779,45.231552],[-93.5408422,45.2316302],[-93.5409035,45.2317091],[-93.5409657,45.2317878],[-93.5410279,45.2318665],[-93.5410895,45.2319453],[-93.5411524,45.2320236],[-93.5412174,45.232101],[-93.5412818,45.2321788],[-93.5413591,45.2322539],[-93.5414313,45.2323245],[-93.5415202,45.2323904],[-93.5416141,45.2324544],[-93.5417156,45.2325091],[-93.5418272,45.232548],[-93.5419476,45.2325786],[-93.5420734,45.2326031],[-93.5422016,45.2326205],[-93.5423291,45.2326299],[-93.5424456,45.2326277],[-93.5425786,45.2326095],[-93.5427253,45.2325703],[-93.5428163,45.2325364],[-93.5429108,45.2324775],[-93.5429976,45.232412],[-93.5430778,45.2323401],[-93.5431524,45.2322648],[-93.5432227,45.2321892],[-93.5432753,45.2321083],[-93.5433106,45.2320206],[-93.5433523,45.2319354],[-93.5433947,45.2318505],[-93.5434372,45.2317657],[-93.5434796,45.2316808],[-93.5435219,45.2315959],[-93.5435642,45.231511],[-93.5436067,45.2314261],[-93.5436493,45.2313413],[-93.5436914,45.2312562],[-93.5437313,45.2311705],[-93.5437716,45.2310848],[-93.543815,45.2310002],[-93.5438642,45.2309174],[-93.5439201,45.2308368],[-93.54398,45.2307572],[-93.5440435,45.2306788],[-93.5441101,45.2306017],[-93.5441795,45.2305261],[-93.5442516,45.2304522],[-93.5443327,45.2303832],[-93.5444208,45.2303178],[-93.5445097,45.2302528],[-93.544597,45.2301871],[-93.5446863,45.2301226],[-93.5447753,45.2300579],[-93.5448618,45.2299918],[-93.5449434,45.2299231],[-93.5450187,45.2298508],[-93.5450888,45.2297754],[-93.5451633,45.2297],[-93.5452201,45.2296199],[-93.5452757,45.2295392],[-93.5453299,45.2294578],[-93.5453813,45.2293755],[-93.5454315,45.2292926],[-93.5454812,45.2292096],[-93.5455311,45.2291267],[-93.54558,45.2290464],[-93.5456422,45.2289671],[-93.5456692,45.2288737],[-93.5457183,45.2287906],[-93.5457759,45.2287108],[-93.5458435,45.228635],[-93.5459139,45.2285604],[-93.5459863,45.2284865],[-93.5460604,45.2284134],[-93.5461357,45.2283407],[-93.5462119,45.2282684],[-93.5462886,45.2281963],[-93.5463653,45.2281241],[-93.5464417,45.2280519],[-93.5465174,45.2279792],[-93.5465919,45.2279061],[-93.5466804,45.2278375],[-93.5467491,45.2277622],[-93.5468223,45.2276878],[-93.5468914,45.2276117],[-93.5469572,45.2275338],[-93.5470229,45.2274559],[-93.5470886,45.2273782],[-93.547159,45.227303],[-93.5472264,45.2272269],[-93.5472981,45.2271536],[-93.5473741,45.2270827],[-93.5474528,45.2270144],[-93.5475374,45.2269467],[-93.5476284,45.2268805],[-93.547732,45.2268078],[-93.5478175,45.2267517],[-93.5479211,45.2266943],[-93.5480256,45.2266404],[-93.5481321,45.2265894],[-93.5482194,45.2265594],[-93.5483559,45.2265251],[-93.5484732,45.2265031],[-93.5485969,45.2264926],[-93.5487242,45.2264878],[-93.5488615,45.2264913],[-93.5511426,45.2266242],[-93.5524098,45.2268755],[-93.554057,45.2270815],[-93.5549165,45.226904],[-93.5557191,45.2265889],[-93.5562759,45.2257247],[-93.5566547,45.2252488],[-93.5570566,45.2250028],[-93.5576699,45.2251215],[-93.5591744,45.2260187],[-93.559769,45.2267458],[-93.5603203,45.2271614],[-93.5607863,45.2271972],[-93.5611152,45.226968],[-93.5613101,45.2262208],[-93.5613506,45.2253957],[-93.5617031,45.2244623],[-93.562366,45.2235637],[-93.5634795,45.2226788],[-93.5649815,45.2219389],[-93.5665367,45.2212906],[-93.5672145,45.2209396],[-93.5677691,45.2203405],[-93.5685499,45.2195655],[-93.5694449,45.2187621],[-93.5700537,45.2185234],[-93.5710182,45.2184408],[-93.5726181,45.2185268],[-93.5741871,45.2185907],[-93.5753372,45.2185971],[-93.5766297,45.2183623],[-93.5779553,45.2179404],[-93.5791577,45.217419],[-93.5801872,45.2170725],[-93.5813716,45.2168369],[-93.5823515,45.2167103],[-93.5833742,45.2164904],[-93.5840018,45.2161391],[-93.5849609,45.2154153],[-93.5861358,45.2149092],[-93.587288,45.2146127],[-93.5884874,45.2147054],[-93.5892876,45.2148339],[-93.5896264,45.2151108],[-93.5899778,45.2156849],[-93.5903267,45.2164791],[-93.5904883,45.2173384],[-93.5905402,45.2178421],[-93.5905372,45.2182841],[-93.5907719,45.2184293],[-93.5914392,45.218521],[-93.592279,45.2184706],[-93.5932928,45.218135],[-93.593873,45.2176539],[-93.5939245,45.217192],[-93.5938991,45.2166637],[-93.5939857,45.2158389],[-93.5943369,45.2148322],[-93.5940673,45.2140533],[-93.593591,45.2135037],[-93.5926196,45.2127942],[-93.5927283,45.2124928],[-93.5926821,45.2119445],[-93.5928134,45.211061],[-93.5931719,45.2098423],[-93.5938275,45.2090491],[-93.5944958,45.2088208],[-93.5957325,45.2083132],[-93.5959803,45.2080476],[-93.5964362,45.2077851],[-93.5971386,45.2074164],[-93.5979293,45.2074309],[-93.5990161,45.2075137],[-93.6005684,45.2076652],[-93.6014839,45.2077912],[-93.6020342,45.2080167],[-93.6020803,45.2085827],[-93.6019032,45.209279],[-93.6019946,45.2101383],[-93.602293,45.2106236],[-93.6029125,45.2111668],[-93.6032564,45.2116751],[-93.6033679,45.2118399],[-93.6041765,45.21278],[-93.6045998,45.2129249],[-93.6050015,45.2127829],[-93.605088,45.2123002],[-93.605606,45.2121131],[-93.6067979,45.2122543],[-93.6075127,45.2122581],[-93.6082574,45.2119099],[-93.6082995,45.2113159],[-93.6086197,45.2104152],[-93.609216,45.2098683],[-93.6099672,45.209355],[-93.6105015,45.2090711],[-93.6107055,45.2084883],[-93.6110077,45.2081533],[-93.6115661,45.2080209],[-93.612077,45.2081997],[-93.6125549,45.2085653],[-93.6125732,45.2095553],[-93.6123734,45.2098902],[-93.6120676,45.2104023],[-93.612088,45.2110919],[-93.6126603,45.2114827],[-93.6134106,45.211464],[-93.6142868,45.2112584],[-93.6148898,45.2108007],[-93.6155445,45.2101134],[-93.6161725,45.2096558],[-93.6174252,45.2092356],[-93.6181593,45.2090789],[-93.6194026,45.2090525],[-93.620613,45.2092128],[-93.6216519,45.2094383],[-93.6223963,45.2095742],[-93.6232349,45.2096336],[-93.6247257,45.2097293],[-93.625263,45.2097293],[-93.6254188,45.2096682],[-93.6257045,45.2094416],[-93.6260975,45.2090329],[-93.6264507,45.2085308],[-93.6264623,45.2080907],[-93.6262403,45.2076129],[-93.6259733,45.207328],[-93.625263,45.2068465],[-93.6250367,45.2066498],[-93.6245196,45.2062002],[-93.6237977,45.2057382],[-93.6232641,45.2052431],[-93.6231157,45.20456],[-93.6234102,45.2038275],[-93.6240772,45.2032225],[-93.6250928,45.2026307],[-93.6252629,45.2025829],[-93.6261796,45.2025794],[-93.6279904,45.2024732],[-93.6296546,45.2024832],[-93.6310501,45.2028848],[-93.632052,45.2036181],[-93.6326023,45.204265],[-93.6332779,45.2058853],[-93.6339218,45.2074176],[-93.6343061,45.2086264],[-93.6348024,45.2093231],[-93.635631,45.2097984],[-93.6369244,45.2100573],[-93.6378809,45.2100425],[-93.6389129,45.2097963],[-93.6397953,45.2093471],[-93.6405983,45.2087168],[-93.6415459,45.2077447],[-93.642006,45.2070386],[-93.6422706,45.2062178],[-93.6426808,45.2051709],[-93.6432195,45.204558],[-93.6444925,45.204197],[-93.6453212,45.2039553],[-93.6457923,45.2036067],[-93.6460901,45.2030553],[-93.6460141,45.2023139],[-93.645722,45.2018961],[-93.6455776,45.201418],[-93.6456909,45.2010545],[-93.6466391,45.2001869],[-93.647528,45.1996056],[-93.6487022,45.1990325],[-93.6501382,45.1988316],[-93.652202,45.1988767],[-93.653663,45.1987881],[-93.6547335,45.1985251],[-93.6557882,45.1982346],[-93.6566001,45.1978989],[-93.657265,45.1972394],[-93.6579133,45.1960417],[-93.658081,45.1955429],[-93.6587878,45.1945815],[-93.6589862,45.1935835],[-93.6588673,45.1925332],[-93.6584259,45.1910716],[-93.657761,45.1898366],[-93.6569831,45.1889651],[-93.6561998,45.1883412],[-93.6550242,45.1873449],[-93.6535981,45.1861514],[-93.6526558,45.1851375],[-93.652064,45.1842103],[-93.6519244,45.1834241],[-93.6515595,45.1826444],[-93.650338,45.1816977],[-93.6489141,45.1807188],[-93.6473818,45.1797733],[-93.6466175,45.1794958],[-93.6454416,45.1792586],[-93.6451835,45.1791557],[-93.6446223,45.1789318],[-93.6435197,45.1782047],[-93.6417356,45.176919],[-93.6413583,45.1766952],[-93.6400771,45.1760198],[-93.6400769,45.1760197],[-93.6396723,45.1757887],[-93.6391977,45.1753056],[-93.638944,45.1749222],[-93.6388063,45.1746714],[-93.6385746,45.1741565],[-93.6299356,45.1741769],[-93.6303875,45.1665555],[-93.6305051,45.1597881],[-93.630378,45.1525979],[-93.6252627,45.1526125],[-93.6251338,45.1525608],[-93.6044682,45.1526969],[-93.583828,45.1526919],[-93.5632253,45.1527606],[-93.542561,45.1527866],[-93.5372566,45.152818],[-93.5320958,45.1528482],[-93.5270498,45.1528776],[-93.5218352,45.1529077],[-93.5217346,45.1563859],[-93.521633,45.1599012],[-93.5215986,45.1610914],[-93.5214264,45.1670471],[-93.5216493,45.1741762],[-93.5218036,45.1791076],[-93.5218774,45.1814668],[-93.5221918,45.1886353],[-93.5224669,45.1975277],[-93.5222887,45.2062978],[-93.5221242,45.20999],[-93.5222678,45.2099906],[-93.522203,45.2243627],[-93.5221181,45.2323036]]]}}]}