{"type":"FeatureCollection","name":"rosemount_border","features":[{"type":"Feature","properties":{"GNIS_FEATURE_ID":2396433,"FEATURE_NAME":"rosemount","CTU_CLASS":"CITY","COUNTY_GNIS_FEATURE_ID":659464,"COUNTY_CODE":"19","COUNTY_NAME":"Dakota","POPULATION":26943,"SE_ANNO_CAD_DATA":null},"geometry":{"type":"Polygon","coordinates":[[[-93.1061337,44.7756916],[-93.1163334,44.7756755],[-93.1252401,44.7756327],[-93.1266868,44.7756496],[-93.1363086,44.7757488],[-93.1470774,44.7758048],[-93.1564168,44.7757685],[-93.1564268,44.7753348],[-93.15641,44.7736885],[-93.1557937,44.7736889],[-93.1527208,44.7745689],[-93.1524082,44.7741301],[-93.1514839,44.7741307],[-93.1514606,44.7718258],[-93.152539,44.7718252],[-93.1529881,44.7705078],[-93.1529792,44.7696298],[-93.1526633,44.7688616],[-93.1532785,44.7687515],[-93.1532725,44.7681541],[-93.1549672,44.768145],[-93.154975,44.7689132],[-93.1557453,44.768909],[-93.1557431,44.7686896],[-93.1563594,44.7686863],[-93.1562809,44.760943],[-93.1581295,44.7609461],[-93.1581437,44.759629],[-93.1562952,44.7596259],[-93.1563,44.7591869],[-93.1561459,44.7591867],[-93.1561542,44.7584184],[-93.1563084,44.7584186],[-93.1563226,44.7571015],[-93.1575622,44.7564451],[-93.1575657,44.7561158],[-93.1586409,44.7560079],[-93.1582942,44.7550758],[-93.1580051,44.75458],[-93.1571201,44.7545785],[-93.1571296,44.7537005],[-93.1563594,44.7536992],[-93.1563998,44.7499749],[-93.1563837,44.7463694],[-93.1564967,44.7319145],[-93.1564584,44.717337],[-93.1365605,44.7173857],[-93.1264084,44.7174106],[-93.1162459,44.7174331],[-93.0959005,44.7175038],[-93.075556,44.7173874],[-93.0552122,44.7173738],[-93.0449922,44.7173078],[-93.0449725,44.7258411],[-93.0348903,44.7258926],[-93.0348814,44.724523],[-93.0258168,44.7244359],[-93.0255479,44.717173],[-93.0150879,44.7171171],[-93.0002345,44.7169562],[-92.9946725,44.7169425],[-92.9742862,44.7168318],[-92.9745886,44.7313703],[-92.9744441,44.7459196],[-92.9743617,44.7499497],[-92.9744877,44.755369],[-92.9746064,44.7604725],[-92.9748006,44.7723169],[-92.9767745,44.7729808],[-92.9780128,44.7734115],[-92.9793232,44.7737612],[-92.9813181,44.7743275],[-92.9830425,44.7747237],[-92.983721,44.7748973],[-92.9844832,44.7750923],[-92.9870058,44.775339],[-92.9887048,44.7753884],[-92.990226,44.7754564],[-92.9914735,44.7754365],[-92.9938868,44.7751095],[-92.9954778,44.7745468],[-92.9967955,44.7740887],[-92.9982666,44.7734357],[-92.9996259,44.772896],[-93.0002354,44.7726992],[-93.0012894,44.772421],[-93.002528,44.7721352],[-93.0035237,44.7720165],[-93.0043252,44.7719667],[-93.0054323,44.7720034],[-93.0064508,44.7721929],[-93.0072863,44.7723194],[-93.0082058,44.7724635],[-93.0095823,44.7728006],[-93.0104056,44.7730973],[-93.0114049,44.7734348],[-93.0123446,44.7736946],[-93.0131811,44.7740849],[-93.0139114,44.7744079],[-93.0147987,44.7749144],[-93.01575,44.7755689],[-93.0241835,44.7755501],[-93.0341217,44.775544],[-93.0445691,44.7755921],[-93.0546134,44.775603],[-93.0649326,44.7756857],[-93.0748252,44.775704],[-93.085325,44.7756763],[-93.0956186,44.7757269],[-93.1061337,44.7756916]]]}}]}