{"type":"FeatureCollection","name":"roseville_border","features":[{"type":"Feature","properties":{"GNIS_FEATURE_ID":2396435,"FEATURE_NAME":"roseville","CTU_CLASS":"CITY","COUNTY_GNIS_FEATURE_ID":659507,"COUNTY_CODE":"62","COUNTY_NAME":"Ramsey","POPULATION":36810,"SE_ANNO_CAD_DATA":null},"geometry":{"type":"Polygon","coordinates":[[[-93.1876837,45.0358257],[-93.2082013,45.035793],[-93.2077976,45.0206015],[-93.2077156,45.0061681],[-93.2077445,45.0006673],[-93.1999436,45.0007134],[-93.1999543,44.9999782],[-93.1999543,44.9988979],[-93.1973227,44.9989067],[-93.1566417,44.9990348],[-93.1567392,44.9917937],[-93.1464603,44.9919461],[-93.1354791,44.9919275],[-93.1260722,44.9917821],[-93.1252437,44.9917599],[-93.1059775,44.991879],[-93.1059145,44.9999711],[-93.1059598,45.0063413],[-93.1060713,45.0207115],[-93.1062029,45.0358728],[-93.1252443,45.0359107],[-93.1367665,45.0358545],[-93.1469351,45.035804],[-93.1671433,45.0357449],[-93.1876837,45.0358257]]]}}]}