{"type":"FeatureCollection","name":"saint_paul_park_border","features":[{"type":"Feature","properties":{"GNIS_FEATURE_ID":2396516,"FEATURE_NAME":"saint_paul_park","CTU_CLASS":"CITY","COUNTY_GNIS_FEATURE_ID":659526,"COUNTY_CODE":"82","COUNTY_NAME":"Washington","POPULATION":5498,"SE_ANNO_CAD_DATA":null},"geometry":{"type":"Polygon","coordinates":[[[-93.0119117,44.8384348],[-93.0117925,44.8373778],[-93.0113668,44.835377],[-93.0109354,44.8334203],[-93.0106928,44.8327951],[-93.0100941,44.8312526],[-93.0099457,44.8308121],[-93.0098101,44.8304093],[-93.0095408,44.82956],[-93.008985,44.8277561],[-93.0089103,44.8270846],[-93.008835,44.8264074],[-93.0082287,44.8248444],[-93.0076221,44.8232802],[-93.007,44.8221583],[-93.0063787,44.8210376],[-93.0059927,44.8200062],[-93.0056058,44.8189744],[-93.0040478,44.8189677],[-93.0040181,44.8154335],[-93.0039065,44.8155063],[-93.0037528,44.8156003],[-93.0036274,44.8156644],[-93.0034178,44.8157383],[-93.0032487,44.8157398],[-93.0031268,44.8157311],[-93.002997,44.8157358],[-93.0028967,44.8157404],[-93.0027913,44.8157509],[-93.0026927,44.8157537],[-93.0026208,44.8157531],[-93.0025217,44.8157216],[-93.0024579,44.8156809],[-93.0023996,44.815634],[-93.0023194,44.8155721],[-93.0022235,44.8156088],[-93.0021317,44.815618],[-93.0020181,44.8156363],[-93.0019172,44.8157654],[-93.0018652,44.815837],[-93.0018103,44.8158898],[-93.0017535,44.8159267],[-93.0016675,44.8159718],[-93.0015703,44.8160112],[-93.0014724,44.816043],[-93.0013855,44.8160802],[-93.0013053,44.8161007],[-93.0011482,44.8161448],[-93.001001,44.8161936],[-93.0008026,44.8162705],[-93.0006447,44.8163115],[-93.0005767,44.8163367],[-93.0005041,44.8163902],[-93.0003732,44.81645],[-93.0002766,44.8164782],[-93.0001967,44.816516],[-93.0001268,44.8165809],[-93.0000468,44.8166152],[-92.999913,44.8166124],[-92.9997611,44.8165929],[-92.9996551,44.8166165],[-92.9996158,44.8166892],[-92.9995086,44.8167373],[-92.9994172,44.8166972],[-92.9993282,44.8166878],[-92.9992496,44.816685],[-92.9991592,44.8166972],[-92.9991045,44.816764],[-92.9989469,44.816812],[-92.9990073,44.822585],[-92.9961524,44.8225714],[-92.9954308,44.8187835],[-92.9872909,44.8148403],[-92.9838456,44.8139171],[-92.9838289,44.8188375],[-92.9839285,44.8261081],[-92.9798725,44.826088],[-92.9798663,44.8309512],[-92.9770527,44.830989],[-92.9770532,44.8334122],[-92.9747327,44.8334218],[-92.9750136,44.8401537],[-92.9767268,44.8412954],[-92.9779955,44.8423],[-92.9839986,44.8467704],[-92.9839971,44.8478392],[-92.9840199,44.8515847],[-92.9920407,44.8515395],[-92.9931642,44.8532258],[-92.9939267,44.8546247],[-92.994185,44.8551605],[-93.0002361,44.8551464],[-93.0089929,44.8551819],[-93.009165,44.854064],[-93.0093719,44.8523243],[-93.0096415,44.8502446],[-93.010644,44.8454482],[-93.0113224,44.8400706],[-93.0119117,44.8384348]]]}}]}