{"type":"FeatureCollection","name":"saint_michael_border","features":[{"type":"Feature","properties":{"GNIS_FEATURE_ID":2396509,"FEATURE_NAME":"saint_michael","CTU_CLASS":"CITY","COUNTY_GNIS_FEATURE_ID":659530,"COUNTY_CODE":"86","COUNTY_NAME":"Wright","POPULATION":20371,"SE_ANNO_CAD_DATA":null},"geometry":{"type":"Polygon","coordinates":[[[-93.7658867,45.1655293],[-93.7659769,45.1511138],[-93.7502672,45.1513195],[-93.7266218,45.1516936],[-93.7064748,45.1519972],[-93.6962872,45.1520987],[-93.696372,45.1665542],[-93.6861618,45.1666573],[-93.6659817,45.1668055],[-93.6657361,45.1739798],[-93.6453672,45.1741257],[-93.6441478,45.1741322],[-93.6401667,45.1741441],[-93.6389295,45.1741556],[-93.6385746,45.1741565],[-93.6388063,45.1746714],[-93.638944,45.1749222],[-93.6391977,45.1753056],[-93.6396723,45.1757887],[-93.6400769,45.1760197],[-93.6400771,45.1760198],[-93.6413583,45.1766952],[-93.6417356,45.176919],[-93.6435197,45.1782047],[-93.6446223,45.1789318],[-93.6451835,45.1791557],[-93.6454416,45.1792586],[-93.6466175,45.1794958],[-93.6473818,45.1797733],[-93.6489141,45.1807188],[-93.650338,45.1816977],[-93.6515595,45.1826444],[-93.6519244,45.1834241],[-93.652064,45.1842103],[-93.6526558,45.1851375],[-93.6535981,45.1861514],[-93.6550242,45.1873449],[-93.6561998,45.1883412],[-93.6569831,45.1889651],[-93.657761,45.1898366],[-93.6584259,45.1910716],[-93.6588673,45.1925332],[-93.6589862,45.1935835],[-93.6587878,45.1945815],[-93.658081,45.1955429],[-93.6579133,45.1960417],[-93.657265,45.1972394],[-93.6566001,45.1978989],[-93.6557882,45.1982346],[-93.6547335,45.1985251],[-93.653663,45.1987881],[-93.652202,45.1988767],[-93.6501382,45.1988316],[-93.6487022,45.1990325],[-93.647528,45.1996056],[-93.6466391,45.2001869],[-93.6456909,45.2010545],[-93.6455776,45.201418],[-93.645722,45.2018961],[-93.6460141,45.2023139],[-93.6460901,45.2030553],[-93.6457923,45.2036067],[-93.6453212,45.2039553],[-93.6444925,45.204197],[-93.6432195,45.204558],[-93.6426808,45.2051709],[-93.6422706,45.2062178],[-93.642006,45.2070386],[-93.6415459,45.2077447],[-93.6405983,45.2087168],[-93.6397953,45.2093471],[-93.6389129,45.2097963],[-93.6378809,45.2100425],[-93.6369244,45.2100573],[-93.635631,45.2097984],[-93.6348024,45.2093231],[-93.6343061,45.2086264],[-93.6339218,45.2074176],[-93.6332779,45.2058853],[-93.6326023,45.204265],[-93.632052,45.2036181],[-93.6310501,45.2028848],[-93.6296546,45.2024832],[-93.6279904,45.2024732],[-93.6261796,45.2025794],[-93.6252629,45.2025829],[-93.6250928,45.2026307],[-93.6240772,45.2032225],[-93.6234102,45.2038275],[-93.6231157,45.20456],[-93.6232641,45.2052431],[-93.6237977,45.2057382],[-93.6245196,45.2062002],[-93.6250367,45.2066498],[-93.625263,45.2068465],[-93.6259733,45.207328],[-93.6262403,45.2076129],[-93.6264623,45.2080907],[-93.6264507,45.2085308],[-93.6260975,45.2090329],[-93.6257045,45.2094416],[-93.6254188,45.2096682],[-93.625263,45.2097293],[-93.6247257,45.2097293],[-93.6232349,45.2096336],[-93.6223963,45.2095742],[-93.6216519,45.2094383],[-93.620613,45.2092128],[-93.6194026,45.2090525],[-93.6181593,45.2090789],[-93.6174252,45.2092356],[-93.6161725,45.2096558],[-93.6155445,45.2101134],[-93.6148898,45.2108007],[-93.6142868,45.2112584],[-93.6134106,45.211464],[-93.6126603,45.2114827],[-93.612088,45.2110919],[-93.6120676,45.2104023],[-93.6123734,45.2098902],[-93.6125732,45.2095553],[-93.6125549,45.2085653],[-93.612077,45.2081997],[-93.6115661,45.2080209],[-93.6110077,45.2081533],[-93.6107055,45.2084883],[-93.6105015,45.2090711],[-93.6099672,45.209355],[-93.609216,45.2098683],[-93.6086197,45.2104152],[-93.6082995,45.2113159],[-93.6082574,45.2119099],[-93.6075127,45.2122581],[-93.6067979,45.2122543],[-93.605606,45.2121131],[-93.605088,45.2123002],[-93.6050015,45.2127829],[-93.6045998,45.2129249],[-93.6041765,45.21278],[-93.6033679,45.2118399],[-93.6032564,45.2116751],[-93.6029125,45.2111668],[-93.602293,45.2106236],[-93.6019946,45.2101383],[-93.6019032,45.209279],[-93.6020803,45.2085827],[-93.6020342,45.2080167],[-93.6014839,45.2077912],[-93.6005684,45.2076652],[-93.5990161,45.2075137],[-93.5979293,45.2074309],[-93.5971386,45.2074164],[-93.5964362,45.2077851],[-93.5959803,45.2080476],[-93.5957325,45.2083132],[-93.5944958,45.2088208],[-93.5938275,45.2090491],[-93.5931719,45.2098423],[-93.5928134,45.211061],[-93.5926821,45.2119445],[-93.5927283,45.2124928],[-93.5926196,45.2127942],[-93.593591,45.2135037],[-93.5940673,45.2140533],[-93.5943369,45.2148322],[-93.5939857,45.2158389],[-93.5938991,45.2166637],[-93.5939245,45.217192],[-93.593873,45.2176539],[-93.5932928,45.218135],[-93.592279,45.2184706],[-93.5914392,45.218521],[-93.5907719,45.2184293],[-93.5905372,45.2182841],[-93.5905402,45.2178421],[-93.5904883,45.2173384],[-93.5903267,45.2164791],[-93.5899778,45.2156849],[-93.5896264,45.2151108],[-93.5892876,45.2148339],[-93.5884874,45.2147054],[-93.587288,45.2146127],[-93.5861358,45.2149092],[-93.5849609,45.2154153],[-93.5840018,45.2161391],[-93.5833742,45.2164904],[-93.5823515,45.2167103],[-93.5813716,45.2168369],[-93.5801872,45.2170725],[-93.5791577,45.217419],[-93.5779553,45.2179404],[-93.5766297,45.2183623],[-93.5753372,45.2185971],[-93.5741871,45.2185907],[-93.5726181,45.2185268],[-93.5710182,45.2184408],[-93.5700537,45.2185234],[-93.5694449,45.2187621],[-93.5685499,45.2195655],[-93.5677691,45.2203405],[-93.5672145,45.2209396],[-93.5665367,45.2212906],[-93.5649815,45.2219389],[-93.5634795,45.2226788],[-93.562366,45.2235637],[-93.5617031,45.2244623],[-93.5613506,45.2253957],[-93.5613101,45.2262208],[-93.5611152,45.226968],[-93.5607863,45.2271972],[-93.5603203,45.2271614],[-93.559769,45.2267458],[-93.5591744,45.2260187],[-93.5576699,45.2251215],[-93.5570566,45.2250028],[-93.5566547,45.2252488],[-93.5562759,45.2257247],[-93.5557191,45.2265889],[-93.5549165,45.226904],[-93.554057,45.2270815],[-93.5524098,45.2268755],[-93.5523847,45.2305931],[-93.5524563,45.2311217],[-93.5525458,45.2314634],[-93.5527411,45.2320478],[-93.5529371,45.2325881],[-93.5531338,45.2330514],[-93.5543049,45.235336],[-93.555017,45.2369578],[-93.5551376,45.2372886],[-93.5552879,45.2377517],[-93.5553455,45.2380661],[-93.5603315,45.238069],[-93.5624569,45.2380701],[-93.5718288,45.2380686],[-93.5773207,45.2380673],[-93.5818035,45.2380661],[-93.5829681,45.2380703],[-93.5925341,45.2380489],[-93.601783,45.2380275],[-93.6024838,45.2380304],[-93.6033574,45.2380339],[-93.6136351,45.2380605],[-93.6223377,45.2380824],[-93.6237157,45.2380804],[-93.624124,45.2380781],[-93.6338035,45.2380233],[-93.6340468,45.2244076],[-93.6389458,45.2243014],[-93.6440404,45.2242307],[-93.6494763,45.2243295],[-93.6494963,45.2236053],[-93.649818,45.2236115],[-93.6514363,45.2236409],[-93.6514419,45.2234108],[-93.6520094,45.2234211],[-93.6520735,45.2207771],[-93.6645266,45.2210166],[-93.6797306,45.2209028],[-93.6848926,45.2209278],[-93.6848128,45.2245864],[-93.6846312,45.2338849],[-93.6846826,45.2378991],[-93.6846839,45.2380023],[-93.7042584,45.2380236],[-93.7049663,45.2380216],[-93.7248698,45.2380318],[-93.7254378,45.2380346],[-93.7454108,45.2380037],[-93.7461111,45.2380002],[-93.7511214,45.2380087],[-93.765769,45.237998],[-93.7659034,45.2090007],[-93.7659034,45.2090007],[-93.7659998,45.1946296],[-93.7659998,45.1946295],[-93.7659207,45.1801672],[-93.7659207,45.1801672],[-93.7658867,45.1655293],[-93.7658867,45.1655293]]]}}]}