{"type":"FeatureCollection","name":"saint_francis_border","features":[{"type":"Feature","properties":{"GNIS_FEATURE_ID":2396487,"FEATURE_NAME":"saint_francis","CTU_CLASS":"CITY","COUNTY_GNIS_FEATURE_ID":659447,"COUNTY_CODE":"02","COUNTY_NAME":"Anoka","POPULATION":8306,"SE_ANNO_CAD_DATA":null},"geometry":{"type":"Polygon","coordinates":[[[-93.4498007,45.4136532],[-93.4704505,45.4138013],[-93.4906954,45.413868],[-93.50026,45.4144938],[-93.510142,45.4149072],[-93.5100524,45.4000311],[-93.5099103,45.3856118],[-93.5002606,45.3855633],[-93.4917705,45.385385],[-93.4710007,45.3852323],[-93.4503845,45.3850787],[-93.449695,45.3850726],[-93.4296984,45.3848939],[-93.4090503,45.3848263],[-93.3886214,45.3846899],[-93.375257,45.3847367],[-93.373303,45.384718],[-93.373373,45.3814666],[-93.3752572,45.3814735],[-93.378127,45.3814909],[-93.3781731,45.3782717],[-93.3752572,45.3782211],[-93.3679836,45.3781657],[-93.3525182,45.3779196],[-93.3524416,45.3848815],[-93.3473717,45.3848593],[-93.3268746,45.384796],[-93.3063856,45.3847951],[-93.2859509,45.3847411],[-93.2756869,45.3847073],[-93.265314,45.3847551],[-93.2654743,45.3957595],[-93.2685501,45.3957379],[-93.2686188,45.3954401],[-93.2687557,45.3948471],[-93.270436,45.3948345],[-93.270493,45.3948341],[-93.2704956,45.3956353],[-93.2704959,45.3957245],[-93.2730709,45.3957067],[-93.2756459,45.3956889],[-93.2756279,45.3921151],[-93.2807113,45.3920677],[-93.280727,45.3920675],[-93.2807296,45.392859],[-93.2807385,45.3956531],[-93.2807402,45.3961685],[-93.2807412,45.3964976],[-93.2807421,45.3967727],[-93.280743,45.3970479],[-93.2807439,45.3973329],[-93.2807461,45.3980197],[-93.2807473,45.3983899],[-93.2807485,45.3987602],[-93.2807496,45.3990924],[-93.2807513,45.3993097],[-93.2807073,45.4028655],[-93.2806645,45.4064922],[-93.2806224,45.4100993],[-93.2799888,45.4101012],[-93.2793552,45.4101032],[-93.2787216,45.4101052],[-93.2768208,45.4101111],[-93.2755537,45.410115],[-93.2705922,45.4101334],[-93.2703352,45.4101343],[-93.2655235,45.4101519],[-93.2653737,45.4101524],[-93.2653752,45.4109751],[-93.2653787,45.4127836],[-93.2653805,45.4136998],[-93.2654608,45.4137004],[-93.2705033,45.4137383],[-93.2857642,45.4137031],[-93.2961657,45.4136753],[-93.3062565,45.4135581],[-93.3097996,45.413576],[-93.3166257,45.4135902],[-93.3218711,45.4136246],[-93.3270744,45.4136585],[-93.3424849,45.4137267],[-93.347527,45.4136779],[-93.3572737,45.4136021],[-93.3677302,45.4136721],[-93.3752567,45.413639],[-93.3885025,45.4136176],[-93.4091058,45.413727],[-93.4193299,45.4137499],[-93.4296333,45.4136455],[-93.4498007,45.4136532]]]}}]}