{"type":"FeatureCollection","name":"saint_louis_park_border","features":[{"type":"Feature","properties":{"GNIS_FEATURE_ID":2396500,"FEATURE_NAME":"saint_louis_park","CTU_CLASS":"CITY","COUNTY_GNIS_FEATURE_ID":659472,"COUNTY_CODE":"27","COUNTY_NAME":"Hennepin","POPULATION":49786,"SE_ANNO_CAD_DATA":null},"geometry":{"type":"Polygon","coordinates":[[[-93.4104674,44.9785561],[-93.4105142,44.9730764],[-93.4077066,44.9731943],[-93.4042954,44.9732418],[-93.4043161,44.9713602],[-93.4047636,44.9713608],[-93.404743,44.9701249],[-93.4056099,44.9701259],[-93.405629,44.9677256],[-93.4046937,44.967719],[-93.4047028,44.9671094],[-93.4056338,44.9671159],[-93.4056579,44.9640855],[-93.4006785,44.9640479],[-93.4008481,44.9567628],[-93.4006251,44.9493884],[-93.4006203,44.9423052],[-93.3993936,44.9423092],[-93.3990561,44.9418024],[-93.3989291,44.9416036],[-93.3988462,44.9414335],[-93.3987708,44.9412277],[-93.3987253,44.941021],[-93.3987203,44.9408819],[-93.3987255,44.9405018],[-93.400619,44.9405099],[-93.4006179,44.9387487],[-93.400606,44.935081],[-93.3955889,44.9351386],[-93.3955939,44.9344864],[-93.3921336,44.9347882],[-93.3913035,44.9348657],[-93.3903641,44.9349672],[-93.3897082,44.9350467],[-93.3888239,44.9351654],[-93.3854172,44.9356419],[-93.3854214,44.935222],[-93.3851489,44.9352206],[-93.3851483,44.9352206],[-93.3850141,44.9353733],[-93.385013,44.9353745],[-93.385013,44.9353746],[-93.3850105,44.9353773],[-93.3850028,44.9353508],[-93.3849899,44.9353256],[-93.3849793,44.935312],[-93.3849714,44.9353018],[-93.3849605,44.9352918],[-93.3849484,44.9352807],[-93.3849345,44.9352716],[-93.3849204,44.9352624],[-93.3849204,44.9352588],[-93.384918,44.9350949],[-93.3849035,44.9350947],[-93.3808354,44.9350222],[-93.380808,44.929601],[-93.3793782,44.9300871],[-93.3793652,44.9300679],[-93.3794515,44.9300383],[-93.3795561,44.9299977],[-93.379651,44.9299559],[-93.3797408,44.9299115],[-93.3798459,44.9298529],[-93.3799313,44.929799],[-93.3800381,44.9297213],[-93.3801577,44.9296171],[-93.380246,44.9295238],[-93.3803029,44.9294531],[-93.3803473,44.9293901],[-93.3792153,44.9291112],[-93.3792316,44.9290645],[-93.3792491,44.9289945],[-93.3792569,44.9289442],[-93.379261,44.9288756],[-93.3792596,44.9285495],[-93.3791438,44.9285498],[-93.3791408,44.927828],[-93.3791329,44.9260265],[-93.3784162,44.9260634],[-93.3768443,44.9261572],[-93.3752504,44.9262335],[-93.3747432,44.9262968],[-93.3743763,44.9263728],[-93.3737155,44.9265513],[-93.3722838,44.9269425],[-93.3712929,44.9272196],[-93.3709463,44.9273099],[-93.3706807,44.9273759],[-93.3706313,44.9205031],[-93.3609159,44.9205296],[-93.3495983,44.9204913],[-93.349597,44.9197384],[-93.3393212,44.9196976],[-93.3395126,44.9201757],[-93.3389802,44.920299],[-93.3391385,44.9206916],[-93.339046,44.9207032],[-93.3402711,44.9234515],[-93.3391832,44.9234507],[-93.3392308,44.9294755],[-93.3392149,44.9305907],[-93.3339622,44.9305819],[-93.3289574,44.9305883],[-93.3289486,44.9341814],[-93.3288052,44.9484704],[-93.3287083,44.9629023],[-93.3286937,44.9664841],[-93.3437051,44.9666279],[-93.3437377,44.970376],[-93.3494823,44.9703202],[-93.349492,44.9711116],[-93.3752517,44.9708866],[-93.4006553,44.971328],[-93.4005095,44.9785035],[-93.4104674,44.9785561]]]}}]}