{"type":"FeatureCollection","name":"saint_bonifacius_border","features":[{"type":"Feature","properties":{"GNIS_FEATURE_ID":2396475,"FEATURE_NAME":"saint_bonifacius","CTU_CLASS":"CITY","COUNTY_GNIS_FEATURE_ID":659472,"COUNTY_CODE":"27","COUNTY_NAME":"Hennepin","POPULATION":2267,"SE_ANNO_CAD_DATA":null},"geometry":{"type":"Polygon","coordinates":[[[-93.7370984,44.9057757],[-93.7370697,44.9131101],[-93.7472698,44.9130333],[-93.7575361,44.9127878],[-93.7575539,44.9053907],[-93.758006,44.9053847],[-93.7580055,44.9050699],[-93.7575577,44.9049232],[-93.7576127,44.8982211],[-93.7524586,44.89829],[-93.7525174,44.8943208],[-93.7513912,44.8950095],[-93.750778,44.8953844],[-93.7487679,44.8966134],[-93.7484321,44.896823],[-93.7481029,44.8970379],[-93.747807,44.8972371],[-93.747517,44.8974407],[-93.7473493,44.8975637],[-93.7473305,44.8983591],[-93.746333,44.8983577],[-93.7447788,44.8997224],[-93.7449286,44.8998087],[-93.7439273,44.9006928],[-93.745989,44.9007254],[-93.7459917,44.9015778],[-93.7429731,44.9015351],[-93.7424176,44.9020243],[-93.740523,44.902038],[-93.740688,44.9013511],[-93.7417037,44.9013438],[-93.7440294,44.8992906],[-93.744479,44.8995497],[-93.745831,44.8983573],[-93.7371982,44.898349],[-93.7371511,44.9018511],[-93.7376896,44.9018548],[-93.7376925,44.9020584],[-93.7371483,44.9020623],[-93.7370984,44.9057757]]]}}]}