{"type":"FeatureCollection","name":"saint_paul_border","features":[{"type":"Feature","properties":{"GNIS_FEATURE_ID":2396511,"FEATURE_NAME":"saint_paul","CTU_CLASS":"CITY","COUNTY_GNIS_FEATURE_ID":659507,"COUNTY_CODE":"62","COUNTY_NAME":"Ramsey","POPULATION":310992,"SE_ANNO_CAD_DATA":null},"geometry":{"type":"Polygon","coordinates":[[[-93.1059775,44.991879],[-93.1252437,44.9917599],[-93.1260722,44.9917821],[-93.1354791,44.9919275],[-93.1464603,44.9919461],[-93.1567392,44.9917937],[-93.1567146,44.988217],[-93.1669545,44.9881406],[-93.1670176,44.9773228],[-93.1873774,44.9773205],[-93.1872667,44.9880394],[-93.1974574,44.9880974],[-93.2077046,44.988083],[-93.2077603,44.977227],[-93.2078654,44.9627996],[-93.2076616,44.9542309],[-93.2076215,44.9529967],[-93.2063717,44.952646],[-93.2051296,44.9521748],[-93.2044118,44.9517087],[-93.203856,44.9512097],[-93.2032152,44.9506065],[-93.2026513,44.9498552],[-93.2021105,44.9490269],[-93.2017318,44.9482317],[-93.201368,44.9470798],[-93.2009194,44.9458457],[-93.2006711,44.9445621],[-93.200531,44.9433937],[-93.2004907,44.9419345],[-93.2004736,44.9404917],[-93.200549,44.9389996],[-93.2005544,44.936915],[-93.2005832,44.9352034],[-93.2004887,44.9334042],[-93.2003783,44.9312483],[-93.2001287,44.9287634],[-93.1999034,44.927178],[-93.1999482,44.9258449],[-93.2002238,44.9243417],[-93.2006753,44.9214232],[-93.2009353,44.919739],[-93.2010114,44.9188503],[-93.2009173,44.9174021],[-93.2009233,44.9160141],[-93.2008756,44.9147305],[-93.2008509,44.9133481],[-93.200834,44.912059],[-93.2007479,44.9109124],[-93.2006699,44.9100896],[-93.2004767,44.9096124],[-93.1999597,44.9089817],[-93.199358,44.9084223],[-93.1985021,44.907885],[-93.1970371,44.907079],[-93.1949477,44.9059934],[-93.1938752,44.9054177],[-93.1937219,44.9053354],[-93.1925885,44.9047158],[-93.1918327,44.9040357],[-93.1914313,44.9032788],[-93.1912765,44.902604],[-93.1912294,44.9017758],[-93.1913134,44.9009528],[-93.1914747,44.9003658],[-93.1917437,44.8998007],[-93.191982,44.8991918],[-93.1921045,44.8984017],[-93.1919959,44.897738],[-93.1917487,44.8971675],[-93.191209,44.8966794],[-93.1904921,44.8961584],[-93.1896133,44.8956704],[-93.1885267,44.8953415],[-93.1869008,44.8949523],[-93.1854213,44.8946783],[-93.183395,44.8944428],[-93.1808061,44.8941305],[-93.1787183,44.8939004],[-93.1775086,44.8937744],[-93.1770926,44.8937086],[-93.1768845,44.8936318],[-93.1766764,44.8934398],[-93.1767455,44.8930997],[-93.1773381,44.8924248],[-93.177692,44.8917665],[-93.1778534,44.8912288],[-93.1779223,44.8906474],[-93.1778756,44.8901043],[-93.177829,44.8895831],[-93.1779028,44.8891453],[-93.1781673,44.8887986],[-93.1781595,44.8886011],[-93.177358,44.888135],[-93.1766391,44.8878152],[-93.1753394,44.887614],[-93.1745614,44.8875866],[-93.1736755,44.8876306],[-93.1723276,44.887735],[-93.1708025,44.8879106],[-93.1698166,44.8881136],[-93.1690002,44.8883879],[-93.167768,44.8889695],[-93.1669518,44.8894139],[-93.1653575,44.8900119],[-93.1640635,44.8902751],[-93.1625538,44.8905604],[-93.1611211,44.8909388],[-93.1599348,44.8911583],[-93.1586254,44.8913995],[-93.1572851,44.8917781],[-93.1568158,44.8920037],[-93.1560759,44.8923595],[-93.1550438,44.8927982],[-93.1539037,44.8932479],[-93.1532105,44.8936045],[-93.1531374,44.8936637],[-93.1522632,44.8943724],[-93.1515546,44.8950635],[-93.1506073,44.8960125],[-93.1499217,44.8965829],[-93.1490591,44.8972027],[-93.1480269,44.8979706],[-93.1463476,44.8992869],[-93.1451998,44.9002467],[-93.1440057,44.9011077],[-93.1425727,44.9019085],[-93.1415172,44.9025172],[-93.1405696,44.9033289],[-93.1397143,44.903784],[-93.138366,44.9043762],[-93.1374338,44.9049739],[-93.1366631,44.9056814],[-93.1359928,44.9065973],[-93.1350374,44.9077271],[-93.1342822,44.9087474],[-93.1335579,44.9097455],[-93.1331494,44.9106561],[-93.1327641,44.9118244],[-93.1324713,44.9129709],[-93.132294,44.9139912],[-93.1318932,44.9152418],[-93.1317005,44.9161853],[-93.1315001,44.916893],[-93.130845,44.9176827],[-93.1299741,44.9185821],[-93.129342,44.9192127],[-93.1290183,44.9194924],[-93.1287947,44.919624],[-93.126182,44.9196287],[-93.1252426,44.9196174],[-93.1111861,44.9196652],[-93.1059497,44.9196826],[-93.0960148,44.9196558],[-93.0960237,44.9232724],[-93.0909565,44.9233066],[-93.090933,44.9196416],[-93.0857886,44.9196271],[-93.0652876,44.919529],[-93.0585488,44.919515],[-93.0515716,44.919506],[-93.0496912,44.9176679],[-93.0492731,44.9170958],[-93.0474277,44.9145706],[-93.0468414,44.9138986],[-93.046746,44.9137866],[-93.0460545,44.9129964],[-93.0443758,44.9107928],[-93.0438303,44.9099887],[-93.0428647,44.9079933],[-93.0426543,44.9069805],[-93.0417131,44.9046439],[-93.0416466,44.9044787],[-93.0412021,44.9040228],[-93.04033,44.9031314],[-93.0399009,44.902685],[-93.038115,44.9012651],[-93.0354675,44.8991598],[-93.034182,44.8983448],[-93.0326307,44.8973622],[-93.0309959,44.8965882],[-93.029371,44.8960375],[-93.0282733,44.8956627],[-93.0279193,44.8955181],[-93.0274802,44.8953357],[-93.0262066,44.8948045],[-93.0259582,44.8947252],[-93.0244571,44.8942663],[-93.0228643,44.8935815],[-93.0211876,44.8925989],[-93.0207211,44.8920907],[-93.0206229,44.8919886],[-93.0203808,44.8917199],[-93.0195381,44.8907892],[-93.0174853,44.8907916],[-93.0044593,44.8907925],[-93.0044847,44.905088],[-93.004489,44.9122686],[-93.0047863,44.9194317],[-93.0048807,44.933941],[-93.0050611,44.9485981],[-93.0050857,44.9630307],[-93.0051957,44.9775178],[-93.0050505,44.9919508],[-93.0151258,44.9918954],[-93.0253886,44.9919208],[-93.0458379,44.9920078],[-93.0661851,44.9919762],[-93.0863242,44.9917937],[-93.1059775,44.991879]]]}}]}