{"type":"FeatureCollection","name":"saint_anthony_border","features":[{"type":"Feature","properties":{"GNIS_FEATURE_ID":2396471,"FEATURE_NAME":"saint_anthony","CTU_CLASS":"CITY","COUNTY_GNIS_FEATURE_ID":659472,"COUNTY_CODE":"27","COUNTY_NAME":"Hennepin","POPULATION":5477,"SE_ANNO_CAD_DATA":null},"geometry":{"type":"MultiPolygon","coordinates":[[[[-93.2077156,45.0061681],[-93.2077976,45.0206015],[-93.2082013,45.035793],[-93.2269092,45.0356329],[-93.226856,45.0204805],[-93.22689,45.0132612],[-93.2178723,45.0133724],[-93.2176757,45.0060436],[-93.2077156,45.0061681]]],[[[-93.2082013,45.035793],[-93.208165,45.0430177],[-93.2182862,45.0428927],[-93.2182359,45.0500989],[-93.2268103,45.0499999],[-93.2269092,45.0356329],[-93.2082013,45.035793]]]]}}]}