{"type":"FeatureCollection","name":"savage_border","features":[{"type":"Feature","properties":{"GNIS_FEATURE_ID":2396543,"FEATURE_NAME":"savage","CTU_CLASS":"CITY","COUNTY_GNIS_FEATURE_ID":659514,"COUNTY_CODE":"70","COUNTY_NAME":"Scott","POPULATION":33137,"SE_ANNO_CAD_DATA":null},"geometry":{"type":"Polygon","coordinates":[[[-93.398758,44.7277494],[-93.3988709,44.7173008],[-93.3789624,44.7172271],[-93.3776483,44.7172437],[-93.3776374,44.7172438],[-93.3776375,44.7172435],[-93.3777027,44.7160456],[-93.377676,44.7160658],[-93.3776463,44.7161069],[-93.3776219,44.716124],[-93.3775808,44.7161796],[-93.3775543,44.7161995],[-93.3774072,44.7162112],[-93.3773711,44.7162066],[-93.3773575,44.7161749],[-93.3772357,44.7161151],[-93.3772093,44.7161336],[-93.3771924,44.716188],[-93.3771047,44.7162576],[-93.3770697,44.7163104],[-93.3770588,44.7163619],[-93.3771046,44.7163924],[-93.3770901,44.7164181],[-93.3770354,44.7164392],[-93.3770244,44.7165037],[-93.3769914,44.7165551],[-93.3769448,44.7165719],[-93.3768956,44.7166361],[-93.3768564,44.7166874],[-93.3768018,44.7167128],[-93.3767422,44.7167855],[-93.3766298,44.7167995],[-93.3766051,44.7168102],[-93.3766086,44.7168418],[-93.3765856,44.7168976],[-93.3765155,44.716874],[-93.3764634,44.7168636],[-93.3764266,44.7169041],[-93.3763897,44.7169448],[-93.3763089,44.716957],[-93.3762642,44.7169897],[-93.3761245,44.7169168],[-93.3759942,44.7168785],[-93.3759041,44.7168606],[-93.3758251,44.7168858],[-93.3758238,44.7169704],[-93.3758054,44.7169932],[-93.3756303,44.7169947],[-93.3755826,44.7169555],[-93.3755581,44.7169783],[-93.3755536,44.717007],[-93.3755149,44.7170368],[-93.3754025,44.7170215],[-93.3753528,44.7169795],[-93.3750998,44.7169445],[-93.3750118,44.7169136],[-93.3749375,44.7169044],[-93.3748731,44.7169039],[-93.3747954,44.7168603],[-93.3747451,44.7168555],[-93.3746963,44.7168867],[-93.3746735,44.7169267],[-93.3746722,44.7169775],[-93.3746601,44.717017],[-93.3745967,44.7170609],[-93.3745223,44.7170585],[-93.3744882,44.7170544],[-93.3744615,44.7170598],[-93.3744087,44.7171033],[-93.3743505,44.7171009],[-93.3743246,44.7171081],[-93.3742947,44.7172182],[-93.3742572,44.7172581],[-93.3742362,44.7172867],[-93.3742303,44.7172947],[-93.3588067,44.7175235],[-93.3487286,44.7174774],[-93.3386134,44.717558],[-93.3284778,44.7175513],[-93.3284848,44.731948],[-93.3286358,44.7452718],[-93.3287043,44.7499755],[-93.3287343,44.7758243],[-93.3296386,44.7758351],[-93.3296555,44.7903901],[-93.3296385,44.7910808],[-93.3304281,44.7905971],[-93.3312394,44.7900792],[-93.3322687,44.789189],[-93.3335841,44.7880587],[-93.3347282,44.7872294],[-93.3356313,44.7867612],[-93.336564,44.7864796],[-93.3371567,44.7864106],[-93.3380413,44.7864195],[-93.3392863,44.7865891],[-93.3409439,44.787144],[-93.3431523,44.7881784],[-93.3447621,44.7890021],[-93.3456417,44.7897625],[-93.3462833,44.7904397],[-93.3468795,44.7910125],[-93.3475925,44.7913663],[-93.3485073,44.7914741],[-93.3495155,44.7913902],[-93.3503935,44.7912235],[-93.3513433,44.790695],[-93.3520243,44.7900557],[-93.352405,44.7894922],[-93.3530946,44.7887432],[-93.353491,44.7881028],[-93.3539273,44.7872597],[-93.3542545,44.7866246],[-93.3547655,44.7861164],[-93.3553141,44.7857234],[-93.3558538,44.7855171],[-93.3560926,44.785474],[-93.3565463,44.7854922],[-93.3571229,44.7855327],[-93.3579446,44.7857223],[-93.3588967,44.7860112],[-93.359778,44.7865082],[-93.360828,44.7870991],[-93.3619152,44.7878766],[-93.3628187,44.7885273],[-93.3637159,44.7889694],[-93.3643386,44.789054],[-93.3654077,44.789058],[-93.366409,44.7888532],[-93.3674716,44.7886816],[-93.3684743,44.7882409],[-93.3699385,44.7878128],[-93.3734604,44.7867449],[-93.3752478,44.7861481],[-93.3757583,44.7859875],[-93.3765841,44.7857455],[-93.3777936,44.7854377],[-93.3788003,44.7853306],[-93.3796417,44.7853796],[-93.3804929,44.785511],[-93.3809351,44.7859007],[-93.3815147,44.7868163],[-93.3820453,44.7879138],[-93.3828634,44.7902387],[-93.3833012,44.7916069],[-93.3839169,44.793286],[-93.3843509,44.7956545],[-93.384601,44.796635],[-93.385312,44.7975597],[-93.3863312,44.7981944],[-93.388145,44.7985599],[-93.3894098,44.798581],[-93.392033,44.7980944],[-93.3935986,44.7975563],[-93.3954298,44.7971465],[-93.3968448,44.7973084],[-93.397912,44.7979973],[-93.3988528,44.7987095],[-93.3988976,44.7899558],[-93.3987586,44.775477],[-93.398838,44.7610969],[-93.3990058,44.75376],[-93.3990294,44.7465219],[-93.3939437,44.7464668],[-93.387368,44.7464336],[-93.3853788,44.7463998],[-93.3845019,44.746384],[-93.382089,44.7463446],[-93.379497,44.7462809],[-93.3796432,44.7438753],[-93.3796499,44.7438079],[-93.3796564,44.7437383],[-93.379664,44.7436528],[-93.3796692,44.7435921],[-93.3796743,44.7435337],[-93.3796794,44.7434752],[-93.3796847,44.7434167],[-93.3796938,44.7433247],[-93.3797043,44.7432282],[-93.3797138,44.743152],[-93.3797238,44.7430804],[-93.379735,44.7430089],[-93.3797443,44.7429554],[-93.3797548,44.7428974],[-93.3797682,44.7428258],[-93.3797826,44.7427543],[-93.3797986,44.7426806],[-93.379819,44.742596],[-93.3798373,44.7425273],[-93.3798569,44.7424612],[-93.3798784,44.7423954],[-93.3799006,44.7423345],[-93.3799283,44.7422655],[-93.3799583,44.742197],[-93.3799896,44.7421287],[-93.380022,44.7420606],[-93.3800554,44.7419928],[-93.3800897,44.7419251],[-93.3801271,44.7418534],[-93.3801629,44.741786],[-93.3802017,44.7417145],[-93.3802434,44.741639],[-93.3802761,44.7415803],[-93.3803043,44.7415301],[-93.3803397,44.7414673],[-93.3803823,44.741392],[-93.380413,44.7413376],[-93.3804437,44.7412833],[-93.3804743,44.7412289],[-93.3805047,44.7411745],[-93.3805394,44.7411117],[-93.3805755,44.7410543],[-93.3806186,44.7409987],[-93.3835968,44.7372254],[-93.3860778,44.7341956],[-93.3861238,44.7341311],[-93.3861679,44.7340656],[-93.3862006,44.7340163],[-93.3862332,44.733967],[-93.3862774,44.7339016],[-93.3863233,44.733837],[-93.3863687,44.7337778],[-93.3864139,44.733724],[-93.3864698,44.7336648],[-93.3865308,44.7336082],[-93.3865947,44.7335531],[-93.3866597,44.7334984],[-93.3867258,44.7334443],[-93.3867929,44.7333906],[-93.3868653,44.7333341],[-93.3869343,44.7332814],[-93.3869909,44.7332389],[-93.3870437,44.7331999],[-93.3871101,44.7331514],[-93.3871885,44.7330954],[-93.3872879,44.7330255],[-93.3873813,44.732961],[-93.3874501,44.7329142],[-93.3875193,44.7328676],[-93.3876025,44.7328121],[-93.387686,44.732757],[-93.3877558,44.7327113],[-93.387821,44.7326689],[-93.3878964,44.7326214],[-93.3879742,44.7325757],[-93.3880539,44.7325317],[-93.3881431,44.7324851],[-93.3882335,44.7324397],[-93.3883171,44.7323988],[-93.3884009,44.7323582],[-93.388469,44.7323252],[-93.3885447,44.7322881],[-93.38863,44.7322453],[-93.3887171,44.7322005],[-93.3888143,44.7321504],[-93.3888911,44.7321109],[-93.3889628,44.732074],[-93.3890533,44.7320276],[-93.3891371,44.7319846],[-93.389237,44.7319334],[-93.3893267,44.7318874],[-93.3893985,44.7318506],[-93.3894652,44.7318165],[-93.3895524,44.7317718],[-93.3896293,44.7317324],[-93.3896959,44.7316982],[-93.3897634,44.7316636],[-93.398758,44.7277494]]]}}]}