{"type":"FeatureCollection","name":"shakopee_border","features":[{"type":"Feature","properties":{"GNIS_FEATURE_ID":2395854,"FEATURE_NAME":"shakopee","CTU_CLASS":"CITY","COUNTY_GNIS_FEATURE_ID":659514,"COUNTY_CODE":"70","COUNTY_NAME":"Scott","POPULATION":45961,"SE_ANNO_CAD_DATA":null},"geometry":{"type":"Polygon","coordinates":[[[-93.576169,44.7674882],[-93.5762164,44.7674523],[-93.574642,44.7664683],[-93.5746036,44.7663194],[-93.5745804,44.7663445],[-93.5741971,44.7665859],[-93.5728724,44.7655171],[-93.5714765,44.7654961],[-93.5714588,44.7636842],[-93.5714415,44.7618456],[-93.5663123,44.7617549],[-93.5663311,44.7635792],[-93.5663803,44.7682718],[-93.5612578,44.7682924],[-93.5612653,44.7689388],[-93.5612717,44.7694988],[-93.5602513,44.7695219],[-93.5602415,44.768962],[-93.5594107,44.7689808],[-93.5594245,44.7695373],[-93.5586022,44.7695598],[-93.5585899,44.7689996],[-93.5561558,44.7690552],[-93.5561189,44.7653986],[-93.5610314,44.7653053],[-93.5612234,44.7653014],[-93.5611815,44.7616639],[-93.5561061,44.761745],[-93.5562109,44.7581226],[-93.55647,44.7490397],[-93.5513432,44.7490805],[-93.5512471,44.7525206],[-93.5490471,44.7525469],[-93.5490909,44.7509793],[-93.5436671,44.7510439],[-93.5436468,44.7528546],[-93.541106,44.7528847],[-93.5410903,44.7544066],[-93.5424758,44.7543852],[-93.5424706,44.7547171],[-93.54616,44.7546596],[-93.5460532,44.7578101],[-93.5476238,44.7577868],[-93.5511029,44.7576857],[-93.5509873,44.7618203],[-93.5509873,44.7618266],[-93.5509794,44.7618267],[-93.5408824,44.7621201],[-93.5408653,44.7657602],[-93.5372517,44.765595],[-93.5357208,44.765525],[-93.535721,44.7656161],[-93.5357195,44.7689365],[-93.5357193,44.7690277],[-93.5327255,44.7685144],[-93.5311618,44.7682461],[-93.53057,44.7681426],[-93.5305716,44.7673792],[-93.5289576,44.7673024],[-93.528942,44.7672264],[-93.5269463,44.767231],[-93.5254251,44.7671271],[-93.525417,44.7685827],[-93.5203589,44.7683122],[-93.5203991,44.7612839],[-93.5203778,44.7499703],[-93.5203002,44.747136],[-93.5202986,44.7470787],[-93.5205597,44.7322513],[-93.5207411,44.7176932],[-93.5056927,44.7177131],[-93.5020563,44.7177516],[-93.5004549,44.7177557],[-93.4904092,44.7176361],[-93.4903587,44.7320586],[-93.4801174,44.7322699],[-93.4799721,44.7433156],[-93.479968,44.7436241],[-93.4799287,44.746607],[-93.4798817,44.7499762],[-93.4797712,44.7539015],[-93.4595355,44.7539052],[-93.4595915,44.7576899],[-93.4493516,44.7576737],[-93.449448,44.7539113],[-93.4396728,44.7540284],[-93.4395676,44.7576118],[-93.4292977,44.7576081],[-93.4293228,44.7612412],[-93.4192956,44.7612345],[-93.4193188,44.7538957],[-93.3990058,44.75376],[-93.398838,44.7610969],[-93.3987586,44.775477],[-93.3988976,44.7899558],[-93.3988528,44.7987095],[-93.3998614,44.7996152],[-93.4001212,44.7998492],[-93.4007338,44.8004005],[-93.4010274,44.8006779],[-93.4013865,44.8010188],[-93.4018657,44.8014753],[-93.4027369,44.8024103],[-93.4037465,44.8033022],[-93.4045644,44.8037807],[-93.4047699,44.8038919],[-93.4054701,44.8042627],[-93.4069551,44.8049627],[-93.4076037,44.8052684],[-93.4086853,44.8056671],[-93.4092317,44.8058715],[-93.4109115,44.8064741],[-93.4111931,44.8065753],[-93.4129221,44.8071231],[-93.4143168,44.8074882],[-93.4150357,44.8076028],[-93.4154257,44.8076656],[-93.4161406,44.8076486],[-93.4175572,44.8074338],[-93.4176673,44.8074165],[-93.4178606,44.8073672],[-93.4189442,44.807078],[-93.4205874,44.8069781],[-93.4215285,44.8071451],[-93.4222379,44.8073639],[-93.4253138,44.8083126],[-93.4263039,44.808618],[-93.4276201,44.8091318],[-93.4279201,44.8092473],[-93.4280837,44.8093097],[-93.4306848,44.810013],[-93.4338529,44.811045],[-93.436217,44.8118892],[-93.436973,44.812347],[-93.4373512,44.8125436],[-93.4380487,44.8127632],[-93.4388658,44.8128749],[-93.4389625,44.8128691],[-93.4393413,44.8128443],[-93.4394774,44.8128351],[-93.4399646,44.8127725],[-93.4403923,44.8125801],[-93.4407,44.8122833],[-93.4408067,44.812182],[-93.4412378,44.8116434],[-93.4416095,44.8109316],[-93.441844,44.8102624],[-93.4423626,44.8085132],[-93.4430934,44.8068301],[-93.4437524,44.8060578],[-93.4438501,44.8059489],[-93.4440132,44.8058369],[-93.4449487,44.8052172],[-93.4461486,44.8046698],[-93.4462627,44.8046189],[-93.4464424,44.8045598],[-93.4468876,44.8044137],[-93.4471387,44.804332],[-93.4475891,44.8041811],[-93.4485069,44.8039567],[-93.4491436,44.8037993],[-93.4494718,44.8037589],[-93.4506653,44.8036089],[-93.451568,44.8035213],[-93.4520488,44.8034744],[-93.4523098,44.8034492],[-93.4543574,44.8033128],[-93.4548959,44.8032753],[-93.4567809,44.8033275],[-93.4575401,44.8034392],[-93.4576649,44.8035025],[-93.4584349,44.8038944],[-93.4585665,44.8039649],[-93.4587115,44.8040869],[-93.4589028,44.8042516],[-93.459417,44.8047004],[-93.4595185,44.8047898],[-93.4605461,44.8055618],[-93.4614078,44.8061065],[-93.4621038,44.8064774],[-93.4634097,44.8066781],[-93.464475,44.806575],[-93.4651065,44.8065018],[-93.4660886,44.8063879],[-93.4675664,44.8060596],[-93.468785,44.8058273],[-93.4710995,44.8054704],[-93.4746024,44.8048485],[-93.4772927,44.8043647],[-93.4775277,44.8043576],[-93.4784418,44.8043319],[-93.4788268,44.8043245],[-93.4794577,44.8043084],[-93.4799355,44.8043512],[-93.4802887,44.8043815],[-93.4803793,44.804391],[-93.4808554,44.8044336],[-93.4818092,44.8048921],[-93.4823784,44.8058678],[-93.4829301,44.8070812],[-93.4836556,44.8075819],[-93.4841601,44.8075709],[-93.4844769,44.807564],[-93.4855997,44.8070542],[-93.4858479,44.8069401],[-93.4876068,44.8061183],[-93.4893476,44.8052826],[-93.4907519,44.8046618],[-93.4919262,44.8044422],[-93.4921073,44.8044083],[-93.4926522,44.804493],[-93.4927257,44.8045042],[-93.4931095,44.8045641],[-93.4937259,44.8053778],[-93.4944001,44.8065269],[-93.4951822,44.8075251],[-93.4954958,44.807897],[-93.4955702,44.8079942],[-93.4956171,44.8080584],[-93.4956632,44.8081231],[-93.4957088,44.8081881],[-93.4957541,44.8082532],[-93.4957831,44.8083277],[-93.4958367,44.8083878],[-93.4958853,44.8084511],[-93.4959317,44.8085156],[-93.4959792,44.8085796],[-93.4960274,44.8086432],[-93.4960783,44.8087084],[-93.4961264,44.8087688],[-93.4961777,44.8088307],[-93.4962302,44.8088917],[-93.4962842,44.8089519],[-93.49634,44.809011],[-93.4963948,44.8090661],[-93.4964579,44.8091255],[-93.4965201,44.8091818],[-93.4965842,44.8092385],[-93.49665,44.8092954],[-93.4967197,44.8093542],[-93.4967866,44.8094086],[-93.4968573,44.8094643],[-93.4969294,44.809519],[-93.4969991,44.8095738],[-93.497084,44.8096211],[-93.4971622,44.8096701],[-93.4972418,44.8097168],[-93.4973228,44.809761],[-93.4974053,44.8098023],[-93.497489,44.8098405],[-93.497574,44.8098752],[-93.4976603,44.8099062],[-93.4977477,44.8099331],[-93.4978381,44.8099557],[-93.4979323,44.8099739],[-93.4980297,44.8099881],[-93.4981298,44.8099986],[-93.4982322,44.8100054],[-93.4983363,44.8100091],[-93.4984427,44.810013],[-93.4985531,44.8100078],[-93.4986533,44.8100017],[-93.4987587,44.8099932],[-93.4988665,44.8099824],[-93.4989588,44.8099611],[-93.49907,44.8099629],[-93.4991695,44.8099491],[-93.4992662,44.8099342],[-93.4993607,44.8099154],[-93.4994538,44.8098914],[-93.4995455,44.8098629],[-93.4996359,44.8098305],[-93.4997251,44.8097948],[-93.4998132,44.8097565],[-93.4999002,44.8097162],[-93.4999862,44.8096745],[-93.5000674,44.8096253],[-93.5001539,44.809587],[-93.500241,44.8095459],[-93.5003226,44.809507],[-93.5004054,44.8094661],[-93.5004873,44.8094234],[-93.5005637,44.8093735],[-93.5006394,44.8093246],[-93.5007114,44.8092733],[-93.5007813,44.8092205],[-93.5008408,44.8091648],[-93.5008987,44.8091052],[-93.5009554,44.8090462],[-93.5010091,44.8089858],[-93.5010622,44.8089248],[-93.5011112,44.8088625],[-93.5011845,44.808807],[-93.501238,44.8087453],[-93.5012901,44.808683],[-93.5013408,44.8086201],[-93.50139,44.8085568],[-93.5014376,44.8084929],[-93.5014835,44.8084285],[-93.5015276,44.8083638],[-93.5015698,44.8082986],[-93.50161,44.8082329],[-93.5016483,44.8081667],[-93.5016848,44.8080999],[-93.5017198,44.8080326],[-93.5017534,44.8079648],[-93.5017857,44.8078966],[-93.5018169,44.8078281],[-93.5018472,44.8077593],[-93.5018767,44.8076902],[-93.5019057,44.8076209],[-93.5019342,44.8075515],[-93.5019625,44.8074821],[-93.5019907,44.8074126],[-93.5020189,44.8073431],[-93.5020474,44.8072738],[-93.5020763,44.8072046],[-93.5021058,44.8071356],[-93.5021359,44.8070668],[-93.5021661,44.8069981],[-93.502196,44.8069293],[-93.5022258,44.8068605],[-93.5022553,44.8067916],[-93.5022847,44.8067227],[-93.5023139,44.8066537],[-93.502343,44.8065848],[-93.502372,44.8065157],[-93.5024009,44.8064468],[-93.5024298,44.8063777],[-93.5024586,44.8063087],[-93.5024875,44.8062397],[-93.5025163,44.8061707],[-93.5025448,44.8061014],[-93.5025705,44.8060309],[-93.5025939,44.8059592],[-93.5025976,44.8058812],[-93.5026278,44.8058114],[-93.5026519,44.8057396],[-93.5026745,44.8056673],[-93.5026976,44.8055956],[-93.5027235,44.805525],[-93.5027519,44.8054559],[-93.5027843,44.8053871],[-93.5028256,44.8053202],[-93.5028663,44.8052621],[-93.5029153,44.8052031],[-93.5029708,44.8051463],[-93.5030329,44.8050908],[-93.5030998,44.8050381],[-93.5031741,44.8049848],[-93.5032565,44.8049374],[-93.5033407,44.8048917],[-93.5034266,44.8048461],[-93.5035171,44.8048082],[-93.503609,44.8047734],[-93.5036946,44.804744],[-93.503793,44.8047142],[-93.5038858,44.8046901],[-93.503984,44.8046704],[-93.5040815,44.8046587],[-93.5041756,44.804652],[-93.5042772,44.8046485],[-93.5043803,44.8046475],[-93.5044843,44.8046487],[-93.5045887,44.8046515],[-93.5046931,44.8046554],[-93.5047967,44.8046599],[-93.5048992,44.8046644],[-93.5050002,44.8046686],[-93.5051007,44.8046737],[-93.5052012,44.8046798],[-93.5053016,44.8046869],[-93.5054019,44.8046948],[-93.5055023,44.8047035],[-93.505597,44.8047126],[-93.5057027,44.8047238],[-93.5058029,44.8047348],[-93.5059031,44.8047461],[-93.5060032,44.8047575],[-93.5061034,44.8047689],[-93.5062035,44.8047802],[-93.5063037,44.8047913],[-93.5064038,44.804802],[-93.506504,44.8048123],[-93.5066041,44.8048226],[-93.5067042,44.8048334],[-93.5068042,44.8048444],[-93.5069042,44.8048556],[-93.5070042,44.804867],[-93.5071042,44.8048785],[-93.5072041,44.8048899],[-93.5073011,44.8049011],[-93.507404,44.804912],[-93.507504,44.8049232],[-93.5076041,44.8049332],[-93.5077041,44.8049438],[-93.5078043,44.8049538],[-93.5079045,44.8049633],[-93.5080045,44.8049744],[-93.5081047,44.8049839],[-93.5082052,44.8049913],[-93.5083058,44.8049982],[-93.5084064,44.8050044],[-93.5085072,44.8050101],[-93.5086082,44.8050157],[-93.5087092,44.8050212],[-93.5088104,44.8050266],[-93.5089115,44.8050334],[-93.5090128,44.8050381],[-93.5091142,44.8050426],[-93.5092156,44.8050467],[-93.5093169,44.8050504],[-93.5094183,44.8050537],[-93.5095196,44.8050566],[-93.5096208,44.805059],[-93.5097221,44.8050587],[-93.5098233,44.8050597],[-93.5099243,44.8050594],[-93.5100252,44.8050583],[-93.5101296,44.8050567],[-93.5102252,44.8050519],[-93.5103255,44.8050459],[-93.5104259,44.8050397],[-93.5105265,44.8050328],[-93.5106279,44.8050289],[-93.5107292,44.8050238],[-93.5108301,44.8050165],[-93.5109316,44.8050109],[-93.5110331,44.8050046],[-93.5111338,44.8049955],[-93.5112341,44.8049844],[-93.511335,44.8049752],[-93.511435,44.8049626],[-93.5115359,44.804953],[-93.5116357,44.8049397],[-93.5117364,44.8049297],[-93.5118389,44.8049258],[-93.5119387,44.8049127],[-93.5120401,44.8049053],[-93.5121395,44.8048917],[-93.5122388,44.8048776],[-93.5123378,44.8048632],[-93.5124366,44.8048484],[-93.5125333,44.804827],[-93.5126315,44.8048114],[-93.5127267,44.804786],[-93.5128235,44.8047671],[-93.512921,44.8047514],[-93.5130176,44.8047324],[-93.5131135,44.8047121],[-93.5132099,44.8046933],[-93.5133043,44.8046683],[-93.5133985,44.8046423],[-93.5134932,44.8046192],[-93.5135873,44.8045938],[-93.5136812,44.8045678],[-93.5137746,44.8045412],[-93.5138673,44.8045148],[-93.513961,44.8044824],[-93.5140527,44.8044515],[-93.5141443,44.8044202],[-93.5142325,44.8043901],[-93.5143272,44.8043569],[-93.5144185,44.804325],[-93.5145097,44.804293],[-93.514601,44.8042609],[-93.5146927,44.8042295],[-93.514784,44.8041979],[-93.5148752,44.8041661],[-93.5149658,44.8041341],[-93.5150561,44.8041018],[-93.5151441,44.8040677],[-93.5152463,44.8040485],[-93.5153385,44.8040188],[-93.5154307,44.8039892],[-93.5155228,44.8039594],[-93.5156149,44.8039296],[-93.515707,44.8038997],[-93.515799,44.8038697],[-93.5158909,44.8038395],[-93.5159828,44.8038093],[-93.5160746,44.8037789],[-93.5161663,44.8037484],[-93.5162579,44.8037177],[-93.5163493,44.8036868],[-93.5164406,44.8036557],[-93.5165317,44.8036245],[-93.5166227,44.803593],[-93.5167136,44.8035613],[-93.5168042,44.8035293],[-93.5168946,44.8034971],[-93.5169849,44.8034646],[-93.5170749,44.8034318],[-93.5171647,44.8033987],[-93.5172543,44.8033654],[-93.5173436,44.8033317],[-93.5174327,44.8032977],[-93.5175216,44.8032635],[-93.5176104,44.8032289],[-93.5176989,44.8031941],[-93.5177873,44.8031591],[-93.5178755,44.8031239],[-93.5179636,44.8030885],[-93.5180515,44.8030528],[-93.5181393,44.803017],[-93.518227,44.802981],[-93.5183145,44.8029448],[-93.5184019,44.8029086],[-93.5184829,44.8028596],[-93.518573,44.8028291],[-93.5186613,44.8027948],[-93.518749,44.8027592],[-93.5188365,44.8027233],[-93.5189242,44.8026877],[-93.5190121,44.8026519],[-93.5190995,44.8026164],[-93.5191871,44.8025807],[-93.5192723,44.8025457],[-93.5193611,44.8025065],[-93.5194486,44.8024702],[-93.5195347,44.8024325],[-93.5196203,44.8023942],[-93.5197056,44.8023555],[-93.5197906,44.8023165],[-93.5198751,44.8022768],[-93.5199602,44.8022379],[-93.5200452,44.8021989],[-93.5201303,44.80216],[-93.5202151,44.802121],[-93.5202999,44.8020879],[-93.5203436,44.803097],[-93.5204085,44.8046107],[-93.5411032,44.804818],[-93.5411843,44.8047988],[-93.5410802,44.798936],[-93.5416672,44.7984319],[-93.5424312,44.7977828],[-93.5433993,44.7971362],[-93.5435516,44.797058],[-93.5438249,44.7969421],[-93.5444288,44.7966913],[-93.5464141,44.7959163],[-93.5465556,44.7958623],[-93.5470704,44.795694],[-93.5473421,44.7956035],[-93.5477605,44.7956424],[-93.5481784,44.7957559],[-93.5496332,44.796463],[-93.5502318,44.7967825],[-93.5511797,44.7975073],[-93.5513057,44.7948806],[-93.5513723,44.7930564],[-93.5518899,44.7927895],[-93.5514758,44.7924073],[-93.5513943,44.7924529],[-93.5514046,44.7921651],[-93.5524045,44.7916172],[-93.5513932,44.791635],[-93.5498165,44.7916364],[-93.549818,44.791635],[-93.5508456,44.7907492],[-93.5555539,44.7865831],[-93.5562761,44.7864909],[-93.5562853,44.7859343],[-93.5587898,44.7837419],[-93.5591854,44.7833434],[-93.5594878,44.782981],[-93.5597256,44.782604],[-93.5598731,44.7823026],[-93.5599114,44.7822114],[-93.5603168,44.7818548],[-93.5604265,44.7814782],[-93.560464,44.7812845],[-93.5609481,44.7808569],[-93.5611913,44.7803691],[-93.5613189,44.7802563],[-93.5613211,44.7798224],[-93.561321,44.7798224],[-93.5613493,44.7762106],[-93.56004,44.7762514],[-93.56004,44.7762504],[-93.5600235,44.7753735],[-93.5613392,44.7753329],[-93.5613133,44.7730946],[-93.5647909,44.7731604],[-93.5648069,44.7745457],[-93.5656332,44.7745685],[-93.5664453,44.774507],[-93.5664309,44.772689],[-93.5664276,44.7721045],[-93.5664275,44.7721037],[-93.5664298,44.7721043],[-93.5698379,44.7717571],[-93.5702364,44.7719951],[-93.5718458,44.77075],[-93.571853,44.7691398],[-93.5739443,44.7691792],[-93.574789,44.7685378],[-93.5755141,44.7679882],[-93.576169,44.7674882]],[[-93.5410012,44.7705541],[-93.5410139,44.7709869],[-93.5408865,44.7709922],[-93.5408767,44.7706548],[-93.5408739,44.7705572],[-93.5410012,44.7705541]],[[-93.5410713,44.7693874],[-93.5416435,44.7693745],[-93.5416601,44.7699468],[-93.5409839,44.769962],[-93.5409892,44.7701428],[-93.540862,44.7701458],[-93.5408506,44.7697512],[-93.540848,44.7694004],[-93.5410713,44.7693874]]]}}]}