{"type":"FeatureCollection","name":"shorewood_border","features":[{"type":"Feature","properties":{"GNIS_FEATURE_ID":2395877,"FEATURE_NAME":"shorewood","CTU_CLASS":"CITY","COUNTY_GNIS_FEATURE_ID":659472,"COUNTY_CODE":"27","COUNTY_NAME":"Hennepin","POPULATION":7859,"SE_ANNO_CAD_DATA":null},"geometry":{"type":"Polygon","coordinates":[[[-93.5764953,44.9034569],[-93.5764935,44.9036587],[-93.5767277,44.9036752],[-93.5768495,44.9036889],[-93.576921,44.9037155],[-93.5770161,44.9037545],[-93.5770845,44.9038406],[-93.5770735,44.9038915],[-93.5769755,44.9038666],[-93.5767792,44.9038697],[-93.5766833,44.9039259],[-93.5766828,44.9040051],[-93.5766687,44.9041506],[-93.5769398,44.9045302],[-93.5769084,44.9045561],[-93.5768335,44.9045556],[-93.57676,44.9045649],[-93.5765637,44.9046122],[-93.5764366,44.9046294],[-93.5763611,44.9046352],[-93.5760596,44.9046519],[-93.5759753,44.9046928],[-93.5757135,44.9048107],[-93.5756293,44.9048517],[-93.5755495,44.904895],[-93.575494,44.9049298],[-93.5754289,44.9049809],[-93.5753908,44.9050459],[-93.5753574,44.9051564],[-93.5753176,44.9052222],[-93.5752732,44.905265],[-93.5752099,44.9053206],[-93.5751438,44.9053754],[-93.5750398,44.9054554],[-93.5749677,44.9055072],[-93.5748558,44.9055819],[-93.5747791,44.9056294],[-93.574701,44.905675],[-93.5746211,44.9057187],[-93.5745383,44.9057609],[-93.5744528,44.9058012],[-93.5743203,44.9058573],[-93.5742297,44.9058912],[-93.5741376,44.9059218],[-93.5740444,44.9059487],[-93.5739737,44.9059656],[-93.5738758,44.9059802],[-93.5737484,44.9059876],[-93.5735411,44.9059914],[-93.5734151,44.9060006],[-93.5733191,44.9060177],[-93.5732284,44.9060473],[-93.5731636,44.9060763],[-93.5730815,44.9061216],[-93.573004,44.9061701],[-93.5729302,44.9062191],[-93.572788,44.9063216],[-93.5725124,44.9065341],[-93.5724075,44.9066124],[-93.5722995,44.9066881],[-93.5722047,44.9067469],[-93.5721002,44.9067975],[-93.5719244,44.9068709],[-93.571751,44.9069472],[-93.5713434,44.9071091],[-93.5712542,44.9071459],[-93.5711672,44.9071839],[-93.5710829,44.9072236],[-93.5710023,44.9072655],[-93.5709259,44.9073098],[-93.5708546,44.9073572],[-93.5708055,44.9073953],[-93.5707488,44.9074512],[-93.5707021,44.9075129],[-93.5706719,44.907562],[-93.5706371,44.9076307],[-93.5705449,44.9078446],[-93.5705012,44.9079311],[-93.5704582,44.9079964],[-93.5703512,44.9081188],[-93.5702767,44.9082332],[-93.5702203,44.9083337],[-93.570134,44.9085058],[-93.5701022,44.9085758],[-93.570084,44.9086281],[-93.5700702,44.9086971],[-93.5700921,44.9087649],[-93.5701343,44.9088147],[-93.5701565,44.9088862],[-93.570072,44.9089231],[-93.5699715,44.9089206],[-93.5696918,44.9088926],[-93.5695409,44.9088737],[-93.5694191,44.9088508],[-93.5693288,44.9088195],[-93.5692266,44.9087609],[-93.5691604,44.9087388],[-93.5690636,44.9087312],[-93.5689881,44.9087336],[-93.5688337,44.9087462],[-93.5687567,44.9087498],[-93.5685785,44.9087446],[-93.5684248,44.9087346],[-93.5682995,44.9087204],[-93.5682034,44.9087033],[-93.5681248,44.9086585],[-93.5680477,44.908613],[-93.5679764,44.9086025],[-93.5678767,44.9085972],[-93.5676194,44.908597],[-93.5673615,44.9085892],[-93.5672847,44.9085838],[-93.5671893,44.9085661],[-93.5671082,44.9085279],[-93.5669857,44.9084319],[-93.5669267,44.9083986],[-93.5668354,44.9083695],[-93.5666358,44.9083318],[-93.5665441,44.9083044],[-93.5664668,44.9082603],[-93.5664168,44.9082186],[-93.566264,44.9080706],[-93.5662225,44.9080244],[-93.5661824,44.9079597],[-93.5661639,44.9078907],[-93.5661594,44.9078371],[-93.5661609,44.9076726],[-93.5661245,44.9073672],[-93.5661203,44.9072775],[-93.566127,44.9071518],[-93.566163,44.9068646],[-93.5661905,44.9065758],[-93.5661927,44.9065041],[-93.5661819,44.9064162],[-93.5661275,44.9063339],[-93.5660142,44.9060942],[-93.5659666,44.9060114],[-93.5659279,44.9059655],[-93.5658582,44.9059114],[-93.5658157,44.9058672],[-93.565779,44.905801],[-93.5657199,44.9056434],[-93.5656812,44.9055576],[-93.5656288,44.9054761],[-93.5655556,44.905381],[-93.5655016,44.9053194],[-93.5654437,44.90526],[-93.5653821,44.905203],[-93.565317,44.9051482],[-93.5652491,44.905095],[-93.5651792,44.9050429],[-93.5648614,44.904815],[-93.564388,44.9044894],[-93.5641891,44.9043507],[-93.5640464,44.9042485],[-93.5639621,44.9041812],[-93.5638691,44.9040958],[-93.5637876,44.9040045],[-93.563741,44.9039618],[-93.563671,44.9039086],[-93.5636259,44.9038659],[-93.5635969,44.9038169],[-93.5635768,44.9037544],[-93.5635377,44.9036975],[-93.5634594,44.9036317],[-93.5633432,44.9036055],[-93.5632335,44.9036112],[-93.5631598,44.9036229],[-93.5629642,44.9036633],[-93.562839,44.9036814],[-93.5627626,44.9036895],[-93.5626624,44.9036913],[-93.5625668,44.9036733],[-93.5624515,44.9036323],[-93.5622879,44.9035809],[-93.562226,44.9035502],[-93.5621661,44.9035182],[-93.5621346,44.9035838],[-93.5621445,44.9036483],[-93.5620669,44.9036851],[-93.5619665,44.9036834],[-93.5618912,44.9036712],[-93.5617948,44.903646],[-93.5617276,44.9036218],[-93.5615789,44.9035518],[-93.5614286,44.9034848],[-93.5613058,44.9034354],[-93.5612231,44.9034162],[-93.5611484,44.9034126],[-93.5610074,44.9034175],[-93.5609199,44.9034101],[-93.5607734,44.9033792],[-93.5606991,44.90337],[-93.5605215,44.9033711],[-93.5604461,44.9033669],[-93.5603093,44.9033444],[-93.5602276,44.9033225],[-93.5601563,44.9033344],[-93.5600965,44.9033872],[-93.5600287,44.9034668],[-93.559982,44.9035356],[-93.5599452,44.9036038],[-93.5599392,44.903664],[-93.5599661,44.9037589],[-93.5599392,44.9038513],[-93.559901,44.90392],[-93.5598329,44.9039944],[-93.5597716,44.9040277],[-93.5596765,44.9040646],[-93.5596068,44.9041107],[-93.5595871,44.9041752],[-93.5596006,44.9042926],[-93.5595899,44.9043966],[-93.5595738,44.9044677],[-93.5594838,44.9048224],[-93.5594589,44.9049289],[-93.5594498,44.9049825],[-93.5594398,44.9050725],[-93.5594312,44.9051261],[-93.5594176,44.9051791],[-93.5593961,44.90525],[-93.5593769,44.9053026],[-93.559354,44.9053541],[-93.5593261,44.9054041],[-93.5592747,44.9054707],[-93.5592051,44.9055181],[-93.5591074,44.9055261],[-93.5590033,44.9055135],[-93.5589056,44.9054927],[-93.558815,44.9054606],[-93.5587251,44.9054043],[-93.5586635,44.9053214],[-93.5587335,44.9051109],[-93.5587553,44.9050315],[-93.5587662,44.9049782],[-93.5587784,44.9048886],[-93.558793,44.9047177],[-93.5587987,44.9045374],[-93.5588056,44.9044567],[-93.5588152,44.9044032],[-93.5588286,44.9043502],[-93.5588838,44.9041741],[-93.5589018,44.9041033],[-93.5589144,44.9040229],[-93.5588891,44.9038679],[-93.5588014,44.9038156],[-93.5586601,44.9037232],[-93.5585784,44.9036759],[-93.5584712,44.9036303],[-93.5583485,44.9036108],[-93.5582464,44.9036184],[-93.5581355,44.9036457],[-93.5580406,44.9036779],[-93.5578491,44.9037523],[-93.5577483,44.9037891],[-93.5575739,44.9038387],[-93.5573927,44.9039026],[-93.5572949,44.9039186],[-93.5572048,44.903918],[-93.5571269,44.9039102],[-93.5570499,44.9038961],[-93.5569429,44.9038633],[-93.5568622,44.9038225],[-93.5568065,44.9037878],[-93.5567527,44.9037509],[-93.5567005,44.9037122],[-93.5566411,44.9036654],[-93.5564094,44.9034702],[-93.556307,44.9033889],[-93.5559728,44.9031484],[-93.5558789,44.903086],[-93.5558111,44.9030451],[-93.5557512,44.9030127],[-93.5556896,44.902983],[-93.5556258,44.9029567],[-93.5555595,44.9029342],[-93.5554898,44.9029155],[-93.5554175,44.9029003],[-93.555343,44.9028881],[-93.5552412,44.9028756],[-93.5551379,44.9028666],[-93.5550087,44.9028585],[-93.5548044,44.9028486],[-93.5546971,44.9028467],[-93.5545817,44.9028534],[-93.5544441,44.9028838],[-93.5543404,44.9029424],[-93.5542703,44.9030081],[-93.5541323,44.9031682],[-93.5540652,44.9032286],[-93.5539888,44.9032691],[-93.5539101,44.9033278],[-93.5537714,44.9034072],[-93.5536673,44.9034078],[-93.5535354,44.9033649],[-93.5534612,44.9033495],[-93.5532833,44.90334],[-93.5531872,44.9032925],[-93.5531563,44.9031964],[-93.5531689,44.9031037],[-93.5531794,44.9029812],[-93.5531476,44.9028507],[-93.5530619,44.9030172],[-93.5530147,44.9031006],[-93.5529831,44.9031493],[-93.5529423,44.9032062],[-93.5529027,44.9032549],[-93.5528452,44.9033101],[-93.55279,44.9033448],[-93.5527266,44.9033708],[-93.552652,44.903394],[-93.552579,44.9034116],[-93.5524783,44.9034304],[-93.5523769,44.9034453],[-93.5522773,44.903457],[-93.5521891,44.9034634],[-93.5520873,44.9034665],[-93.5519852,44.9034662],[-93.5518712,44.9034629],[-93.5517832,44.9034552],[-93.5516839,44.903438],[-93.5516072,44.903418],[-93.5515219,44.9033711],[-93.5514652,44.9033351],[-93.5507351,44.9034283],[-93.5505898,44.9034603],[-93.5502247,44.9035373],[-93.5500317,44.9035811],[-93.5498535,44.903627],[-93.5496421,44.9036891],[-93.5495245,44.9037256],[-93.5494081,44.9037642],[-93.5493166,44.9037969],[-93.5492273,44.9038314],[-93.54913,44.9038729],[-93.5490676,44.9039022],[-93.5489725,44.9039548],[-93.5488884,44.9040237],[-93.5488457,44.9040694],[-93.5486099,44.9043638],[-93.5485632,44.9044288],[-93.5485278,44.9044866],[-93.5485029,44.9045369],[-93.5484809,44.904601],[-93.548469,44.9046771],[-93.5484686,44.9047508],[-93.5484769,44.9048245],[-93.548517,44.9049465],[-93.5486107,44.9050232],[-93.5485043,44.9051153],[-93.5484465,44.9051502],[-93.5483661,44.905194],[-93.5482229,44.9052685],[-93.5480503,44.9053533],[-93.5479545,44.9054112],[-93.5479023,44.9054561],[-93.5478008,44.9055545],[-93.5477402,44.9055941],[-93.547674,44.9056598],[-93.5475331,44.9058097],[-93.5474786,44.9059064],[-93.5474611,44.9059783],[-93.5474733,44.9061339],[-93.5474996,44.9063227],[-93.5475018,44.9063764],[-93.5474949,44.9064431],[-93.5474795,44.9065006],[-93.5473473,44.9068768],[-93.547334,44.9069308],[-93.5473192,44.9070232],[-93.5473029,44.9070902],[-93.5472671,44.907157],[-93.5472085,44.9072198],[-93.5471523,44.9072625],[-93.5470571,44.9073122],[-93.5469497,44.9073326],[-93.5468092,44.9073237],[-93.5467067,44.907304],[-93.5464989,44.9072529],[-93.5463822,44.9072057],[-93.5463341,44.907248],[-93.5463537,44.9073268],[-93.5464722,44.9074371],[-93.5464995,44.9075044],[-93.5464762,44.9075946],[-93.5464055,44.9076753],[-93.5463611,44.9077845],[-93.546306,44.9079794],[-93.5462412,44.9081071],[-93.5461697,44.9081888],[-93.5460951,44.9082391],[-93.5460344,44.9082725],[-93.54597,44.9083035],[-93.5459031,44.9083318],[-93.545835,44.9083574],[-93.5457494,44.9083845],[-93.5456584,44.9084019],[-93.5455822,44.9084097],[-93.5453786,44.9084235],[-93.5452396,44.908431],[-93.5451129,44.9084355],[-93.5449863,44.9084381],[-93.5448216,44.9084387],[-93.5446948,44.9084371],[-93.5445681,44.9084334],[-93.544404,44.9084251],[-93.5443038,44.9084148],[-93.5440809,44.9083798],[-93.5437613,44.9083166],[-93.5436807,44.9083568],[-93.5437098,44.9084299],[-93.5437845,44.9084805],[-93.5438941,44.9085311],[-93.5439636,44.9085505],[-93.5444371,44.9086204],[-93.5446396,44.9086419],[-93.5447182,44.9086677],[-93.5447752,44.908707],[-93.5448047,44.9087788],[-93.5448457,44.9088502],[-93.5449257,44.908826],[-93.5449859,44.9087616],[-93.5450369,44.9087251],[-93.5451302,44.9087176],[-93.5452086,44.9087353],[-93.5453026,44.9087675],[-93.5453913,44.9088081],[-93.5454501,44.9088612],[-93.5454684,44.9089199],[-93.5454711,44.9090235],[-93.545492,44.9091495],[-93.5455082,44.9092207],[-93.5455395,44.9093076],[-93.5455701,44.9093762],[-93.5456112,44.9094615],[-93.5456551,44.9095461],[-93.5457017,44.90963],[-93.5458023,44.9097956],[-93.5458468,44.909861],[-93.545883,44.9099088],[-93.5459365,44.9099697],[-93.5460129,44.9100405],[-93.5460823,44.910093],[-93.5461759,44.9101547],[-93.5463523,44.9102582],[-93.546475,44.9103238],[-93.5465387,44.9103538],[-93.5466044,44.9103808],[-93.5466723,44.9104037],[-93.546767,44.9104271],[-93.5470157,44.910467],[-93.5471374,44.9104923],[-93.5472076,44.9105129],[-93.5474579,44.9106023],[-93.5475525,44.9106248],[-93.547627,44.9106324],[-93.5478316,44.9106337],[-93.5480092,44.9106325],[-93.5481346,44.9106429],[-93.5482593,44.9106596],[-93.5484321,44.9106884],[-93.5487245,44.9107479],[-93.5488716,44.910775],[-93.5490205,44.9107969],[-93.5491956,44.9108168],[-93.5494716,44.9108396],[-93.5503182,44.9108158],[-93.5504699,44.9108096],[-93.5505961,44.9108015],[-93.5507784,44.9107825],[-93.5509041,44.9107776],[-93.5509859,44.9107832],[-93.5511363,44.9108022],[-93.5512971,44.9108217],[-93.5514011,44.9108457],[-93.5514647,44.9108737],[-93.5515792,44.9109396],[-93.5517304,44.9110141],[-93.5518912,44.9110774],[-93.5520056,44.9111172],[-93.5521168,44.9111487],[-93.5521964,44.9111629],[-93.5523233,44.911172],[-93.5524244,44.9111722],[-93.5525258,44.9111679],[-93.5526519,44.9111583],[-93.5527263,44.9111467],[-93.552799,44.9111311],[-93.5531521,44.9110476],[-93.5534336,44.9109687],[-93.553574,44.9109274],[-93.5536947,44.9108876],[-93.5537857,44.9108688],[-93.5539339,44.9108442],[-93.5540069,44.9108281],[-93.5541512,44.9107888],[-93.5542393,44.9107728],[-93.55436,44.9107684],[-93.5544605,44.9107746],[-93.5545869,44.910789],[-93.5547997,44.9108187],[-93.5548728,44.9108341],[-93.5549615,44.9108587],[-93.555074,44.9108998],[-93.5551538,44.9109125],[-93.5552547,44.9109225],[-93.55542,44.9109438],[-93.5555049,44.9109448],[-93.5556926,44.910937],[-93.5557991,44.9108995],[-93.5558782,44.9108427],[-93.5559817,44.9107636],[-93.5562881,44.9105199],[-93.5567362,44.9101055],[-93.5569248,44.9099248],[-93.5570121,44.9098366],[-93.5571761,44.9096641],[-93.5572537,44.9095797],[-93.5573116,44.9095122],[-93.5573622,44.9094468],[-93.5574065,44.9093778],[-93.5574118,44.9092957],[-93.5572545,44.9092677],[-93.557142,44.9092793],[-93.557083,44.909327],[-93.5569595,44.909442],[-93.5569093,44.9094821],[-93.5567985,44.9095526],[-93.5566932,44.9095717],[-93.5565855,44.9095447],[-93.5564087,44.909462],[-93.5563544,44.9094021],[-93.556262,44.9092637],[-93.5562156,44.9091997],[-93.5561379,44.909107],[-93.5559806,44.9089184],[-93.5558657,44.908797],[-93.5558205,44.9087408],[-93.5557857,44.9086681],[-93.5557885,44.9085941],[-93.5558245,44.9085209],[-93.5559393,44.908398],[-93.5559746,44.9083453],[-93.5560727,44.9082491],[-93.5561021,44.9082024],[-93.556095,44.9081182],[-93.5562153,44.908063],[-93.556526,44.9079825],[-93.5567904,44.9079166],[-93.5568844,44.90789],[-93.5569698,44.9078621],[-93.5570392,44.9078315],[-93.5570964,44.9077949],[-93.5571482,44.9077545],[-93.5571959,44.9077128],[-93.5572408,44.9076692],[-93.5574667,44.9074291],[-93.5575168,44.9073667],[-93.5575467,44.9073174],[-93.5576151,44.9071681],[-93.5575981,44.9070962],[-93.5575574,44.9069513],[-93.5575445,44.9068886],[-93.5575393,44.906823],[-93.5575454,44.9067721],[-93.5575763,44.9067255],[-93.557672,44.9066416],[-93.5577289,44.9065709],[-93.5578179,44.9064407],[-93.5578649,44.9063825],[-93.5579329,44.906321],[-93.5580138,44.9062663],[-93.5581287,44.9062066],[-93.5582386,44.9061659],[-93.5583598,44.9061359],[-93.5584334,44.9061073],[-93.5585199,44.906052],[-93.5585701,44.9060105],[-93.5586239,44.90596],[-93.5586876,44.905893],[-93.5588515,44.905709],[-93.5590502,44.9056665],[-93.5591366,44.9057444],[-93.5591371,44.9058182],[-93.5590841,44.9059563],[-93.5590694,44.90601],[-93.5590692,44.9060696],[-93.5590827,44.906142],[-93.5590988,44.9061944],[-93.5591181,44.9062468],[-93.5591845,44.9064039],[-93.5592118,44.9064738],[-93.5592803,44.9066936],[-93.5593087,44.906772],[-93.5593434,44.9068492],[-93.5594336,44.9070276],[-93.5594663,44.9071049],[-93.5594807,44.9071671],[-93.5594869,44.9072906],[-93.5595039,44.9073413],[-93.5595454,44.9073903],[-93.5595975,44.9074315],[-93.5596828,44.9074871],[-93.5598482,44.907575],[-93.5599206,44.9076173],[-93.5599633,44.9076734],[-93.559898,44.9077395],[-93.5597235,44.9078171],[-93.5596367,44.9079093],[-93.5596034,44.9079576],[-93.5595652,44.9080245],[-93.5595163,44.9081362],[-93.5594016,44.9084592],[-93.5593367,44.9086337],[-93.5593087,44.9087215],[-93.5592957,44.9087745],[-93.5592768,44.9088729],[-93.5592575,44.9089996],[-93.5592527,44.909054],[-93.5592509,44.909117],[-93.5592562,44.9091972],[-93.55927,44.9092628],[-93.5592945,44.9093274],[-93.55932,44.9093784],[-93.5593966,44.9095138],[-93.5594341,44.9095811],[-93.5595094,44.9096982],[-93.5595448,44.9097461],[-93.5596027,44.9098025],[-93.5596832,44.9098428],[-93.559803,44.9098798],[-93.5598675,44.9099082],[-93.5599348,44.9099625],[-93.5600197,44.9100578],[-93.5600881,44.9101049],[-93.5601805,44.9101195],[-93.5603146,44.9101128],[-93.5603893,44.9101203],[-93.560478,44.9101511],[-93.5605407,44.9101824],[-93.560662,44.9102509],[-93.5608697,44.910357],[-93.5609483,44.9104024],[-93.5610021,44.9104394],[-93.5610685,44.9104964],[-93.5611203,44.9105626],[-93.5611355,44.9106303],[-93.5611183,44.9106987],[-93.5610844,44.9107685],[-93.5610508,44.9108198],[-93.5610114,44.9108681],[-93.5609532,44.9109264],[-93.5609043,44.9109667],[-93.5608326,44.9110173],[-93.5606801,44.9111146],[-93.5606059,44.9111646],[-93.5605372,44.9112175],[-93.5604073,44.9113279],[-93.5600935,44.9116109],[-93.5599325,44.9117499],[-93.5598302,44.9118303],[-93.5595485,44.91204],[-93.5594476,44.9121207],[-93.5593534,44.9122044],[-93.5592833,44.912278],[-93.5592471,44.9123248],[-93.5592058,44.9123903],[-93.5591692,44.9124579],[-93.5590998,44.912595],[-93.5590615,44.912662],[-93.5590184,44.9127274],[-93.5589059,44.91289],[-93.5588663,44.9129561],[-93.5588278,44.9130408],[-93.5588026,44.9131285],[-93.55879,44.9132001],[-93.5587814,44.9132725],[-93.5587682,44.913417],[-93.5587792,44.9135276],[-93.5587694,44.9135792],[-93.5587305,44.9136447],[-93.5586891,44.913692],[-93.5586387,44.9137345],[-93.5585622,44.9137804],[-93.5584762,44.9138159],[-93.5582173,44.9138952],[-93.558149,44.9139194],[-93.5580402,44.9139662],[-93.5578712,44.9140484],[-93.5577855,44.9140871],[-93.557697,44.9141206],[-93.5576275,44.91414],[-93.55753,44.9141566],[-93.5573007,44.9141758],[-93.5572257,44.9141855],[-93.5571057,44.9142124],[-93.5570121,44.9142392],[-93.5569197,44.9142685],[-93.5565994,44.9143787],[-93.5564607,44.9144233],[-93.5561801,44.9145065],[-93.5555693,44.914682],[-93.5550084,44.9148495],[-93.5548667,44.9148883],[-93.5547711,44.9149119],[-93.5546735,44.9149311],[-93.5544267,44.9149732],[-93.5541071,44.9150431],[-93.554015,44.9150724],[-93.5539334,44.9151115],[-93.5538787,44.9151469],[-93.5538119,44.9152001],[-93.5537497,44.9152576],[-93.5536295,44.9153769],[-93.5535713,44.9154306],[-93.5532531,44.915711],[-93.5531276,44.915824],[-93.5530246,44.9159209],[-93.5529208,44.9160396],[-93.5528672,44.916095],[-93.5528044,44.9161394],[-93.5527015,44.9162363],[-93.5525135,44.9164205],[-93.5519719,44.9167733],[-93.5519021,44.9168123],[-93.5517338,44.9169216],[-93.5514807,44.9170724],[-93.5513789,44.9171398],[-93.5513269,44.9171789],[-93.5512768,44.9172193],[-93.551131,44.9173435],[-93.5510054,44.9174566],[-93.5506623,44.9178088],[-93.5502617,44.9181803],[-93.5500579,44.9183757],[-93.5499912,44.9184312],[-93.5498334,44.9185535],[-93.5497676,44.9186092],[-93.5497091,44.9186675],[-93.5496532,44.9187436],[-93.5496057,44.9188371],[-93.5495613,44.9189389],[-93.5495117,44.9190682],[-93.5494646,44.919208],[-93.5494068,44.9194027],[-93.5492851,44.9198481],[-93.5491232,44.9203477],[-93.5491158,44.9203778],[-93.5490815,44.9205153],[-93.5490602,44.9205841],[-93.5490418,44.9206501],[-93.5490378,44.9207216],[-93.5490033,44.9207697],[-93.548952,44.9208323],[-93.5488529,44.9209385],[-93.548764,44.9210263],[-93.5486825,44.921095],[-93.5485283,44.9212151],[-93.5484647,44.9212711],[-93.5483655,44.9213755],[-93.5482348,44.9215305],[-93.5481672,44.9216066],[-93.5481089,44.9216653],[-93.5480459,44.9217213],[-93.5479794,44.9217754],[-93.5478929,44.9218411],[-93.5475518,44.9220836],[-93.547477,44.9221333],[-93.5472845,44.9222546],[-93.5472106,44.9223044],[-93.5471417,44.9223565],[-93.5470661,44.9224262],[-93.5470158,44.9224871],[-93.5469742,44.9225527],[-93.5469484,44.9226043],[-93.5469263,44.9226572],[-93.5469019,44.9227287],[-93.5468819,44.9228],[-93.5468656,44.9228706],[-93.5468566,44.9229243],[-93.5468503,44.9229784],[-93.5468466,44.9230329],[-93.5468458,44.9231056],[-93.5468483,44.9231599],[-93.5468581,44.9232494],[-93.5468762,44.9233379],[-93.546903,44.9234258],[-93.5469425,44.9235307],[-93.5470494,44.9237906],[-93.5471338,44.9239794],[-93.5472243,44.9241668],[-93.5473452,44.9244042],[-93.5474116,44.9245212],[-93.5474869,44.9246348],[-93.5475506,44.9247123],[-93.5476923,44.9248622],[-93.5477332,44.9249078],[-93.547809,44.9250014],[-93.5479697,44.9252066],[-93.5480939,44.9253266],[-93.5481172,44.9253921],[-93.5480913,44.9254576],[-93.5480546,44.9255084],[-93.5480061,44.9255565],[-93.5479504,44.9255978],[-93.5478707,44.925639],[-93.5478053,44.9256625],[-93.5477101,44.9256868],[-93.5476099,44.9257063],[-93.5473329,44.9257513],[-93.5472329,44.9257627],[-93.5470816,44.925776],[-93.5469309,44.925792],[-93.5466278,44.9258205],[-93.5465526,44.925829],[-93.5464533,44.9258427],[-93.5463556,44.92586],[-93.5462117,44.9258932],[-93.5460695,44.9259321],[-93.5459065,44.9259837],[-93.5457924,44.9260242],[-93.5456589,44.9260761],[-93.5455725,44.926113],[-93.5454892,44.9261533],[-93.5453684,44.926219],[-93.5451125,44.9263679],[-93.5448718,44.9265001],[-93.5447097,44.9265866],[-93.5444722,44.926708],[-93.5442932,44.9267765],[-93.5442066,44.9268034],[-93.5441027,44.9268229],[-93.5439529,44.9268431],[-93.5438028,44.926861],[-93.5437283,44.9268717],[-93.5434682,44.926917],[-93.5433547,44.9269446],[-93.5432467,44.9269816],[-93.5431787,44.9270081],[-93.5431125,44.9270373],[-93.5430503,44.9270696],[-93.5429713,44.9271211],[-93.5429129,44.9271725],[-93.5428506,44.927239],[-93.5427999,44.9273012],[-93.5427523,44.9273654],[-93.5425591,44.9276419],[-93.5424551,44.9278051],[-93.5421257,44.9282919],[-93.5420562,44.928388],[-93.5418375,44.9286623],[-93.5417649,44.9287467],[-93.5416991,44.9288127],[-93.5415276,44.9289853],[-93.5415046,44.9291162],[-93.5414891,44.9291735],[-93.5414661,44.929224],[-93.5414251,44.9292838],[-93.5413857,44.9293299],[-93.5412702,44.9294499],[-93.5412288,44.9294956],[-93.541191,44.9295424],[-93.5411008,44.9296614],[-93.5410269,44.9297453],[-93.5409429,44.9298354],[-93.5408705,44.9299094],[-93.540703,44.9300693],[-93.540638,44.9301262],[-93.5405721,44.9301708],[-93.5404711,44.9302179],[-93.5403797,44.9302487],[-93.5402842,44.9302752],[-93.5402109,44.9302926],[-93.5400398,44.9303281],[-93.5399528,44.9303406],[-93.5398514,44.9303494],[-93.5396015,44.9303577],[-93.5394908,44.930358],[-93.539361,44.9303344],[-93.5393033,44.9302817],[-93.5392909,44.9302308],[-93.5392846,44.9301295],[-93.5392571,44.9299222],[-93.5392454,44.9298138],[-93.539239,44.9297148],[-93.5392381,44.9296341],[-93.5392502,44.9295432],[-93.539331,44.9293779],[-93.5393157,44.9293034],[-93.5392813,44.9292509],[-93.5391756,44.9291223],[-93.539121,44.9290406],[-93.5390232,44.9288811],[-93.5389141,44.9288363],[-93.5386733,44.9287732],[-93.5382246,44.9286439],[-93.53804,44.9286029],[-93.5378982,44.9285802],[-93.5375242,44.9285393],[-93.5369505,44.9284738],[-93.5367499,44.9284533],[-93.5365613,44.9284369],[-93.5362964,44.9284196],[-93.5357653,44.9283933],[-93.5350326,44.9283525],[-93.534843,44.9283459],[-93.5347491,44.9283374],[-93.5346693,44.9283233],[-93.5344765,44.9282746],[-93.5343885,44.9282565],[-93.5342422,44.9282414],[-93.5341398,44.9282349],[-93.5340363,44.9282303],[-93.5339586,44.9282289],[-93.5338815,44.9282299],[-93.5338054,44.9282337],[-93.5337307,44.9282409],[-93.5336579,44.928252],[-93.5335872,44.9282673],[-93.5335178,44.9282866],[-93.5334497,44.9283091],[-93.5333714,44.9283388],[-93.5333051,44.9283663],[-93.533043,44.9284832],[-93.5328136,44.9285796],[-93.5324687,44.9287312],[-93.5319743,44.9290084],[-93.531757,44.9291324],[-93.5317007,44.9291687],[-93.5314457,44.9293441],[-93.5313385,44.9294207],[-93.5312338,44.929499],[-93.5310984,44.9296062],[-93.5308325,44.9298238],[-93.5307843,44.9298666],[-93.5306601,44.9299857],[-93.5306119,44.9300285],[-93.5305431,44.9300801],[-93.530467,44.9301233],[-93.5303804,44.9301562],[-93.5302588,44.9301847],[-93.5301818,44.9301962],[-93.5300777,44.9302055],[-93.5299757,44.9302093],[-93.5298741,44.9302088],[-93.5297696,44.930204],[-93.5296651,44.9301946],[-93.5295632,44.9301803],[-93.5294443,44.9301549],[-93.5293474,44.9301128],[-93.5292915,44.9300548],[-93.5292817,44.9299896],[-93.5293567,44.9299658],[-93.5295013,44.9299504],[-93.5295924,44.9299199],[-93.5296433,44.9298608],[-93.5297034,44.9297173],[-93.5297893,44.9295251],[-93.5298214,44.9294371],[-93.5298417,44.9293491],[-93.5298462,44.9292789],[-93.5298366,44.9292087],[-93.5298141,44.9291383],[-93.5297912,44.9290854],[-93.5297066,44.9289096],[-93.5296864,44.9288572],[-93.5296725,44.9288051],[-93.5296663,44.9287359],[-93.5296717,44.9286832],[-93.5296929,44.9286112],[-93.5297168,44.9285573],[-93.5297596,44.9284882],[-93.5298122,44.9284244],[-93.5298733,44.9283687],[-93.5299436,44.9283209],[-93.5300438,44.9282685],[-93.5301536,44.9282216],[-93.5303367,44.9281509],[-93.5304264,44.9281143],[-93.5304991,44.9280781],[-93.5310069,44.9277386],[-93.5312169,44.927595],[-93.5314041,44.9274607],[-93.5314727,44.9274068],[-93.5315209,44.9273646],[-93.531588,44.927294],[-93.5316323,44.9272349],[-93.5316886,44.9271446],[-93.5317905,44.9269593],[-93.5318567,44.9268514],[-93.5319074,44.9267619],[-93.5319673,44.9267005],[-93.5320814,44.9266551],[-93.5321811,44.9266377],[-93.5322582,44.9266296],[-93.5324679,44.9266129],[-93.5326689,44.92659],[-93.5330716,44.9265497],[-93.5332336,44.9265291],[-93.533381,44.9265045],[-93.5335624,44.9264657],[-93.5337536,44.9264181],[-93.5339667,44.9263594],[-93.5344068,44.9262309],[-93.5344853,44.9261926],[-93.5352046,44.9258464],[-93.5353262,44.925781],[-93.5354312,44.9257311],[-93.5355006,44.9257084],[-93.5355974,44.9256835],[-93.5356615,44.9256568],[-93.5357323,44.9256058],[-93.5357891,44.925545],[-93.5358192,44.9254945],[-93.5358451,44.9254207],[-93.535879,44.9253751],[-93.5359532,44.9253329],[-93.5360432,44.9253008],[-93.5362621,44.9252407],[-93.5364493,44.9251852],[-93.5368261,44.9250787],[-93.5370606,44.9250079],[-93.5371554,44.9249831],[-93.5372277,44.924969],[-93.5373027,44.9249655],[-93.5374054,44.9249705],[-93.5375369,44.9249752],[-93.5375754,44.924921],[-93.5375913,44.924803],[-93.5376333,44.9247485],[-93.5377324,44.92474],[-93.5378381,44.9247295],[-93.5379044,44.9247025],[-93.5379641,44.9246664],[-93.5380247,44.9246102],[-93.5380593,44.9245422],[-93.5380753,44.9244698],[-93.5380832,44.9243803],[-93.5380831,44.9242718],[-93.5380726,44.9240892],[-93.5380653,44.9240338],[-93.5380389,44.9239663],[-93.5379842,44.9239073],[-93.5379286,44.9238666],[-93.5378652,44.9238325],[-93.5377774,44.9238029],[-93.5376787,44.9238118],[-93.5375758,44.9238233],[-93.5374757,44.9238101],[-93.537378,44.923786],[-93.537291,44.9237504],[-93.5372336,44.9237166],[-93.5371631,44.9236648],[-93.5370601,44.9235833],[-93.5370054,44.9235455],[-93.5368697,44.9234639],[-93.5367679,44.92341],[-93.5366613,44.9233618],[-93.53657,44.9233301],[-93.5364303,44.9232856],[-93.5363637,44.9232602],[-93.5362854,44.923215],[-93.5362363,44.9231706],[-93.5361838,44.923132],[-93.5361195,44.9231078],[-93.5359927,44.92308],[-93.5358868,44.9230661],[-93.5357857,44.9230644],[-93.5356979,44.9230811],[-93.5356272,44.9231283],[-93.535534,44.9232236],[-93.535347,44.9233723],[-93.5352693,44.923443],[-93.5352173,44.9235047],[-93.5351052,44.9236676],[-93.5350511,44.9237275],[-93.5349856,44.9237828],[-93.5349307,44.9238218],[-93.5348711,44.9238568],[-93.5347866,44.9238959],[-93.5346954,44.9239242],[-93.5346222,44.9239395],[-93.5344951,44.9239557],[-93.5343435,44.923966],[-93.534217,44.9239678],[-93.5339121,44.9239609],[-93.5337322,44.923961],[-93.5336331,44.9239508],[-93.5334933,44.9239112],[-93.533358,44.9238593],[-93.5332305,44.9237996],[-93.5331708,44.9237666],[-93.5330974,44.9237166],[-93.5329814,44.92362],[-93.5329267,44.9235466],[-93.5328157,44.9235186],[-93.53274,44.9235223],[-93.5325049,44.9235472],[-93.5322212,44.9235633],[-93.532119,44.9235711],[-93.5319963,44.923587],[-93.5319046,44.9236084],[-93.5318297,44.9236554],[-93.5317864,44.9237041],[-93.5317564,44.9237536],[-93.5317333,44.9238611],[-93.5316922,44.9239293],[-93.5316234,44.9239788],[-93.5315317,44.9240055],[-93.5314056,44.9240275],[-93.5312802,44.9240441],[-93.5310526,44.9240593],[-93.5308469,44.9240887],[-93.5308331,44.9240375],[-93.5308695,44.9239931],[-93.5309685,44.923889],[-93.5310092,44.9238359],[-93.5310302,44.9237682],[-93.5310102,44.9237161],[-93.530981,44.923663],[-93.5309601,44.9235919],[-93.5309417,44.9234812],[-93.5309638,44.9234058],[-93.5310081,44.9233391],[-93.5310915,44.9232643],[-93.5312414,44.923196],[-93.5313156,44.9231328],[-93.5313796,44.923054],[-93.5314359,44.9229701],[-93.5314975,44.9229328],[-93.5316175,44.9228981],[-93.5317355,44.9228398],[-93.5317223,44.9227721],[-93.5316718,44.9227255],[-93.5315923,44.9226701],[-93.5315026,44.9226245],[-93.5313665,44.9225652],[-93.5312367,44.9224865],[-93.5311291,44.9224097],[-93.531036,44.9223358],[-93.5309823,44.9222847],[-93.530887,44.9221724],[-93.5308394,44.9221255],[-93.5307558,44.9220822],[-93.5305696,44.9220772],[-93.5304416,44.9220708],[-93.5303382,44.9220602],[-93.5302433,44.9220386],[-93.5301697,44.9220134],[-93.5300957,44.9219613],[-93.5301149,44.9218638],[-93.5300687,44.9217742],[-93.5299859,44.9217338],[-93.5298771,44.9217449],[-93.5297205,44.9218227],[-93.5296226,44.9218285],[-93.5295223,44.9217984],[-93.5294314,44.9217565],[-93.5293311,44.9216914],[-93.5292265,44.9215797],[-93.5291313,44.9215014],[-93.5289623,44.9213711],[-93.5288459,44.9212651],[-93.528761,44.9212102],[-93.5286587,44.9211712],[-93.5285616,44.9211464],[-93.528463,44.9211281],[-93.5283034,44.9211216],[-93.5282089,44.9210926],[-93.5281304,44.9210631],[-93.5280417,44.9210268],[-93.5278791,44.9209556],[-93.527736,44.9208793],[-93.5276295,44.9208374],[-93.5275423,44.9208189],[-93.5273641,44.9207926],[-93.5272734,44.9207656],[-93.5270998,44.9206956],[-93.5270027,44.9206754],[-93.5268869,44.920672],[-93.5267583,44.9206829],[-93.5265901,44.9207112],[-93.5264797,44.9207519],[-93.5264026,44.9208089],[-93.5263565,44.9208658],[-93.5263408,44.9209433],[-93.526388,44.9210456],[-93.5264179,44.9211426],[-93.5264507,44.9212805],[-93.526448,44.9215786],[-93.5264706,44.9216426],[-93.5265464,44.921694],[-93.5267291,44.9218212],[-93.5267871,44.9218713],[-93.5268678,44.9219698],[-93.5269346,44.9220675],[-93.5271088,44.9223518],[-93.5271613,44.9224338],[-93.5272286,44.922529],[-93.5273095,44.9226077],[-93.5274934,44.9226341],[-93.5277275,44.9226455],[-93.5278276,44.9226549],[-93.5279144,44.9226724],[-93.5279901,44.9227166],[-93.5280459,44.9227865],[-93.5280796,44.9228544],[-93.5281147,44.9229499],[-93.5281883,44.923184],[-93.5282334,44.923284],[-93.5282777,44.9233324],[-93.5283714,44.9233843],[-93.5284593,44.9234224],[-93.5285278,44.9234475],[-93.5286087,44.9234729],[-93.5286964,44.923487],[-93.5287788,44.9234872],[-93.5289096,44.9234738],[-93.5290216,44.9234583],[-93.5292706,44.9234206],[-93.5294454,44.9233982],[-93.5296319,44.9233939],[-93.5296698,44.9234374],[-93.5296752,44.9235542],[-93.5297741,44.923836],[-93.5298287,44.9239747],[-93.5298607,44.9240434],[-93.5299641,44.9242485],[-93.5299955,44.9243172],[-93.5300227,44.9243862],[-93.530044,44.9244558],[-93.5300575,44.9245262],[-93.5300618,44.9245975],[-93.5300591,44.9246695],[-93.5300351,44.9248869],[-93.5300305,44.9249592],[-93.530032,44.9250309],[-93.5300433,44.925103],[-93.5300667,44.9251742],[-93.530103,44.9252412],[-93.5301578,44.9253007],[-93.530227,44.9253554],[-93.5302923,44.9254112],[-93.5303359,44.9254743],[-93.5303566,44.9255449],[-93.5303716,44.9256174],[-93.5303999,44.9256881],[-93.5303919,44.9257568],[-93.5303267,44.9258154],[-93.5302476,44.9258662],[-93.5301538,44.9258729],[-93.5300561,44.9258653],[-93.5299565,44.9258521],[-93.5297544,44.9258192],[-93.529653,44.9258045],[-93.5295521,44.9257941],[-93.5293499,44.9257764],[-93.5291468,44.9257619],[-93.5290454,44.9257577],[-93.5289445,44.9257568],[-93.528844,44.9257598],[-93.5287436,44.9257664],[-93.5286427,44.9257756],[-93.5285418,44.9257874],[-93.5284415,44.9258021],[-93.5283422,44.9258197],[-93.5282446,44.9258404],[-93.528149,44.9258643],[-93.5280558,44.9258912],[-93.5279633,44.9259198],[-93.5277797,44.9259806],[-93.5275983,44.926046],[-93.5274195,44.9261156],[-93.5272436,44.9261885],[-93.527071,44.9262645],[-93.5268174,44.9263835],[-93.5266512,44.9264672],[-93.5264889,44.926555],[-93.5263321,44.9266471],[-93.5262563,44.926695],[-93.5261824,44.926744],[-93.5261107,44.9267944],[-93.5260407,44.926846],[-93.5259036,44.926952],[-93.5258365,44.9270063],[-93.5257054,44.9271171],[-93.5256414,44.9271736],[-93.5255165,44.9272882],[-93.5253373,44.9274634],[-93.5252234,44.9275817],[-93.52517,44.9276421],[-93.5251266,44.9277072],[-93.5250919,44.9277758],[-93.5250641,44.9278463],[-93.5250408,44.9279171],[-93.5250209,44.9279874],[-93.5250088,44.9280603],[-93.5250098,44.9281335],[-93.5250289,44.9282038],[-93.5250894,44.9283399],[-93.5251582,44.928475],[-93.5252324,44.9286095],[-93.5254232,44.9289448],[-93.5256795,44.929415],[-93.5258585,44.9297521],[-93.525891,44.9298207],[-93.5259129,44.9298908],[-93.5259252,44.9299621],[-93.5259403,44.9301065],[-93.5259556,44.9303241],[-93.525963,44.9303961],[-93.5259733,44.9304677],[-93.5259877,44.9305384],[-93.5260072,44.9306082],[-93.5260324,44.9306774],[-93.5260626,44.9307468],[-93.5260974,44.9308159],[-93.5261366,44.9308842],[-93.5261797,44.9309511],[-93.5262265,44.9310162],[-93.5262765,44.9310789],[-93.5263296,44.9311386],[-93.5263891,44.9311925],[-93.5264749,44.9312287],[-93.5266726,44.9312816],[-93.5267723,44.931303],[-93.5268613,44.9313341],[-93.5269302,44.931385],[-93.5271164,44.9315582],[-93.5271857,44.9316106],[-93.5272614,44.9316583],[-93.527341,44.9317032],[-93.5274227,44.9317463],[-93.5275057,44.931788],[-93.5276832,44.9318623],[-93.5277616,44.9319053],[-93.5278197,44.9319645],[-93.5278439,44.9320364],[-93.527838,44.9323958],[-93.5278314,44.9325404],[-93.5278206,44.932685],[-93.5278044,44.9328291],[-93.5277939,44.9329008],[-93.5277673,44.9330434],[-93.5277509,44.9331142],[-93.527733,44.9331849],[-93.5276932,44.9333257],[-93.527625,44.9335359],[-93.52755,44.9337455],[-93.5273413,44.9343035],[-93.5271005,44.9350058],[-93.5270305,44.9352171],[-93.5269673,44.9354282],[-93.5269306,44.9355688],[-93.5269143,44.935639],[-93.5268997,44.9357092],[-93.5269072,44.9357805],[-93.5269412,44.935851],[-93.5269876,44.9359168],[-93.5270402,44.9359788],[-93.5271046,44.936037],[-93.527181,44.9360848],[-93.5272674,44.9361203],[-93.5273567,44.9361527],[-93.5274481,44.936183],[-93.5276354,44.9362395],[-93.5279193,44.9363216],[-93.5281295,44.9364047],[-93.5279869,44.9365279],[-93.527954,44.9366004],[-93.5279929,44.9366598],[-93.5280859,44.9366938],[-93.5281923,44.9367134],[-93.5282839,44.9367058],[-93.5283563,44.9366473],[-93.5283984,44.9365819],[-93.5284327,44.9365145],[-93.5284629,44.9364454],[-93.5285199,44.9363059],[-93.5285402,44.9362338],[-93.5285701,44.9361662],[-93.5286379,44.9361139],[-93.5287979,44.9360192],[-93.5288639,44.9359659],[-93.528908,44.9359037],[-93.5289392,44.9358362],[-93.5289626,44.9357654],[-93.5290038,44.9356215],[-93.5291085,44.9353426],[-93.5291368,44.9352735],[-93.5291677,44.9352051],[-93.5292054,44.9351374],[-93.529262,44.9350776],[-93.5293369,44.9350302],[-93.5295827,44.9349007],[-93.5296581,44.9348532],[-93.5297233,44.9347968],[-93.5297699,44.9347326],[-93.5297967,44.9346637],[-93.5298312,44.9345199],[-93.5298543,44.9344503],[-93.5298985,44.9343821],[-93.529979,44.9343418],[-93.5300749,44.9343413],[-93.5301764,44.9343511],[-93.5302801,44.934365],[-93.5304059,44.9343686],[-93.5304912,44.9343302],[-93.5305352,44.9342612],[-93.530437,44.9342289],[-93.5302813,44.9342483],[-93.5301854,44.9342447],[-93.5301,44.9342093],[-93.530044,44.934168],[-93.5300011,44.934122],[-93.5299648,44.9340705],[-93.5299413,44.9340138],[-93.5299494,44.9339488],[-93.5300127,44.9338989],[-93.5300818,44.9338675],[-93.5301567,44.9338436],[-93.5303076,44.9338105],[-93.5304138,44.9338003],[-93.5305106,44.9338114],[-93.5306178,44.9338519],[-93.5307033,44.9338918],[-93.5307872,44.9339367],[-93.5308675,44.9339857],[-93.5309597,44.9340519],[-93.5310399,44.9341216],[-93.5310799,44.9341651],[-93.5311231,44.9342281],[-93.5311549,44.9342969],[-93.5311726,44.934351],[-93.5311915,44.9344436],[-93.5312014,44.9345353],[-93.531202,44.9345886],[-93.5311869,44.9346595],[-93.5311183,44.9348373],[-93.5311079,44.9349077],[-93.5311183,44.9349775],[-93.531147,44.9350639],[-93.5311781,44.9351327],[-93.5312831,44.9353391],[-93.5313124,44.9354084],[-93.5313369,44.9354958],[-93.5313412,44.9355673],[-93.5313317,44.9356578],[-93.5312537,44.9361235],[-93.5310548,44.9372309],[-93.531032,44.9373381],[-93.5309898,44.9375169],[-93.5309676,44.9376242],[-93.5309522,44.9377315],[-93.5309471,44.9378209],[-93.5309502,44.9379102],[-93.5309564,44.9379816],[-93.5309648,44.9380531],[-93.5309808,44.9381602],[-93.5310148,44.9383387],[-93.5311017,44.9387314],[-93.5311373,44.93891],[-93.5311563,44.9390353],[-93.531158,44.9391257],[-93.5311497,44.9391974],[-93.5311295,44.9393048],[-93.531111,44.939376],[-93.5310854,44.9394457],[-93.5310515,44.9395133],[-93.5310137,44.9395799],[-93.5309523,44.9396789],[-93.5307814,44.9399413],[-93.5307228,44.9400407],[-93.5306804,44.940125],[-93.5306587,44.9401952],[-93.5306355,44.9403394],[-93.5305731,44.9403986],[-93.5304098,44.9403357],[-93.5303427,44.940311],[-93.5302485,44.9403232],[-93.5302806,44.9403784],[-93.5303579,44.9404351],[-93.5304108,44.9404791],[-93.5304495,44.9405428],[-93.5303966,44.9406008],[-93.530161,44.9408166],[-93.5301019,44.9408752],[-93.5300347,44.9409505],[-93.5300054,44.9409998],[-93.52999,44.9410738],[-93.5299687,44.9411243],[-93.5298926,44.9411709],[-93.5298069,44.9412107],[-93.5297934,44.9412731],[-93.529824,44.9413664],[-93.5298208,44.9414202],[-93.5297872,44.9415056],[-93.5297551,44.9415734],[-93.5297015,44.9416746],[-93.5296134,44.9418236],[-93.5291902,44.9426256],[-93.529148,44.9429659],[-93.5291957,44.9434605],[-93.5294371,44.9438795],[-93.5295519,44.9440545],[-93.5294783,44.9440948],[-93.5293063,44.9440443],[-93.5290284,44.9439711],[-93.5287514,44.9439285],[-93.528231,44.9438601],[-93.5277599,44.9438157],[-93.5273416,44.9438034],[-93.5267756,44.9437912],[-93.5266687,44.943649],[-93.5267196,44.9435496],[-93.5270325,44.9435314],[-93.5275331,44.9435604],[-93.5276161,44.9435545],[-93.5276429,44.9434881],[-93.5274929,44.9434156],[-93.527135,44.9433535],[-93.5268668,44.943367],[-93.5265479,44.9434728],[-93.5263508,44.9435901],[-93.526181,44.9435567],[-93.5259628,44.94347],[-93.5252745,44.9434284],[-93.5248258,44.9434112],[-93.5242397,44.9433641],[-93.5238161,44.9433038],[-93.5237082,44.9431434],[-93.5236568,44.9430089],[-93.5226455,44.9428416],[-93.5221405,44.9428824],[-93.5214153,44.9430045],[-93.5209966,44.9431407],[-93.5207232,44.9434002],[-93.5205093,44.9437039],[-93.5202259,44.9440418],[-93.5196408,44.9445623],[-93.5194539,44.944767],[-93.5193319,44.9449678],[-93.5192947,44.9451996],[-93.5193122,44.94542],[-93.5193329,44.945595],[-93.5193664,44.9457061],[-93.5193938,44.9457551],[-93.5194477,44.945791],[-93.5195444,44.9458496],[-93.5196455,44.9459059],[-93.5197299,44.9459475],[-93.51984,44.9459927],[-93.5200004,44.9460453],[-93.5202338,44.9461147],[-93.5204942,44.9461862],[-93.5210435,44.9463297],[-93.5213048,44.9464003],[-93.5215625,44.9464755],[-93.5217009,44.9465193],[-93.5217922,44.9465499],[-93.5219286,44.9465986],[-93.5220416,44.9466426],[-93.5221526,44.9466898],[-93.5222602,44.9467405],[-93.522363,44.9467947],[-93.522441,44.9468408],[-93.5225143,44.9468893],[-93.5225824,44.9469403],[-93.5226588,44.9470096],[-93.5227271,44.9470845],[-93.5227645,44.9471318],[-93.5227996,44.9471805],[-93.5228643,44.9472806],[-93.522914,44.9473656],[-93.5229893,44.9475006],[-93.5230407,44.9476019],[-93.5231008,44.9477395],[-93.5232092,44.9480182],[-93.5232519,44.9481221],[-93.5232988,44.9482248],[-93.5233518,44.9483257],[-93.5234121,44.9484244],[-93.5235017,44.9485534],[-93.5235734,44.9486488],[-93.523782,44.9489176],[-93.5238408,44.9489974],[-93.5238966,44.9490782],[-93.5240239,44.9492754],[-93.5241054,44.9494085],[-93.5241703,44.9495263],[-93.5241955,44.9495772],[-93.5242259,44.9496456],[-93.5242637,44.949749],[-93.5242846,44.949837],[-93.5242967,44.9499264],[-93.5243022,44.9500351],[-93.5243021,44.9501443],[-93.5242982,44.950307],[-93.524287,44.9503795],[-93.5242523,44.950525],[-93.5242423,44.9505791],[-93.524238,44.9506326],[-93.5242443,44.9507027],[-93.5242722,44.9507884],[-93.524302,44.9508562],[-93.5243361,44.9509236],[-93.5243738,44.9509905],[-93.5244142,44.9510572],[-93.5245639,44.9512896],[-93.5246154,44.9513728],[-93.5246632,44.9514563],[-93.5247177,44.9515744],[-93.5247179,44.9516271],[-93.5246934,44.9516996],[-93.5246754,44.9517606],[-93.5246209,44.9519007],[-93.5245805,44.9519661],[-93.5243902,44.9521792],[-93.524276,44.9522995],[-93.5241861,44.9523874],[-93.5241078,44.9524584],[-93.5240089,44.95254],[-93.5239395,44.9525919],[-93.5238675,44.9526418],[-93.5237933,44.9526902],[-93.5236397,44.9527835],[-93.5234607,44.9528843],[-93.5230953,44.953081],[-93.5229348,44.95317],[-93.5225834,44.9533769],[-93.5226316,44.9570682],[-93.5228454,44.9571677],[-93.5229445,44.9572224],[-93.5229976,44.9572615],[-93.5230366,44.9573107],[-93.5230537,44.9573718],[-93.5230335,44.9574349],[-93.5229665,44.9574677],[-93.5228858,44.9574349],[-93.5227312,44.9573477],[-93.5226416,44.9573053],[-93.5226277,44.966079],[-93.523032,44.9657883],[-93.5231366,44.9657099],[-93.5232368,44.9656289],[-93.5233325,44.9655449],[-93.5234248,44.9654589],[-93.5237234,44.9651662],[-93.5238454,44.9650509],[-93.5239727,44.9649395],[-93.5240916,44.9648469],[-93.5241474,44.9648107],[-93.5242274,44.9647661],[-93.5244816,44.9646422],[-93.5245828,44.9645876],[-93.5246572,44.9645396],[-93.5247403,44.9644729],[-93.524835,44.9643892],[-93.5249574,44.9642747],[-93.5251046,44.9641274],[-93.5252178,44.964007],[-93.5253538,44.9638538],[-93.5254842,44.9636987],[-93.5257899,44.9633209],[-93.5258904,44.9631924],[-93.5259847,44.9630623],[-93.5260493,44.9629635],[-93.5260887,44.9628971],[-93.526141,44.9627965],[-93.5261707,44.9627288],[-93.5261959,44.9626606],[-93.526216,44.9625917],[-93.5262317,44.9625223],[-93.5262481,44.962417],[-93.5262548,44.9623462],[-93.5262594,44.9622391],[-93.5262583,44.9621311],[-93.526253,44.9620225],[-93.526241,44.9618769],[-93.5262045,44.9615122],[-93.5261966,44.9614032],[-93.52619,44.9612585],[-93.5261673,44.9611103],[-93.5261654,44.9610565],[-93.5261796,44.9609889],[-93.5262228,44.9609255],[-93.5262918,44.9608682],[-93.5263754,44.9608234],[-93.5264868,44.9607837],[-93.5265795,44.9607565],[-93.5266745,44.9607318],[-93.5270155,44.9606536],[-93.5271604,44.9606182],[-93.5272551,44.9605921],[-93.5273251,44.9605696],[-93.5274115,44.9605323],[-93.5274863,44.9604842],[-93.5276064,44.9603896],[-93.5276611,44.9603529],[-93.5277551,44.9603263],[-93.5278355,44.9603706],[-93.5278264,44.960453],[-93.527721,44.9605224],[-93.5276643,44.9605625],[-93.527609,44.9606343],[-93.5276477,44.9607046],[-93.5277183,44.9607141],[-93.5278113,44.9606925],[-93.5278826,44.960668],[-93.5279937,44.960618],[-93.5280943,44.9605631],[-93.5281889,44.9605018],[-93.5282751,44.9604352],[-93.5283207,44.9603926],[-93.5283738,44.9603317],[-93.5285144,44.9601387],[-93.5285702,44.960079],[-93.5286511,44.9600102],[-93.528863,44.9598542],[-93.5291691,44.9596167],[-93.5292874,44.9595227],[-93.5293886,44.9594302],[-93.5294415,44.9593743],[-93.529491,44.9592867],[-93.5295325,44.9591688],[-93.5295589,44.9590394],[-93.5295924,44.9588051],[-93.5296078,44.9587155],[-93.5296324,44.9586092],[-93.5296573,44.9585307],[-93.5296955,44.9584359],[-93.5297406,44.9583314],[-93.5297809,44.958244],[-93.5298155,44.9581745],[-93.5298526,44.9581058],[-93.5298925,44.9580384],[-93.5299355,44.9579726],[-93.5299819,44.9579088],[-93.5300387,44.9578401],[-93.5301123,44.9577648],[-93.5301751,44.9577172],[-93.5302337,44.9576838],[-93.5302976,44.9576535],[-93.5303652,44.9576252],[-93.5305507,44.957553],[-93.5306389,44.9575143],[-93.5307139,44.9574737],[-93.5307666,44.9574371],[-93.530823,44.9573854],[-93.5308743,44.9573236],[-93.5309182,44.9572571],[-93.5309462,44.957205],[-93.5309705,44.9571518],[-93.5309977,44.9570805],[-93.5310231,44.9569974],[-93.53103,44.9569451],[-93.5310252,44.956887],[-93.5310127,44.9568327],[-93.5309663,44.9566715],[-93.5309142,44.9565414],[-93.530746,44.9558478],[-93.5308007,44.9559222],[-93.5308657,44.9560593],[-93.531012,44.9563504],[-93.5310728,44.9564815],[-93.5314695,44.956878],[-93.5316276,44.9570301],[-93.5317209,44.9571153],[-93.5318167,44.957199],[-93.5320941,44.9574332],[-93.5322943,44.9575961],[-93.5324972,44.9577573],[-93.5327451,44.9579501],[-93.5329781,44.9581281],[-93.5334319,44.9584677],[-93.5344626,44.9592273],[-93.5345203,44.9592873],[-93.5346398,44.9594063],[-93.5346918,44.9594676],[-93.5347226,44.9595155],[-93.5347485,44.9595836],[-93.5347567,44.9596563],[-93.534753,44.9597482],[-93.5347409,44.9598375],[-93.5347184,44.9599264],[-93.5346825,44.9600317],[-93.534627,44.9601702],[-93.534521,44.960411],[-93.534478,44.9605146],[-93.5343988,44.9607254],[-93.5343765,44.9607967],[-93.5343661,44.9608501],[-93.5343635,44.9609208],[-93.5343739,44.9609911],[-93.5343967,44.961079],[-93.5344349,44.9611842],[-93.5344811,44.9612887],[-93.5345649,44.9614596],[-93.5346213,44.9615599],[-93.5346845,44.9616585],[-93.534753,44.9617553],[-93.534998,44.9620719],[-93.5351009,44.9621968],[-93.5351823,44.9622882],[-93.5352685,44.9623767],[-93.5353293,44.9624337],[-93.5353934,44.9624888],[-93.5354969,44.9625676],[-93.5355698,44.962618],[-93.5356836,44.9626909],[-93.5357617,44.9627378],[-93.5358803,44.9628063],[-93.5359598,44.9628509],[-93.5360628,44.9629029],[-93.5361719,44.9629493],[-93.536262,44.9629834],[-93.5363987,44.9630311],[-93.5364918,44.9630593],[-93.5367776,44.9631344],[-93.5368709,44.9631628],[-93.5370542,44.9632242],[-93.5375547,44.9633995],[-93.5379218,44.9635232],[-93.5381075,44.9635813],[-93.5382491,44.96362],[-93.5383451,44.9636432],[-93.5384423,44.9636648],[-93.5385898,44.9636933],[-93.5387386,44.9637169],[-93.538863,44.963732],[-93.5389382,44.9637374],[-93.5390395,44.9637389],[-93.5393197,44.9637315],[-93.5395231,44.963717],[-93.5396238,44.9637171],[-93.5397481,44.9637307],[-93.5398962,44.9637538],[-93.5402898,44.9638275],[-93.5403886,44.9638445],[-93.5404878,44.9638596],[-93.5406379,44.9638788],[-93.5407893,44.9638944],[-93.5409408,44.9639051],[-93.5410665,44.9639075],[-93.5411669,44.9638938],[-93.5412606,44.9638669],[-93.541389,44.9638082],[-93.5414567,44.9637836],[-93.5415275,44.9637637],[-93.5416963,44.9637221],[-93.5418182,44.9636959],[-93.5419169,44.9636826],[-93.5419919,44.9636792],[-93.5420931,44.9636829],[-93.5429556,44.9637507],[-93.5429772,44.958604],[-93.5429481,44.9549232],[-93.5430164,44.9491594],[-93.5430247,44.9471799],[-93.5431473,44.9347783],[-93.5598467,44.9231679],[-93.5607037,44.9226303],[-93.5609027,44.9225478],[-93.5611643,44.9224367],[-93.56134,44.9223644],[-93.5615181,44.9222963],[-93.5616086,44.9222643],[-93.5617003,44.9222341],[-93.5617934,44.9222055],[-93.5618878,44.9221787],[-93.5619834,44.9221536],[-93.5620799,44.9221305],[-93.5621771,44.9221093],[-93.562275,44.9220902],[-93.562472,44.9220578],[-93.562671,44.9220292],[-93.5627711,44.9220163],[-93.5629723,44.9219935],[-93.563174,44.9219756],[-93.5633758,44.921963],[-93.5634765,44.9219589],[-93.5635772,44.9219583],[-93.5636781,44.9219615],[-93.5637791,44.9219676],[-93.5640825,44.9219925],[-93.5641837,44.9219997],[-93.5642851,44.9220045],[-93.5646904,44.9220093],[-93.5655011,44.9220158],[-93.5671229,44.9220233],[-93.5683394,44.9220257],[-93.5700627,44.9220269],[-93.5714818,44.9220239],[-93.5744213,44.9220103],[-93.5746245,44.9220069],[-93.575133,44.9219946],[-93.5754373,44.9219923],[-93.5756393,44.9219962],[-93.5757399,44.9220003],[-93.5758402,44.9220061],[-93.5759406,44.922014],[-93.5760412,44.9220241],[-93.5761417,44.9220365],[-93.5762419,44.9220512],[-93.5763415,44.9220681],[-93.5764402,44.9220871],[-93.5765377,44.9221084],[-93.5766339,44.9221318],[-93.5767285,44.9221573],[-93.5768212,44.9221848],[-93.5770052,44.9222444],[-93.5770964,44.9222762],[-93.5772768,44.9223435],[-93.5773658,44.9223791],[-93.577541,44.9224535],[-93.5776269,44.9224924],[-93.5777953,44.922573],[-93.5778774,44.9226148],[-93.5780384,44.9227014],[-93.5781176,44.9227463],[-93.5782731,44.9228392],[-93.5784246,44.922936],[-93.5785717,44.9230361],[-93.5786435,44.9230874],[-93.5787834,44.9231921],[-93.5789846,44.9233535],[-93.5791155,44.9234631],[-93.5792445,44.9235739],[-93.5793719,44.9236859],[-93.5795603,44.9238556],[-93.5798082,44.924084],[-93.5806087,44.9248288],[-93.5808504,44.9250606],[-93.5812684,44.925469],[-93.5815092,44.9257012],[-93.5816926,44.9258736],[-93.5818797,44.9260437],[-93.5820716,44.9262107],[-93.5822028,44.9263201],[-93.5824717,44.9265352],[-93.5828141,44.9268013],[-93.5830931,44.9270113],[-93.5833054,44.927167],[-93.5835203,44.9273208],[-93.5837379,44.9274725],[-93.5839582,44.927622],[-93.5841812,44.9277689],[-93.5844071,44.9279132],[-93.5846357,44.9280546],[-93.5848684,44.9281931],[-93.585027,44.9282837],[-93.58527,44.9284163],[-93.5854352,44.928502],[-93.5856877,44.928626],[-93.585859,44.9287049],[-93.5860326,44.9287806],[-93.5862084,44.9288527],[-93.5863863,44.928921],[-93.5865662,44.928985],[-93.5867484,44.9290447],[-93.5869343,44.929101],[-93.5871236,44.9291537],[-93.5873158,44.9292029],[-93.5875105,44.9292484],[-93.5876087,44.9292697],[-93.5878062,44.9293095],[-93.5880049,44.9293455],[-93.5881047,44.929362],[-93.5883045,44.929392],[-93.5885043,44.9294179],[-93.5887038,44.9294396],[-93.5889026,44.9294567],[-93.5890022,44.929462],[-93.5891023,44.929465],[-93.5892027,44.9294659],[-93.5894042,44.9294622],[-93.5896067,44.9294524],[-93.5898098,44.9294382],[-93.5904204,44.9293858],[-93.5907247,44.9293642],[-93.5908242,44.9293526],[-93.5916438,44.9291799],[-93.5918169,44.9291474],[-93.5922162,44.9290776],[-93.5924249,44.9290365],[-93.5925685,44.9290032],[-93.5927076,44.9289648],[-93.5928472,44.9289146],[-93.5929479,44.9288526],[-93.5930188,44.9287936],[-93.5931298,44.9286897],[-93.5931964,44.928634],[-93.5930952,44.9285267],[-93.5930539,44.9284796],[-93.5930184,44.9284278],[-93.593001,44.9283548],[-93.5930242,44.9282851],[-93.593073,44.9281784],[-93.5930155,44.9280993],[-93.5928574,44.9280435],[-93.5926899,44.9279948],[-93.5925956,44.9279542],[-93.5924901,44.9278959],[-93.5922864,44.9278133],[-93.5921721,44.9277732],[-93.5920674,44.9277409],[-93.5919966,44.9277223],[-93.5919242,44.9277079],[-93.5918365,44.9276982],[-93.5909419,44.9276391],[-93.5907642,44.9276359],[-93.5906884,44.9276374],[-93.5905622,44.9276458],[-93.5904362,44.9276569],[-93.590336,44.9276684],[-93.5902246,44.9276848],[-93.5900906,44.9277118],[-93.5896321,44.9278189],[-93.5895406,44.9278361],[-93.5894222,44.9278501],[-93.5893209,44.9278568],[-93.5891938,44.9278602],[-93.5890801,44.9278586],[-93.5889411,44.9278492],[-93.5887654,44.9278312],[-93.5884796,44.9277899],[-93.5883057,44.9277609],[-93.5882246,44.9277521],[-93.5881306,44.9277505],[-93.5880421,44.9277568],[-93.5878396,44.9277784],[-93.5877361,44.9277809],[-93.5876157,44.9277673],[-93.5874112,44.9277221],[-93.5872834,44.9277101],[-93.587118,44.9277138],[-93.5870231,44.9277109],[-93.5869162,44.9277009],[-93.5868293,44.9276881],[-93.5867186,44.9276683],[-93.5866214,44.9276475],[-93.5865498,44.9276295],[-93.5864797,44.9276088],[-93.586272,44.9275413],[-93.5860319,44.927476],[-93.5859412,44.927445],[-93.5858651,44.9274077],[-93.5857996,44.9273605],[-93.5857534,44.9273172],[-93.5856517,44.9272109],[-93.5855427,44.9271099],[-93.5854975,44.9270539],[-93.5854663,44.9269843],[-93.5854389,44.9268599],[-93.5853269,44.9266565],[-93.5852838,44.9266138],[-93.5852117,44.9265714],[-93.5850572,44.9264979],[-93.5848632,44.9263855],[-93.5847272,44.9263347],[-93.5846093,44.9262247],[-93.5845421,44.9261484],[-93.5844774,44.9260703],[-93.5843793,44.9259427],[-93.5842778,44.9257971],[-93.5842471,44.9257481],[-93.5842182,44.9256885],[-93.584182,44.9255828],[-93.5841569,44.9254716],[-93.5841517,44.9254133],[-93.5841466,44.9252419],[-93.5841181,44.9251733],[-93.584013,44.9250555],[-93.5839234,44.9249313],[-93.583872,44.9248781],[-93.5837838,44.924813],[-93.5837655,44.9247457],[-93.5837426,44.9246756],[-93.5837364,44.9246045],[-93.5836838,44.9245232],[-93.5836785,44.9244161],[-93.5836598,44.9243639],[-93.5836408,44.924301],[-93.5835733,44.9242554],[-93.5834762,44.9242276],[-93.5833952,44.9242445],[-93.5833554,44.9243627],[-93.5833187,44.9244088],[-93.5832558,44.9244658],[-93.5831743,44.9245778],[-93.5831329,44.9246228],[-93.5830848,44.9246649],[-93.5829998,44.9247318],[-93.5829432,44.9247678],[-93.58286,44.9248088],[-93.5827607,44.9248655],[-93.5826973,44.9248942],[-93.5826047,44.9249209],[-93.5824976,44.9249973],[-93.5824042,44.9250231],[-93.5823013,44.9250438],[-93.5822079,44.9250522],[-93.5821341,44.9250655],[-93.5820337,44.9250743],[-93.5819068,44.9250788],[-93.581805,44.9250793],[-93.5817161,44.9250666],[-93.5816915,44.9250121],[-93.5817081,44.924921],[-93.5817489,44.9248352],[-93.5817634,44.9247827],[-93.5817616,44.9246565],[-93.5817953,44.9244239],[-93.5818412,44.9241558],[-93.5819027,44.9238165],[-93.5819735,44.9234416],[-93.5819915,44.9233704],[-93.5820424,44.9231926],[-93.5820598,44.9231038],[-93.5820636,44.9230149],[-93.5820584,44.9229615],[-93.5820387,44.9228725],[-93.5819906,44.9227122],[-93.5819726,44.922641],[-93.5819617,44.9225697],[-93.5819604,44.9225163],[-93.5819685,44.9224272],[-93.581982,44.9223559],[-93.5820359,44.9221419],[-93.5820562,44.9220346],[-93.5820642,44.9219449],[-93.582069,44.9217827],[-93.5820743,44.9217108],[-93.582087,44.9216212],[-93.582116,44.9214601],[-93.582127,44.9213886],[-93.5821348,44.921299],[-93.5821348,44.9212271],[-93.5821288,44.921155],[-93.5821183,44.9210831],[-93.5821046,44.9210118],[-93.5820858,44.9209412],[-93.5820272,44.9207658],[-93.5819889,44.9206243],[-93.5819432,44.920429],[-93.5819188,44.9202678],[-93.5818803,44.920126],[-93.5818626,44.9200734],[-93.5818417,44.9200215],[-93.5818161,44.919971],[-93.5817737,44.9199058],[-93.5816853,44.9197581],[-93.581766,44.9196359],[-93.5817984,44.9195624],[-93.5817961,44.9195105],[-93.5817547,44.9194075],[-93.5817111,44.9192324],[-93.5817008,44.919179],[-93.5816963,44.9190919],[-93.5817253,44.9189283],[-93.5817272,44.9188746],[-93.5817221,44.9188209],[-93.5817128,44.9187672],[-93.5817007,44.9187136],[-93.5816669,44.9185804],[-93.5816464,44.9185096],[-93.5816242,44.9184486],[-93.5815867,44.9183773],[-93.5815229,44.9182936],[-93.5814841,44.9182346],[-93.5814524,44.9181507],[-93.58142,44.9179805],[-93.5813828,44.9178386],[-93.5813575,44.917769],[-93.5812977,44.9176395],[-93.5812596,44.9175722],[-93.581225,44.9175246],[-93.5811715,44.9174702],[-93.5811084,44.9174205],[-93.5809021,44.9172846],[-93.5807262,44.9171533],[-93.580663,44.9171089],[-93.5805914,44.9170652],[-93.5805146,44.9170267],[-93.5804495,44.9169996],[-93.5803823,44.9169748],[-93.5801508,44.9168989],[-93.5800593,44.9168673],[-93.5798799,44.9167997],[-93.5797689,44.916756],[-93.5796503,44.9167042],[-93.5795642,44.9166587],[-93.5793844,44.9165441],[-93.5792983,44.9164986],[-93.5792339,44.9164702],[-93.5791035,44.9164151],[-93.5789603,44.9163574],[-93.5783812,44.9161329],[-93.5782208,44.9160767],[-93.5781449,44.9160545],[-93.5780538,44.9160384],[-93.5779791,44.9160305],[-93.5778654,44.9160229],[-93.5775351,44.916011],[-93.5771931,44.9160049],[-93.5770538,44.9160011],[-93.5769782,44.9159966],[-93.5768464,44.9159831],[-93.5766756,44.9159759],[-93.5765487,44.9159756],[-93.5764729,44.9159784],[-93.576334,44.9159887],[-93.5762334,44.9159998],[-93.5761466,44.9160128],[-93.576062,44.9160311],[-93.5759345,44.9160797],[-93.5758503,44.9161026],[-93.5757692,44.9161075],[-93.5756944,44.9161023],[-93.5756185,44.9160922],[-93.5755428,44.9160778],[-93.5754689,44.9160597],[-93.575398,44.9160386],[-93.575331,44.9160148],[-93.5752404,44.9159745],[-93.5750931,44.9158951],[-93.5748689,44.915761],[-93.5747947,44.9157116],[-93.5747197,44.9156566],[-93.5746493,44.915599],[-93.5745966,44.9155484],[-93.5744964,44.9154468],[-93.5742219,44.9151229],[-93.5740769,44.9149434],[-93.5738918,44.9146868],[-93.5738244,44.9146056],[-93.5737649,44.9145528],[-93.5736756,44.9144889],[-93.5735983,44.9144421],[-93.573498,44.9143908],[-93.573404,44.9143335],[-93.5734157,44.9142818],[-93.5736056,44.9141966],[-93.573716,44.9141358],[-93.5737826,44.9140941],[-93.5738346,44.914055],[-93.5738839,44.914014],[-93.5740726,44.9138438],[-93.5741787,44.9136796],[-93.574207,44.9136296],[-93.5742346,44.9135656],[-93.5742484,44.913508],[-93.5742615,44.9134179],[-93.5742651,44.9133596],[-93.5742954,44.9132584],[-93.5743323,44.9131534],[-93.5743646,44.9130448],[-93.574399,44.9129658],[-93.5744482,44.9129084],[-93.5745164,44.9128783],[-93.5746349,44.9128705],[-93.5747376,44.9128904],[-93.5748456,44.9129207],[-93.5749139,44.9129441],[-93.5750809,44.9130094],[-93.5752227,44.913069],[-93.5753321,44.9131197],[-93.5754251,44.9131351],[-93.5755401,44.9131177],[-93.5756711,44.9130909],[-93.5758026,44.9130737],[-93.5758852,44.9130878],[-93.5759397,44.9131603],[-93.5760013,44.9131866],[-93.5761149,44.9132085],[-93.5761874,44.9132248],[-93.5762989,44.913242],[-93.5763866,44.9132515],[-93.5764623,44.913254],[-93.5766526,44.913253],[-93.5768934,44.9132556],[-93.5769692,44.9132543],[-93.5770455,44.9132508],[-93.577149,44.9132393],[-93.5772466,44.913215],[-93.5773823,44.9131653],[-93.5774837,44.9131401],[-93.5776609,44.913105],[-93.5777619,44.9130787],[-93.5779588,44.9130164],[-93.5780305,44.9129988],[-93.5781919,44.9129679],[-93.5783839,44.9129128],[-93.5785038,44.9128983],[-93.578605,44.9128977],[-93.5788596,44.9129059],[-93.5790621,44.9129151],[-93.5791759,44.9129165],[-93.5792517,44.9129133],[-93.5794535,44.9128982],[-93.5795293,44.9128952],[-93.5796053,44.9128947],[-93.5797936,44.9128969],[-93.580702,44.9128717],[-93.5809769,44.9128278],[-93.5811107,44.9127998],[-93.5812,44.9127775],[-93.5812739,44.912752],[-93.5813628,44.9127167],[-93.582004,44.9124783],[-93.5821116,44.9124399],[-93.5822001,44.9124157],[-93.5825499,44.9123342],[-93.5826262,44.9123125],[-93.5827097,44.9122809],[-93.5827746,44.9122529],[-93.5829871,44.9121539],[-93.5830623,44.9121204],[-93.5831614,44.9120808],[-93.5832531,44.9120488],[-93.5833482,44.9120221],[-93.5834455,44.9120032],[-93.58352,44.911995],[-93.5836341,44.9119881],[-93.5837109,44.9119869],[-93.5838129,44.9119892],[-93.583939,44.9119975],[-93.5840415,44.912008],[-93.5841174,44.9120192],[-93.5842025,44.9120375],[-93.5842866,44.9120653],[-93.5843823,44.9121151],[-93.5844564,44.9121659],[-93.584579,44.91227],[-93.5846092,44.9123307],[-93.5846839,44.9125773],[-93.5847278,44.9126992],[-93.5847663,44.9127661],[-93.5848037,44.9128893],[-93.584824,44.912997],[-93.5848245,44.9130856],[-93.5847946,44.9131535],[-93.5848207,44.91322],[-93.5848964,44.9133363],[-93.5849215,44.9133874],[-93.5849534,44.913493],[-93.585018,44.9136492],[-93.5850672,44.9137517],[-93.5851186,44.9138332],[-93.5851707,44.9138943],[-93.58531,44.9140236],[-93.5854605,44.9141688],[-93.5855394,44.9142391],[-93.5857037,44.9143531],[-93.5857496,44.9143949],[-93.5857912,44.9144612],[-93.5858057,44.9145323],[-93.5857601,44.9145954],[-93.58566,44.9146438],[-93.5856439,44.9147159],[-93.5856938,44.9147633],[-93.5857848,44.9148323],[-93.5858406,44.9148692],[-93.5859203,44.9149144],[-93.5860043,44.9149562],[-93.5860715,44.9149861],[-93.5861974,44.9150128],[-93.5863793,44.9149355],[-93.5863973,44.9148842],[-93.586386,44.9148294],[-93.5863369,44.9147623],[-93.586282,44.9146731],[-93.5863794,44.9146955],[-93.5864177,44.9147388],[-93.5864506,44.9147887],[-93.5865006,44.9148309],[-93.5865372,44.9148762],[-93.5865493,44.9149286],[-93.5865501,44.915002],[-93.5865462,44.9151464],[-93.5865512,44.9151998],[-93.5866161,44.9153179],[-93.5866495,44.9153673],[-93.586706,44.9154247],[-93.58677,44.9154531],[-93.586844,44.9154694],[-93.5869437,44.915483],[-93.5870701,44.9154904],[-93.5871716,44.91549],[-93.5872726,44.9154848],[-93.5873732,44.9154747],[-93.5874725,44.9154606],[-93.5876442,44.9154287],[-93.5878463,44.915405],[-93.5879457,44.9154046],[-93.5880831,44.9154485],[-93.5881859,44.9154543],[-93.588268,44.9155105],[-93.5883418,44.9155219],[-93.5884434,44.9154926],[-93.5885052,44.9155358],[-93.5885444,44.9155857],[-93.5885981,44.9156243],[-93.5887189,44.9156705],[-93.5887929,44.9156082],[-93.5888374,44.9155375],[-93.5889066,44.915462],[-93.588967,44.9154042],[-93.5890665,44.9153224],[-93.5891826,44.9152087],[-93.5891255,44.9151559],[-93.5888897,44.9151173],[-93.5886902,44.9150911],[-93.5885368,44.9150822],[-93.5884648,44.9150688],[-93.5883979,44.9150453],[-93.5882501,44.9149734],[-93.5881152,44.9148995],[-93.5881164,44.9148165],[-93.5881171,44.914744],[-93.5881937,44.9147155],[-93.5883277,44.914703],[-93.5884278,44.9146921],[-93.5885788,44.9146784],[-93.5886804,44.9146713],[-93.5887543,44.9146607],[-93.5888243,44.9146411],[-93.5889375,44.9145996],[-93.5891791,44.9145442],[-93.5892698,44.9145126],[-93.5893558,44.9144729],[-93.5894311,44.9144251],[-93.5894943,44.9143692],[-93.5895357,44.9143231],[-93.5895707,44.9142746],[-93.5896377,44.9141576],[-93.5896695,44.9140885],[-93.5896942,44.9140183],[-93.5897063,44.9139654],[-93.5897129,44.9139122],[-93.5897126,44.9138405],[-93.5896991,44.9136958],[-93.5896945,44.9136235],[-93.5896928,44.9134435],[-93.5896938,44.9132994],[-93.5897026,44.9130107],[-93.589707,44.9129385],[-93.5897155,44.9128668],[-93.5897355,44.9127786],[-93.5897687,44.9126922],[-93.5898808,44.9124711],[-93.5899141,44.9123844],[-93.5899452,44.9122787],[-93.5899984,44.9120658],[-93.59003,44.9119043],[-93.5900525,44.9118346],[-93.5900921,44.9117693],[-93.5901868,44.9116613],[-93.5902161,44.9116121],[-93.5902476,44.9114877],[-93.5902693,44.9114362],[-93.5902992,44.9113868],[-93.5903683,44.9112875],[-93.5904339,44.9112071],[-93.5904343,44.9111002],[-93.5904147,44.9110058],[-93.5903586,44.9107921],[-93.5902272,44.9103537],[-93.590214,44.9103006],[-93.5902039,44.9102472],[-93.5901967,44.9101665],[-93.5901915,44.9099368],[-93.5901712,44.9098069],[-93.5901658,44.9097531],[-93.5901669,44.9095912],[-93.5901807,44.9092041],[-93.5901801,44.909078],[-93.5901744,44.9089698],[-93.5901683,44.9089159],[-93.5901594,44.9088623],[-93.5901396,44.9087828],[-93.5901102,44.9086953],[-93.5900395,44.9085077],[-93.589908,44.9082338],[-93.5898662,44.9081587],[-93.5898209,44.9080928],[-93.5897719,44.908044],[-93.5896639,44.9079658],[-93.5896162,44.9079186],[-93.5895712,44.9078594],[-93.5894963,44.9077446],[-93.5893834,44.9075828],[-93.5893412,44.9075274],[-93.5892901,44.9074709],[-93.5892397,44.9074248],[-93.5891025,44.9073173],[-93.589045,44.9072693],[-93.5889772,44.9071971],[-93.5889296,44.9071214],[-93.5888388,44.9069325],[-93.5888169,44.9068805],[-93.5888093,44.9067958],[-93.5887622,44.9067261],[-93.5886879,44.9066212],[-93.5886008,44.9065772],[-93.5884337,44.9065575],[-93.5883361,44.9065372],[-93.588203,44.9065032],[-93.5879277,44.9065239],[-93.5876918,44.9065105],[-93.5875717,44.9064942],[-93.5872362,44.906485],[-93.5868679,44.9065422],[-93.5860919,44.9067262],[-93.585976,44.9067448],[-93.5858648,44.9067317],[-93.585616,44.9066549],[-93.585117,44.9065572],[-93.5846297,44.9063697],[-93.5843096,44.9062957],[-93.5842476,44.9062512],[-93.5842709,44.9056314],[-93.5843369,44.9041135],[-93.5848958,44.9043667],[-93.5854162,44.90456],[-93.5860878,44.9047859],[-93.5868047,44.904984],[-93.5874666,44.9051199],[-93.5874956,44.9010427],[-93.5891031,44.9006941],[-93.5891314,44.9019248],[-93.5891735,44.9022538],[-93.5893268,44.9029721],[-93.5894116,44.905337],[-93.5941887,44.9054405],[-93.5951735,44.90605],[-93.6019288,44.9061277],[-93.6018285,44.9097699],[-93.6016072,44.9099186],[-93.6015172,44.9099819],[-93.6014656,44.9100214],[-93.6014162,44.9100623],[-93.6013386,44.910134],[-93.6012824,44.9101943],[-93.6012329,44.9102568],[-93.6012027,44.9103061],[-93.6011367,44.910443],[-93.6011032,44.9105013],[-93.6010341,44.9105976],[-93.6009707,44.9106759],[-93.6009083,44.9107438],[-93.6008423,44.9108038],[-93.6006742,44.9109272],[-93.6006062,44.9109861],[-93.6005661,44.9110315],[-93.6005245,44.9110871],[-93.6004352,44.9112172],[-93.6002994,44.9113903],[-93.6002468,44.911462],[-93.6001836,44.9115602],[-93.6000718,44.9117485],[-93.5999031,44.9119286],[-93.5998525,44.9119908],[-93.5998062,44.9120547],[-93.5997414,44.9121525],[-93.5996385,44.9123172],[-93.5995237,44.9125173],[-93.5994795,44.912582],[-93.5993856,44.9127098],[-93.5993419,44.9127747],[-93.5990911,44.9132076],[-93.5989684,44.9134053],[-93.5989292,44.9134717],[-93.5988934,44.913539],[-93.598795,44.9137435],[-93.5987601,44.9138111],[-93.5986821,44.913944],[-93.5985372,44.9141741],[-93.5984773,44.9142734],[-93.5984404,44.9143404],[-93.5983561,44.9145103],[-93.5983177,44.9145769],[-93.5982276,44.9147456],[-93.5981919,44.9148317],[-93.5981694,44.9149202],[-93.5981435,44.9150637],[-93.5981166,44.9151512],[-93.5980823,44.9152185],[-93.5980065,44.9153331],[-93.5979584,44.9154164],[-93.5979209,44.9155023],[-93.5978683,44.9156415],[-93.5978399,44.9157107],[-93.5978066,44.9157788],[-93.5977534,44.9158802],[-93.5977166,44.9159661],[-93.5976917,44.9160541],[-93.5976436,44.916286],[-93.5976154,44.9163736],[-93.5975879,44.9164429],[-93.5974991,44.9166499],[-93.5973998,44.9168567],[-93.5973685,44.9169431],[-93.5973563,44.9170127],[-93.5973642,44.9170653],[-93.5974113,44.9171893],[-93.5974246,44.9172788],[-93.5974284,44.9173508],[-93.5974307,44.917495],[-93.5974263,44.9177471],[-93.5974287,44.917855],[-93.5974357,44.9179268],[-93.5974561,44.9180702],[-93.5974791,44.9182677],[-93.5974996,44.9183564],[-93.5975697,44.9185667],[-93.5976114,44.9187081],[-93.5976373,44.9187776],[-93.5976709,44.9188452],[-93.597731,44.9189445],[-93.5978428,44.9191064],[-93.5979147,44.9192015],[-93.5980409,44.9193577],[-93.5981718,44.9195119],[-93.5982965,44.9196686],[-93.5984549,44.919853],[-93.5985687,44.9199935],[-93.598714,44.9201409],[-93.5987755,44.9202196],[-93.5988853,44.9203845],[-93.598898,44.9204358],[-93.5988819,44.9204892],[-93.5988413,44.9205352],[-93.598749,44.9205578],[-93.5986771,44.9205407],[-93.5986167,44.9205072],[-93.5985645,44.9204455],[-93.5985079,44.9203453],[-93.5984178,44.9202586],[-93.598337,44.920145],[-93.5982937,44.920102],[-93.5982373,44.9200673],[-93.5981497,44.9200289],[-93.5980886,44.9199966],[-93.5980358,44.9199582],[-93.5979408,44.9198733],[-93.5977295,44.9197176],[-93.597656,44.9196683],[-93.5975544,44.9196141],[-93.5974666,44.9195784],[-93.5972761,44.9195289],[-93.5972129,44.9194995],[-93.5971356,44.919451],[-93.597073,44.9194217],[-93.5969789,44.9193984],[-93.5967528,44.919369],[-93.5964516,44.9193361],[-93.5962795,44.9193085],[-93.5961375,44.9192609],[-93.5959811,44.9191996],[-93.5958833,44.9191543],[-93.5957927,44.919096],[-93.5957251,44.9190424],[-93.5956108,44.9189451],[-93.5955366,44.9188897],[-93.5954484,44.9188384],[-93.5954049,44.9187743],[-93.5953373,44.9187099],[-93.5952845,44.9186241],[-93.5952942,44.9185494],[-93.5953491,44.918488],[-93.5954848,44.9184299],[-93.5956162,44.9183951],[-93.5956885,44.9183532],[-93.5957473,44.9182711],[-93.5957832,44.9181687],[-93.5957574,44.9180559],[-93.5956152,44.9179404],[-93.5955064,44.9178768],[-93.5954362,44.91786],[-93.5953498,44.9178683],[-93.5952585,44.9179695],[-93.5952334,44.9180602],[-93.5952047,44.9181455],[-93.5951965,44.9182343],[-93.5951111,44.9183093],[-93.5948319,44.9183196],[-93.5947251,44.9183107],[-93.5946135,44.9182939],[-93.5944312,44.9182554],[-93.5942956,44.9182292],[-93.5942059,44.9182199],[-93.5940673,44.9182394],[-93.5938453,44.9182366],[-93.5936973,44.918243],[-93.5934957,44.9182745],[-93.5934112,44.9182813],[-93.5932305,44.9182792],[-93.5931547,44.9182821],[-93.5930666,44.9182892],[-93.5928401,44.9183112],[-93.5927343,44.9183252],[-93.5926444,44.9183463],[-93.5924343,44.9184125],[-93.5923362,44.9184356],[-93.5922527,44.9184424],[-93.5921119,44.9184363],[-93.5920132,44.9184489],[-93.5919403,44.918464],[-93.591844,44.9184875],[-93.5916889,44.9185283],[-93.5915149,44.9185826],[-93.5913854,44.9186196],[-93.5913022,44.9186414],[-93.5912296,44.9186569],[-93.5910254,44.9186888],[-93.5909009,44.918724],[-93.5908232,44.9187423],[-93.5907421,44.9187478],[-93.5905922,44.9187436],[-93.5904791,44.9187621],[-93.5903562,44.9188065],[-93.5902577,44.9188652],[-93.5902045,44.9189032],[-93.5901359,44.9189562],[-93.5898908,44.919157],[-93.5895416,44.9195539],[-93.5894857,44.919614],[-93.5893537,44.9197464],[-93.58929,44.9198239],[-93.5892249,44.9199216],[-93.5891584,44.9200386],[-93.5891251,44.9201258],[-93.5891009,44.9201767],[-93.5890674,44.920225],[-93.588988,44.9203178],[-93.5889536,44.9203657],[-93.5889191,44.9204332],[-93.5889001,44.9204858],[-93.5888809,44.9205748],[-93.588876,44.9207012],[-93.5888692,44.9207548],[-93.588856,44.9208078],[-93.588832,44.9208777],[-93.5887686,44.9210337],[-93.5887203,44.9211363],[-93.5887068,44.9211891],[-93.5886957,44.9212606],[-93.5886695,44.9215127],[-93.5886699,44.9215665],[-93.5886799,44.9216197],[-93.588708,44.9217077],[-93.5887259,44.921851],[-93.5887554,44.9219386],[-93.5887862,44.9220629],[-93.5888117,44.922115],[-93.5888564,44.9221571],[-93.5889373,44.9222002],[-93.5890732,44.92225],[-93.5894325,44.9223415],[-93.5895008,44.9223638],[-93.589614,44.9224322],[-93.5897651,44.9224446],[-93.5898623,44.9224654],[-93.5899549,44.9224946],[-93.590084,44.9225516],[-93.5901546,44.9225707],[-93.5902525,44.9225905],[-93.5903488,44.9226144],[-93.5904168,44.922638],[-93.590479,44.9226685],[-93.5905565,44.9227155],[-93.5906282,44.9227664],[-93.5907388,44.9228651],[-93.5907916,44.9229039],[-93.5909065,44.9229754],[-93.5909573,44.9230149],[-93.5910343,44.9231081],[-93.5910825,44.9231494],[-93.5911928,44.9232242],[-93.591243,44.9232647],[-93.5914623,44.9234864],[-93.5915249,44.9235637],[-93.5915577,44.9236688],[-93.591624,44.9237441],[-93.5917487,44.9238589],[-93.5918052,44.9239187],[-93.5918678,44.9239976],[-93.5919103,44.9240633],[-93.5919407,44.9241311],[-93.5919579,44.9242571],[-93.5919895,44.9243824],[-93.5920221,44.9244497],[-93.5920631,44.9244937],[-93.5921513,44.9245601],[-93.5922356,44.92465],[-93.5923028,44.9247469],[-93.5923707,44.9248828],[-93.5924274,44.924963],[-93.5924811,44.9250242],[-93.5925659,44.925114],[-93.5927428,44.9252898],[-93.5928276,44.9253794],[-93.5929305,44.9255035],[-93.593026,44.9256306],[-93.5930759,44.9256933],[-93.5934002,44.9260589],[-93.5934512,44.9261211],[-93.5935453,44.9262488],[-93.5935981,44.9263102],[-93.5936549,44.9263699],[-93.5937462,44.9264565],[-93.5938452,44.9265388],[-93.5939351,44.9266027],[-93.5940144,44.9266463],[-93.5941524,44.9266926],[-93.5942164,44.9267224],[-93.5942972,44.9267681],[-93.5943645,44.9267894],[-93.5944628,44.9268018],[-93.5946715,44.9268112],[-93.5950055,44.926494],[-93.5951909,44.9263228],[-93.5955854,44.9259706],[-93.5963674,44.9252811],[-93.5965752,44.9250714],[-93.5969779,44.9246556],[-93.5971524,44.9244785],[-93.5972706,44.9243615],[-93.597391,44.9242457],[-93.5975765,44.9240748],[-93.5979608,44.9237402],[-93.5983487,44.923407],[-93.5986753,44.923131],[-93.5990058,44.9228573],[-93.5993409,44.9225867],[-93.5996128,44.9223729],[-93.5998886,44.9221619],[-93.6001687,44.921954],[-93.6005247,44.9216984],[-93.6008851,44.9214451],[-93.6012498,44.9211944],[-93.6016191,44.9209468],[-93.601993,44.9207027],[-93.6022956,44.9205103],[-93.6026784,44.9202737],[-93.6029882,44.9200878],[-93.6033803,44.9198601],[-93.6044153,44.9192747],[-93.604818,44.9190494],[-93.6051432,44.9188718],[-93.6054716,44.9186979],[-93.6058038,44.9185291],[-93.6059715,44.918447],[-93.6061404,44.9183667],[-93.6063106,44.9182884],[-93.606482,44.9182122],[-93.6066549,44.9181382],[-93.6068292,44.9180667],[-93.6070936,44.9179644],[-93.6073617,44.9178685],[-93.6076338,44.9177795],[-93.6079107,44.9176959],[-93.6080979,44.9176429],[-93.6082869,44.9175922],[-93.6085738,44.91752],[-93.608767,44.9174745],[-93.6089616,44.917431],[-93.6092558,44.9173694],[-93.6094534,44.9173307],[-93.6096519,44.9172938],[-93.6098512,44.9172588],[-93.6100512,44.9172254],[-93.6104527,44.9171638],[-93.6108552,44.9171086],[-93.6112578,44.9170594],[-93.6116593,44.9170158],[-93.612158,44.9169687],[-93.6123578,44.9169535],[-93.6124584,44.9169473],[-93.6126607,44.9169377],[-93.6128643,44.9169318],[-93.6129665,44.9169303],[-93.6131715,44.9169299],[-93.6133769,44.916933],[-93.6136852,44.9169444],[-93.6139929,44.9169635],[-93.6142989,44.9169903],[-93.6145013,44.9170123],[-93.6148021,44.9170514],[-93.6150982,44.9170977],[-93.6152925,44.9171325],[-93.615583,44.9171894],[-93.6158754,44.9172511],[-93.6161684,44.917318],[-93.6164606,44.9173904],[-93.6167505,44.9174688],[-93.6169419,44.9175246],[-93.6171313,44.9175833],[-93.6173182,44.9176451],[-93.6175023,44.9177101],[-93.6175931,44.9177438],[-93.6177722,44.9178138],[-93.6179474,44.9178872],[-93.6181183,44.9179642],[-93.6182846,44.9180449],[-93.6184458,44.9181294],[-93.6186018,44.9182176],[-93.6188317,44.918354],[-93.6190584,44.918494],[-93.619282,44.9186374],[-93.6195026,44.9187841],[-93.6197205,44.9189338],[-93.6200069,44.9191375],[-93.6203591,44.9193981],[-93.6206366,44.9196106],[-93.6209789,44.9198802],[-93.6213167,44.9201534],[-93.6216509,44.9204288],[-93.6229665,44.9215311],[-93.6230269,44.921588],[-93.6230805,44.9216481],[-93.6231284,44.9217109],[-93.6231717,44.921776],[-93.6232114,44.9218427],[-93.6232487,44.9219107],[-93.6233566,44.9221165],[-93.6233949,44.922184],[-93.6234399,44.9222539],[-93.6233014,44.9343087],[-93.6235296,44.9342876],[-93.623618,44.934282],[-93.623712,44.9342827],[-93.623805,44.9342911],[-93.6238791,44.9343015],[-93.6239774,44.9343187],[-93.6242471,44.9343743],[-93.6243454,44.9343927],[-93.6247458,44.9344564],[-93.6249887,44.9345097],[-93.6250867,44.9345278],[-93.6251613,44.9345373],[-93.6257529,44.9345954],[-93.6260309,44.9346214],[-93.6262837,44.9346427],[-93.626511,44.9346593],[-93.6267379,44.9346726],[-93.6269266,44.9346807],[-93.627077,44.9346849],[-93.6271521,44.9346855],[-93.6272263,44.9346796],[-93.6272999,44.9346677],[-93.6273972,44.9346453],[-93.627591,44.934594],[-93.6282336,44.9344477],[-93.6285213,44.9343777],[-93.6286514,44.9343423],[-93.6289103,44.9342686],[-93.629571,44.9340844],[-93.630008,44.9339638],[-93.6300791,44.9339446],[-93.6301951,44.9339204],[-93.6302788,44.9338896],[-93.6303433,44.9338612],[-93.6306104,44.9337341],[-93.6306513,44.9336878],[-93.6307374,44.9335962],[-93.630778,44.9335456],[-93.630807,44.9334973],[-93.6308176,44.933421],[-93.6307975,44.9332866],[-93.6307603,44.9331797],[-93.6306979,44.9331098],[-93.6306512,44.9330409],[-93.6306233,44.9329905],[-93.6305988,44.9329214],[-93.6305468,44.9328003],[-93.6305992,44.932664],[-93.6306473,44.9326161],[-93.6307864,44.9325486],[-93.6308546,44.9325077],[-93.6309258,44.9324535],[-93.6309669,44.9324014],[-93.6310106,44.9323141],[-93.6309091,44.9323169],[-93.630805,44.9323103],[-93.6307249,44.9322662],[-93.6306693,44.9322027],[-93.6307264,44.9321571],[-93.6308137,44.9321176],[-93.6308974,44.932077],[-93.6309797,44.9320311],[-93.6310336,44.9319731],[-93.6310544,44.9319041],[-93.6310749,44.9317585],[-93.631089,44.931687],[-93.6311504,44.9314022],[-93.6312048,44.9311894],[-93.6312205,44.9311183],[-93.6312328,44.931047],[-93.631241,44.9309751],[-93.6312449,44.9309028],[-93.6312438,44.9308306],[-93.6312367,44.9307591],[-93.6312175,44.9306885],[-93.6311916,44.9306184],[-93.6311703,44.930548],[-93.6311577,44.9304756],[-93.6311546,44.9304024],[-93.6311767,44.9303337],[-93.6312141,44.9302677],[-93.6312587,44.9302028],[-93.6313081,44.9301389],[-93.63136,44.930076],[-93.6315167,44.9298908],[-93.6316771,44.929707],[-93.6318421,44.9295254],[-93.6319553,44.9294059],[-93.6320715,44.929288],[-93.6321914,44.9291719],[-93.6323146,44.9290574],[-93.6324404,44.9289443],[-93.6325683,44.9288325],[-93.6326983,44.928722],[-93.6328331,44.9286145],[-93.6331088,44.9284031],[-93.633451,44.9281368],[-93.6335842,44.9280283],[-93.6336477,44.9279723],[-93.6337082,44.9279148],[-93.6337658,44.9278557],[-93.633821,44.9277952],[-93.6339263,44.9276718],[-93.6341823,44.9273597],[-93.6342304,44.9272962],[-93.6342754,44.9272318],[-93.6343161,44.9271663],[-93.6343511,44.9270992],[-93.6343802,44.9270305],[-93.6344051,44.9269605],[-93.6344715,44.9267487],[-93.6344973,44.9266786],[-93.6345534,44.9265378],[-93.6345739,44.9264674],[-93.6345825,44.9263973],[-93.6345749,44.9263261],[-93.6345518,44.9262543],[-93.6345166,44.9261849],[-93.6344724,44.926121],[-93.6344102,44.9260652],[-93.6343337,44.9260155],[-93.6342551,44.925969],[-93.6340837,44.9258917],[-93.6339183,44.9258083],[-93.6336435,44.9257156],[-93.6335555,44.9256802],[-93.6334695,44.9256415],[-93.6333852,44.9256009],[-93.6333043,44.9255575],[-93.6332298,44.9255096],[-93.6331665,44.9254531],[-93.6331073,44.9253941],[-93.6330561,44.9253308],[-93.6329788,44.9252871],[-93.6328873,44.925254],[-93.6328229,44.9252],[-93.6327703,44.9251372],[-93.6327128,44.9250776],[-93.6326606,44.9250161],[-93.6326211,44.92495],[-93.6325535,44.9248139],[-93.6325144,44.9247464],[-93.6324932,44.9246772],[-93.6325009,44.9246054],[-93.6325174,44.9245337],[-93.6325407,44.9244634],[-93.6325571,44.9243926],[-93.6325615,44.9243207],[-93.6325628,44.9241765],[-93.6325675,44.9240302],[-93.6325973,44.9239639],[-93.6326779,44.9239176],[-93.6327842,44.9239132],[-93.6328551,44.9239557],[-93.6329006,44.9240238],[-93.6329421,44.924091],[-93.6329625,44.9241608],[-93.6329586,44.924233],[-93.6329466,44.9243048],[-93.6329268,44.9243755],[-93.6329219,44.9244481],[-93.6329256,44.9245205],[-93.6329507,44.9245893],[-93.6329877,44.9246563],[-93.6330727,44.9247885],[-93.6331115,44.9248551],[-93.6331403,44.9249232],[-93.6331361,44.9249967],[-93.6331399,44.925068],[-93.6331827,44.9251315],[-93.6332979,44.9252524],[-93.633341,44.9253199],[-93.6333982,44.9253771],[-93.6334795,44.9254183],[-93.6335667,44.9254561],[-93.6336575,44.9254907],[-93.6337498,44.9255223],[-93.6338424,44.9255492],[-93.6339453,44.9255449],[-93.6340437,44.9255278],[-93.6343305,44.9254527],[-93.634425,44.9254259],[-93.6345169,44.9253957],[-93.6346046,44.9253605],[-93.6347745,44.9252823],[-93.6349417,44.9251997],[-93.6350238,44.9251567],[-93.6351836,44.925067],[-93.6352608,44.9250203],[-93.6353359,44.9249723],[-93.6354086,44.9249228],[-93.6354778,44.9248707],[-93.635544,44.9248163],[-93.6356077,44.9247602],[-93.6356695,44.9247027],[-93.63585,44.9245274],[-93.6360321,44.9243539],[-93.6361504,44.9242364],[-93.6362066,44.9241765],[-93.63626,44.9241154],[-93.63631,44.9240531],[-93.636357,44.9239895],[-93.6364444,44.9238597],[-93.6364854,44.9237937],[-93.6365638,44.9236604],[-93.6367526,44.9233242],[-93.6367869,44.9232557],[-93.6368157,44.9231867],[-93.6368367,44.9231172],[-93.636847,44.9230468],[-93.6368452,44.9229754],[-93.6368358,44.9229032],[-93.636812,44.9227584],[-93.6368001,44.9226144],[-93.6367915,44.9224704],[-93.6367909,44.9223985],[-93.6367965,44.9223268],[-93.6368226,44.9221837],[-93.6368334,44.9221116],[-93.6368606,44.9218938],[-93.6368739,44.9218223],[-93.6368923,44.9217522],[-93.6369177,44.921684],[-93.6369563,44.921619],[-93.6370104,44.9215578],[-93.6370737,44.9214996],[-93.6372052,44.9213875],[-93.6372748,44.9213325],[-93.6373515,44.9212847],[-93.6374377,44.9212516],[-93.6375358,44.9212362],[-93.6376392,44.9212276],[-93.6377396,44.9212131],[-93.637833,44.921186],[-93.6380196,44.9211273],[-93.638112,44.9210958],[-93.6382028,44.9210624],[-93.6382913,44.9210267],[-93.6383767,44.9209882],[-93.6384584,44.9209465],[-93.6385363,44.9209017],[-93.6386119,44.9208545],[-93.6386855,44.9208053],[-93.6388276,44.9207022],[-93.638965,44.920595],[-93.6391674,44.9204321],[-93.6394401,44.9202179],[-93.6395749,44.9201095],[-93.639705,44.9199988],[-93.6397675,44.9199422],[-93.6398278,44.9198845],[-93.6398856,44.9198258],[-93.6399407,44.9197658],[-93.6399933,44.9197046],[-93.6400927,44.9195795],[-93.6401862,44.9194516],[-93.6404573,44.9190633],[-93.6405528,44.9189362],[-93.6406039,44.9188735],[-93.640663,44.9188131],[-93.6407335,44.9187624],[-93.6408186,44.9187222],[-93.6409143,44.9186907],[-93.6410122,44.9186755],[-93.6411101,44.9186801],[-93.6412101,44.9186985],[-93.6413076,44.9187258],[-93.6413991,44.9187573],[-93.6414883,44.9187919],[-93.6415763,44.918829],[-93.6419235,44.9189865],[-93.6420108,44.9190242],[-93.6420992,44.9190597],[-93.6421888,44.919092],[-93.6422801,44.9191205],[-93.6423734,44.9191444],[-93.6424689,44.9191633],[-93.6425661,44.9191784],[-93.642665,44.9191902],[-93.6427651,44.9191991],[-93.6428663,44.9192055],[-93.6429683,44.9192098],[-93.6431738,44.9192141],[-93.6437872,44.919219],[-93.6439907,44.9192153],[-93.6440924,44.9192111],[-93.6442942,44.9191975],[-93.644394,44.919188],[-93.6444904,44.9191684],[-93.644584,44.9191391],[-93.6446784,44.9191114],[-93.6451685,44.9190184],[-93.6454407,44.91897],[-93.6454151,44.9123647],[-93.64539,44.9060488],[-93.6453218,44.8913421],[-93.6418003,44.8913493],[-93.6253004,44.8914012],[-93.6249706,44.8914068],[-93.6223446,44.8914376],[-93.6214666,44.8914387],[-93.619719,44.8914411],[-93.6170102,44.8914449],[-93.6146377,44.8914617],[-93.6089628,44.8915047],[-93.6045828,44.8915374],[-93.5944023,44.8914552],[-93.5842229,44.8913489],[-93.5791231,44.8913132],[-93.5740696,44.8912765],[-93.568192,44.8912355],[-93.5681911,44.8913726],[-93.5669725,44.8913634],[-93.5667364,44.8913616],[-93.5667585,44.8912247],[-93.5639693,44.8912035],[-93.5538124,44.8911075],[-93.5407438,44.8912695],[-93.5233551,44.8914754],[-93.5233252,44.9059143],[-93.5233276,44.9113896],[-93.5240628,44.9111578],[-93.5250413,44.9107153],[-93.5258175,44.9103921],[-93.5277003,44.90973],[-93.5284233,44.9094639],[-93.5284281,44.9109383],[-93.5298586,44.9107042],[-93.5320833,44.9103345],[-93.5335277,44.9099645],[-93.5332851,44.9168762],[-93.5383604,44.9169111],[-93.538329,44.9205369],[-93.5465289,44.9206235],[-93.5465545,44.9200594],[-93.5477065,44.9196365],[-93.5476997,44.9191256],[-93.5486987,44.9186998],[-93.5488245,44.9186219],[-93.5488826,44.9184952],[-93.5488737,44.9183326],[-93.5486471,44.9175688],[-93.5485706,44.9172275],[-93.5484705,44.9164389],[-93.5484716,44.9160859],[-93.5484474,44.9155721],[-93.5484541,44.9133077],[-93.5482545,44.9133393],[-93.5481546,44.9133418],[-93.5480535,44.9133367],[-93.5479517,44.9133293],[-93.5478502,44.9133191],[-93.5477499,44.9133054],[-93.5476519,44.9132876],[-93.547557,44.9132649],[-93.5474642,44.9132359],[-93.5473739,44.9132012],[-93.5472872,44.9131619],[-93.5472051,44.9131191],[-93.5471291,44.9130728],[-93.547061,44.91302],[-93.5469351,44.9129056],[-93.5468698,44.9128501],[-93.5468004,44.9127975],[-93.5465146,44.9125919],[-93.5464466,44.9125387],[-93.5463822,44.9124835],[-93.5463221,44.9124259],[-93.5462644,44.9123671],[-93.5462084,44.9123071],[-93.5461012,44.9121848],[-93.5459979,44.9120604],[-93.5457954,44.9118103],[-93.5456987,44.9116838],[-93.5455577,44.9114923],[-93.5454123,44.9113021],[-93.5453177,44.9111728],[-93.5452686,44.911109],[-93.5452166,44.9110472],[-93.54516,44.9109882],[-93.5450976,44.9109331],[-93.5450278,44.9108821],[-93.5449513,44.9108349],[-93.5448698,44.910791],[-93.5447849,44.9107498],[-93.5446981,44.9107108],[-93.5446111,44.9106735],[-93.5445233,44.910638],[-93.544434,44.9106043],[-93.5443435,44.9105719],[-93.5438861,44.9104153],[-93.5437963,44.9103819],[-93.5437079,44.9103469],[-93.5435348,44.9102722],[-93.543365,44.9101934],[-93.5431119,44.9100732],[-93.5430154,44.9100323],[-93.5430029,44.9099737],[-93.5430551,44.9099034],[-93.543135,44.9098622],[-93.5432292,44.9098367],[-93.5433298,44.9098161],[-93.5434281,44.9097932],[-93.5435159,44.9097588],[-93.5435742,44.9096973],[-93.5435909,44.9096274],[-93.5435981,44.9095541],[-93.5435931,44.9094807],[-93.5435728,44.9094107],[-93.5435426,44.9093429],[-93.5435068,44.9092759],[-93.5434672,44.9092094],[-93.5433428,44.9090104],[-93.5433052,44.9089434],[-93.5431581,44.908674],[-93.5431245,44.908606],[-93.543094,44.9085376],[-93.5430676,44.9084684],[-93.5430434,44.9083975],[-93.5430221,44.9083248],[-93.5430071,44.9082517],[-93.5430021,44.9081797],[-93.5430105,44.9081102],[-93.5430358,44.9080427],[-93.5430767,44.9079762],[-93.5431291,44.9079119],[-93.5431891,44.907851],[-93.5432527,44.9077949],[-93.5433217,44.9077433],[-93.543397,44.9076953],[-93.5434764,44.9076497],[-93.5436398,44.9075621],[-93.5437226,44.9075197],[-93.5439056,44.9074459],[-93.5439906,44.9074064],[-93.5440601,44.9073591],[-93.5441086,44.9072999],[-93.5441391,44.9072301],[-93.5441553,44.9071554],[-93.5441608,44.9070811],[-93.5441602,44.9070098],[-93.5441564,44.9069382],[-93.5441501,44.9068665],[-93.5441315,44.9067228],[-93.5440608,44.9062923],[-93.5440328,44.9061496],[-93.5440016,44.9060073],[-93.5439831,44.9059365],[-93.5439593,44.9058665],[-93.543945,44.9057926],[-93.543905,44.9056375],[-93.5438935,44.9055629],[-93.5438973,44.9054948],[-93.5439237,44.9054363],[-93.5439832,44.9053917],[-93.5440717,44.9053589],[-93.5441765,44.9053331],[-93.5442848,44.9053093],[-93.5444785,44.9052562],[-93.5447666,44.9051832],[-93.5448611,44.9051572],[-93.5449534,44.9051281],[-93.5450423,44.9050949],[-93.5451284,44.9050579],[-93.5452128,44.9050185],[-93.5453776,44.9049345],[-93.5454582,44.9048905],[-93.5456174,44.9048001],[-93.5460093,44.9045713],[-93.5462399,44.9044302],[-93.5464651,44.904285],[-93.5466117,44.9041856],[-93.5467542,44.9040833],[-93.5472393,44.9037151],[-93.5473805,44.9036118],[-93.5475257,44.9035116],[-93.5476003,44.9034628],[-93.5477531,44.9033679],[-93.547831,44.9033218],[-93.5479895,44.9032319],[-93.5483112,44.9030563],[-93.5485554,44.9029269],[-93.5487205,44.9028431],[-93.5488882,44.9027624],[-93.549059,44.9026856],[-93.5491459,44.9026487],[-93.5492337,44.9026128],[-93.549412,44.902544],[-93.5495932,44.9024787],[-93.5497767,44.9024168],[-93.5499618,44.902358],[-93.5501485,44.9023025],[-93.5507764,44.9021833],[-93.5514469,44.9020545],[-93.5520337,44.9019411],[-93.5524096,44.9018647],[-93.5529332,44.9017626],[-93.5529458,44.9008291],[-93.5525476,44.9008763],[-93.552543,44.9001059],[-93.5524523,44.9001062],[-93.5524473,44.8992724],[-93.5535798,44.899269],[-93.5536093,44.8983406],[-93.5581935,44.8984263],[-93.5582268,44.8974823],[-93.5573345,44.8974729],[-93.5578982,44.8964357],[-93.5584934,44.8967183],[-93.5585243,44.8966638],[-93.5586077,44.8966072],[-93.5586852,44.8965679],[-93.5587696,44.8965551],[-93.5589433,44.896548],[-93.5590932,44.8965446],[-93.559345,44.8965435],[-93.5596495,44.8965481],[-93.5599045,44.8965552],[-93.5605171,44.8965759],[-93.5608976,44.8965861],[-93.5614029,44.8966134],[-93.5619335,44.8966487],[-93.562085,44.8966561],[-93.5621861,44.8966594],[-93.5623376,44.896661],[-93.5626178,44.8966593],[-93.5627711,44.8966554],[-93.5628984,44.896649],[-93.5629994,44.8966413],[-93.5630746,44.8966337],[-93.5631983,44.8966169],[-93.5633199,44.8965948],[-93.5634162,44.8965745],[-93.563512,44.8965525],[-93.5636548,44.8965168],[-93.5637967,44.8964784],[-93.5639379,44.8964379],[-93.5645003,44.8962682],[-93.5647825,44.8961866],[-93.5648993,44.8961499],[-93.5651319,44.8960733],[-93.5652487,44.896037],[-93.5653903,44.8959988],[-93.5654861,44.895978],[-93.5655832,44.895962],[-93.5657324,44.8959449],[-93.5658594,44.8959352],[-93.5660136,44.8959293],[-93.5661682,44.8959296],[-93.566296,44.8959345],[-93.5664468,44.8959462],[-93.5665695,44.8959613],[-93.5666917,44.8959848],[-93.5667646,44.8960033],[-93.56686,44.8960323],[-93.5669298,44.896057],[-93.5669974,44.8960838],[-93.5670626,44.8961126],[-93.5671639,44.8961644],[-93.5672195,44.8961993],[-93.567287,44.8962518],[-93.5673496,44.896309],[-93.5674837,44.8964438],[-93.5675495,44.8965051],[-93.567672,44.8967383],[-93.5677778,44.8970592],[-93.5677934,44.8984085],[-93.5687689,44.8984188],[-93.569225,44.8975587],[-93.5695684,44.89763],[-93.5696852,44.8975644],[-93.5697695,44.8976393],[-93.5699444,44.8975385],[-93.5707362,44.8970672],[-93.5709534,44.8970729],[-93.5708602,44.897711],[-93.5708441,44.8977908],[-93.5708244,44.8978587],[-93.5707992,44.8979258],[-93.5707628,44.8980032],[-93.5706867,44.8981256],[-93.5706111,44.8982227],[-93.5708643,44.89828],[-93.5709279,44.8981942],[-93.5710256,44.8980235],[-93.5710666,44.8979208],[-93.5710947,44.8978258],[-93.5711465,44.8975041],[-93.5712114,44.8970597],[-93.5712379,44.8968785],[-93.5712883,44.896613],[-93.5714808,44.8960311],[-93.5716703,44.895631],[-93.5719244,44.8952016],[-93.572377,44.8952019],[-93.572378,44.8960027],[-93.5731421,44.8960084],[-93.5731428,44.8966411],[-93.573355,44.8966427],[-93.5733553,44.8969684],[-93.5739071,44.8969725],[-93.5739066,44.8964667],[-93.5749599,44.8964746],[-93.5749604,44.8969804],[-93.5753078,44.896983],[-93.5752544,44.8975662],[-93.5762825,44.8977915],[-93.5763299,44.8976255],[-93.5771351,44.8977379],[-93.5772915,44.8971975],[-93.579111,44.8972007],[-93.5790987,44.8988748],[-93.5776243,44.8988687],[-93.5776202,44.9013714],[-93.5765127,44.9013704],[-93.5765029,44.9026265],[-93.5764991,44.9030411],[-93.5765315,44.9030372],[-93.5766936,44.9033915],[-93.5766973,44.9033997],[-93.5766818,44.9033991],[-93.5766664,44.9034001],[-93.5766514,44.9034028],[-93.576637,44.903407],[-93.5766238,44.9034127],[-93.5764953,44.9034569]],[[-93.5306133,44.9555179],[-93.5305912,44.9553922],[-93.530578,44.9553392],[-93.5305575,44.9552876],[-93.5305309,44.9552372],[-93.5304216,44.9550642],[-93.5303845,44.9549973],[-93.530359,44.9549369],[-93.5303364,44.9548665],[-93.530312,44.9547617],[-93.5303105,44.9546786],[-93.5303228,44.9546234],[-93.5303709,44.9545563],[-93.5304887,44.9544973],[-93.5305667,44.9544496],[-93.5306361,44.9544315],[-93.5307123,44.9544514],[-93.5307098,44.9545272],[-93.530706,44.9546141],[-93.5307167,44.9546901],[-93.5307351,44.9547518],[-93.5307929,44.9548805],[-93.5308355,44.9549943],[-93.5308534,44.9550762],[-93.5308462,44.9551538],[-93.5308094,44.9552688],[-93.5307653,44.9553911],[-93.5307113,44.9555153],[-93.5306726,44.9556038],[-93.5306133,44.9555179]],[[-93.5313957,44.933561],[-93.5313005,44.9335366],[-93.5311207,44.9334602],[-93.5307863,44.9333618],[-93.5307066,44.9333438],[-93.530673,44.9332954],[-93.5306654,44.933239],[-93.5306709,44.9331576],[-93.5306824,44.933085],[-93.5307036,44.9330147],[-93.5307357,44.9329557],[-93.5307734,44.9329053],[-93.5308165,44.9328645],[-93.530902,44.9328269],[-93.5310543,44.9328327],[-93.5312077,44.9328375],[-93.5312839,44.932842],[-93.5313763,44.9328542],[-93.5314681,44.9328755],[-93.5315641,44.9329066],[-93.5316377,44.9329431],[-93.5316835,44.9329989],[-93.5316883,44.93312],[-93.5316858,44.9332286],[-93.5316748,44.9333182],[-93.5316541,44.9333986],[-93.5316339,44.9334525],[-93.5315947,44.9335237],[-93.5315297,44.9335648],[-93.5313957,44.933561]],[[-93.528803,44.9321911],[-93.5287909,44.9321267],[-93.5288223,44.9320422],[-93.528889,44.9318245],[-93.5289501,44.9317259],[-93.5290492,44.9317102],[-93.5292449,44.9317543],[-93.5293385,44.9317837],[-93.5294378,44.9318831],[-93.5294604,44.9319555],[-93.529441,44.9320184],[-93.5293638,44.9320699],[-93.5292731,44.9321365],[-93.5291824,44.9321806],[-93.5291135,44.9322047],[-93.5290065,44.9322293],[-93.5288708,44.9322321],[-93.528803,44.9321911]],[[-93.5500292,44.9056067],[-93.5501095,44.9056644],[-93.55017,44.9057157],[-93.550223,44.9057713],[-93.5502608,44.9058185],[-93.5503665,44.9059651],[-93.5503502,44.9060256],[-93.5502697,44.906049],[-93.5500925,44.9060316],[-93.5499426,44.906013],[-93.5498067,44.9059916],[-93.5497088,44.9059731],[-93.5494651,44.9059234],[-93.5491017,44.9056961],[-93.5489434,44.9056039],[-93.5488881,44.9055671],[-93.5488217,44.9055081],[-93.5487663,44.9054412],[-93.5487339,44.905391],[-93.5487132,44.9052904],[-93.5488277,44.9052628],[-93.5489875,44.9053259],[-93.5490837,44.9053471],[-93.5491579,44.9053579],[-93.5495161,44.9053972],[-93.5496723,44.9054243],[-93.5497727,44.9054587],[-93.549914,44.905535],[-93.5499725,44.9055702],[-93.5500292,44.9056067]],[[-93.5534629,44.9039568],[-93.5533589,44.9040013],[-93.553249,44.904028],[-93.5530728,44.9040547],[-93.5528995,44.9040859],[-93.5528092,44.904095],[-93.5526618,44.9040901],[-93.5525613,44.9040769],[-93.5523622,44.9040447],[-93.5522771,44.9040261],[-93.5522011,44.9040002],[-93.5521257,44.9039638],[-93.5519883,44.9038826],[-93.551906,44.9037675],[-93.5518759,44.9036901],[-93.5519265,44.9036088],[-93.5520194,44.9035785],[-93.5521064,44.9035643],[-93.5523492,44.9035363],[-93.5524244,44.9035291],[-93.5526764,44.9035095],[-93.5529024,44.9034818],[-93.5530028,44.9034725],[-93.5530967,44.9034707],[-93.5531904,44.9034777],[-93.5534399,44.9035147],[-93.5536099,44.9035578],[-93.5536896,44.9035948],[-93.5537349,44.9036415],[-93.5537548,44.9037092],[-93.5537117,44.9037806],[-93.5536161,44.9038596],[-93.553542,44.9039107],[-93.5534629,44.9039568]]]}}]}