{"type":"FeatureCollection","name":"shoreview_border","features":[{"type":"Feature","properties":{"GNIS_FEATURE_ID":2395876,"FEATURE_NAME":"shoreview","CTU_CLASS":"CITY","COUNTY_GNIS_FEATURE_ID":659507,"COUNTY_CODE":"62","COUNTY_NAME":"Ramsey","POPULATION":27141,"SE_ANNO_CAD_DATA":null},"geometry":{"type":"Polygon","coordinates":[[[-93.1535478,45.1242243],[-93.1637536,45.1242509],[-93.1684413,45.124283],[-93.1841473,45.124299],[-93.1886646,45.1243189],[-93.1886046,45.1185707],[-93.1884946,45.1080358],[-93.1679437,45.1080266],[-93.1477259,45.1080529],[-93.1473717,45.0937401],[-93.1472505,45.0793234],[-93.1471612,45.064742],[-93.1470016,45.0502702],[-93.1469351,45.035804],[-93.1367665,45.0358545],[-93.1252443,45.0359107],[-93.1062029,45.0358728],[-93.1062443,45.0432075],[-93.1062842,45.0502976],[-93.1063338,45.064777],[-93.1064783,45.0791251],[-93.1171113,45.0794275],[-93.1180154,45.0813454],[-93.1188509,45.0828979],[-93.1168456,45.0829019],[-93.1169017,45.0883543],[-93.1233622,45.0883937],[-93.125245,45.0898546],[-93.1257372,45.0902731],[-93.126061,45.0905375],[-93.1263383,45.0908182],[-93.1265231,45.0910108],[-93.126746,45.0913023],[-93.12698,45.091665],[-93.1270116,45.0937624],[-93.1272283,45.1082232],[-93.1252453,45.1082292],[-93.1117718,45.1082834],[-93.1118612,45.1119316],[-93.1066572,45.1119653],[-93.1066783,45.1156143],[-93.1067263,45.1239259],[-93.1067272,45.1240793],[-93.1220163,45.1240771],[-93.1252455,45.1240893],[-93.1274142,45.1241167],[-93.1431663,45.1241933],[-93.1476991,45.1242094],[-93.1535478,45.1242243]]]}}]}