{"type":"FeatureCollection","name":"south_saint_paul_border","features":[{"type":"Feature","properties":{"GNIS_FEATURE_ID":2395918,"FEATURE_NAME":"south_saint_paul","CTU_CLASS":"CITY","COUNTY_GNIS_FEATURE_ID":659464,"COUNTY_CODE":"19","COUNTY_NAME":"Dakota","POPULATION":20489,"SE_ANNO_CAD_DATA":null},"geometry":{"type":"Polygon","coordinates":[[[-93.0195381,44.8907892],[-93.0203808,44.8917199],[-93.0206229,44.8919886],[-93.0207211,44.8920907],[-93.0211876,44.8925989],[-93.0228643,44.8935815],[-93.0244571,44.8942663],[-93.0259582,44.8947252],[-93.0262066,44.8948045],[-93.0274802,44.8953357],[-93.0279193,44.8955181],[-93.0282733,44.8956627],[-93.029371,44.8960375],[-93.0309959,44.8965882],[-93.0326307,44.8973622],[-93.034182,44.8983448],[-93.0354675,44.8991598],[-93.038115,44.9012651],[-93.0399009,44.902685],[-93.04033,44.9031314],[-93.0412021,44.9040228],[-93.0416466,44.9044787],[-93.0417131,44.9046439],[-93.0426543,44.9069805],[-93.0428647,44.9079933],[-93.0438303,44.9099887],[-93.0443758,44.9107928],[-93.0460545,44.9129964],[-93.046746,44.9137866],[-93.0468414,44.9138986],[-93.0474277,44.9145706],[-93.0492731,44.9170958],[-93.0496912,44.9176679],[-93.0515716,44.919506],[-93.0585488,44.919515],[-93.0652876,44.919529],[-93.0653641,44.905142],[-93.0652941,44.8907478],[-93.0652907,44.8845326],[-93.0652902,44.8835579],[-93.0588536,44.8835104],[-93.0524171,44.8834625],[-93.0523552,44.8816638],[-93.0500449,44.8816969],[-93.0499547,44.8816982],[-93.0499355,44.882044],[-93.0499296,44.8821499],[-93.0449571,44.882058],[-93.0449922,44.8797191],[-93.0454641,44.8797136],[-93.0454825,44.8783221],[-93.0450069,44.8783103],[-93.0450106,44.8780281],[-93.0454864,44.8780291],[-93.04549,44.8777629],[-93.0450141,44.8777618],[-93.0450155,44.8776566],[-93.0454913,44.8776577],[-93.0455074,44.8764408],[-93.0450318,44.8764243],[-93.0450355,44.8761437],[-93.045553,44.8761502],[-93.0455357,44.8749346],[-93.0450136,44.8749262],[-93.0450054,44.8743486],[-93.0454889,44.8743561],[-93.0454823,44.8738941],[-93.0449989,44.8738862],[-93.0450067,44.8728021],[-93.0454669,44.8728029],[-93.0454657,44.8727155],[-93.0453889,44.8672914],[-93.0449055,44.8672904],[-93.04488,44.8654964],[-93.03992,44.8654797],[-93.0399212,44.8653757],[-93.0399074,44.8638466],[-93.0359718,44.8638139],[-93.0361057,44.8567735],[-93.0375774,44.8567542],[-93.0375903,44.8553255],[-93.0341389,44.8553025],[-93.0341073,44.8534175],[-93.0319965,44.853408],[-93.0319164,44.8501105],[-93.0314927,44.8501152],[-93.0314761,44.8483951],[-93.0277629,44.8484209],[-93.0277643,44.8500586],[-93.0287966,44.8500716],[-93.0288521,44.8516819],[-93.0296918,44.8516999],[-93.0296757,44.853405],[-93.0293094,44.8534128],[-93.0293058,44.8552703],[-93.0296121,44.8552728],[-93.029713,44.8603005],[-93.0244352,44.8603132],[-93.0244562,44.8615048],[-93.0246104,44.8615053],[-93.0251621,44.8617342],[-93.0251064,44.8617808],[-93.0250253,44.8618473],[-93.024937,44.8618939],[-93.0248418,44.8619441],[-93.029784,44.8619386],[-93.0297679,44.8641365],[-93.0156055,44.8641029],[-93.0152552,44.8668939],[-93.011393,44.8669311],[-93.0129286,44.8686647],[-93.0129659,44.8687105],[-93.0133457,44.8693949],[-93.0133792,44.869569],[-93.0134674,44.8700026],[-93.0136295,44.8707893],[-93.0137652,44.8718971],[-93.0141008,44.8731482],[-93.014101,44.8741014],[-93.0142578,44.8750259],[-93.0143229,44.8753812],[-93.0143523,44.8755396],[-93.0144568,44.8760922],[-93.0144671,44.8762175],[-93.0145106,44.8769962],[-93.0146522,44.8779],[-93.014836,44.8787233],[-93.015064,44.8793658],[-93.0151984,44.879984],[-93.0154853,44.88131],[-93.0157533,44.8820977],[-93.0160765,44.883059],[-93.0164741,44.8839183],[-93.0165122,44.8840026],[-93.016574,44.8841401],[-93.0166243,44.8842971],[-93.016934,44.8852972],[-93.0177917,44.8875354],[-93.0183787,44.8885779],[-93.0190914,44.8897992],[-93.0195381,44.8907892]]]}}]}