{"type":"FeatureCollection","name":"spring_park_border","features":[{"type":"Feature","properties":{"GNIS_FEATURE_ID":2395935,"FEATURE_NAME":"spring_park","CTU_CLASS":"CITY","COUNTY_GNIS_FEATURE_ID":659472,"COUNTY_CODE":"27","COUNTY_NAME":"Hennepin","POPULATION":1716,"SE_ANNO_CAD_DATA":null},"geometry":{"type":"Polygon","coordinates":[[[-93.6233014,44.9343087],[-93.6232289,44.9346673],[-93.6222694,44.9346716],[-93.6222592,44.93624],[-93.6197452,44.9366103],[-93.6198024,44.9368044],[-93.6192834,44.9368816],[-93.6193096,44.9380367],[-93.6198259,44.9380657],[-93.6198703,44.9405437],[-93.615876,44.940599],[-93.6159212,44.9406716],[-93.6160282,44.9408544],[-93.6161232,44.9410214],[-93.616215,44.9411892],[-93.6163027,44.9413581],[-93.6164725,44.9416974],[-93.6165465,44.9418507],[-93.6166164,44.9420049],[-93.6167538,44.9423194],[-93.6168978,44.9423199],[-93.6168868,44.9422393],[-93.6168751,44.9421766],[-93.6168327,44.9420296],[-93.6168196,44.9419754],[-93.6168135,44.9419042],[-93.6168443,44.9418333],[-93.6169001,44.9417997],[-93.6169931,44.9417942],[-93.6171048,44.941861],[-93.6171641,44.9419262],[-93.6172176,44.9419972],[-93.6172675,44.9420701],[-93.6174256,44.9423068],[-93.6176364,44.9423012],[-93.6174607,44.9420348],[-93.6174072,44.9419535],[-93.6173603,44.9418691],[-93.6175526,44.9417625],[-93.6176171,44.941733],[-93.6176986,44.9417018],[-93.6178012,44.9417144],[-93.6178574,44.9417769],[-93.6179231,44.9418968],[-93.6179597,44.9419489],[-93.6180208,44.9419872],[-93.618105,44.9420079],[-93.6182058,44.942019],[-93.6183577,44.9420173],[-93.6186493,44.9420014],[-93.6187433,44.9420025],[-93.6188322,44.942027],[-93.6191383,44.9421368],[-93.6192796,44.9421724],[-93.6193788,44.9421616],[-93.6195219,44.9421788],[-93.6197461,44.9422165],[-93.6198585,44.9422312],[-93.6199524,44.9422374],[-93.6200975,44.9422366],[-93.6202257,44.9422322],[-93.6203806,44.9422231],[-93.6205349,44.9422104],[-93.6206869,44.9421943],[-93.620871,44.9421698],[-93.6209631,44.9421501],[-93.6210023,44.9420618],[-93.6209999,44.941924],[-93.6209779,44.9418712],[-93.6209253,44.941828],[-93.6208093,44.9417756],[-93.6207208,44.9417522],[-93.6205951,44.9417336],[-93.6204746,44.9417102],[-93.6204194,44.941631],[-93.6203614,44.9414876],[-93.62033,44.9414182],[-93.6203022,44.9413472],[-93.6202675,44.9412874],[-93.6201809,44.9412129],[-93.6200328,44.9411283],[-93.6199552,44.9410455],[-93.6200326,44.9410244],[-93.6201396,44.9410507],[-93.6202218,44.9410794],[-93.6202986,44.9411109],[-93.6203841,44.9411504],[-93.6204669,44.9411927],[-93.6205911,44.9412656],[-93.6206527,44.9413474],[-93.6206315,44.9414939],[-93.6206943,44.9415634],[-93.6208155,44.9415806],[-93.620921,44.9415612],[-93.620971,44.9415126],[-93.6209848,44.9414316],[-93.6210676,44.9413843],[-93.6211932,44.9413533],[-93.6212735,44.9413095],[-93.6214424,44.9411905],[-93.6215431,44.941138],[-93.6216102,44.9411149],[-93.621699,44.941092],[-93.621798,44.9410728],[-93.6220263,44.9410369],[-93.6221258,44.9410187],[-93.6222213,44.9409959],[-93.6223053,44.940968],[-93.6223842,44.9409334],[-93.6224455,44.9409022],[-93.6225054,44.9408684],[-93.6225636,44.9408322],[-93.6226198,44.9407939],[-93.6226737,44.9407539],[-93.6227252,44.9407124],[-93.622774,44.9406696],[-93.6228377,44.9406073],[-93.6228953,44.9405438],[-93.6229482,44.9404736],[-93.6229794,44.940425],[-93.6230081,44.9403753],[-93.6230596,44.9402731],[-93.6231529,44.9400644],[-93.6231938,44.9399784],[-93.6235876,44.939211],[-93.6237133,44.9389182],[-93.6237803,44.9387728],[-93.6238335,44.9386716],[-93.6239037,44.9385557],[-93.6239466,44.9384905],[-93.624002,44.9384197],[-93.6240631,44.9383512],[-93.6241674,44.9382437],[-93.6242364,44.9381475],[-93.6243867,44.9379755],[-93.6246696,44.9376611],[-93.6250826,44.9372961],[-93.6252121,44.9371853],[-93.6253112,44.9371033],[-93.6254428,44.9369894],[-93.6255115,44.9369347],[-93.6255663,44.9368974],[-93.625645,44.9368545],[-93.6257537,44.9368127],[-93.6258462,44.936784],[-93.6259669,44.9367532],[-93.6260911,44.9367277],[-93.6261919,44.9367113],[-93.6263433,44.9366935],[-93.6264932,44.9366838],[-93.6266444,44.9366814],[-93.6267969,44.936685],[-93.6269498,44.9366933],[-93.6271531,44.9367093],[-93.6273544,44.9367283],[-93.627454,44.9367413],[-93.6275531,44.9367574],[-93.6278489,44.9368128],[-93.6279477,44.9368299],[-93.6280966,44.9368504],[-93.6281967,44.936859],[-93.6283477,44.9368652],[-93.6284993,44.9368668],[-93.6287021,44.936864],[-93.6290579,44.9368536],[-93.6292612,44.9368497],[-93.6294134,44.9368501],[-93.6295652,44.9368545],[-93.6297673,44.9368639],[-93.6300198,44.9368793],[-93.6308774,44.9369429],[-93.631231,44.936965],[-93.6314349,44.9369708],[-93.6318962,44.9369746],[-93.6320487,44.9369789],[-93.6321496,44.9369841],[-93.6322497,44.9369916],[-93.6323487,44.937002],[-93.6324708,44.93702],[-93.6325911,44.9370435],[-93.6327331,44.9370788],[-93.6328732,44.9371202],[-93.6330115,44.9371663],[-93.6331485,44.9372158],[-93.6335549,44.9373704],[-93.6339608,44.9375202],[-93.6341397,44.9375894],[-93.634272,44.9376433],[-93.634402,44.9376995],[-93.6345289,44.9377582],[-93.6346318,44.9378097],[-93.6347097,44.9378553],[-93.6347997,44.9379196],[-93.6349687,44.9380586],[-93.6350375,44.9381123],[-93.6351098,44.9381617],[-93.6351678,44.9381946],[-93.6352972,44.9382505],[-93.6353689,44.9382747],[-93.6354441,44.9382948],[-93.6355462,44.9383147],[-93.6356476,44.9383245],[-93.6357449,44.9383223],[-93.6358388,44.9383081],[-93.6359779,44.9382703],[-93.6360927,44.9382286],[-93.6363199,44.9381349],[-93.6364996,44.9380658],[-93.6366315,44.9380111],[-93.6368931,44.9378985],[-93.6370259,44.9378458],[-93.6371162,44.9378139],[-93.6372085,44.9377854],[-93.637398,44.9377352],[-93.6375423,44.9376993],[-93.637737,44.9376545],[-93.6379337,44.9376143],[-93.6381317,44.9375799],[-93.6382808,44.9375586],[-93.6383803,44.9375469],[-93.6384798,44.9375372],[-93.6386303,44.9375268],[-93.638784,44.9375212],[-93.6389394,44.9375207],[-93.6390432,44.9375232],[-93.6391466,44.9375282],[-93.6392491,44.9375357],[-93.6393503,44.9375456],[-93.6394497,44.9375582],[-93.6395468,44.9375734],[-93.6396633,44.9375983],[-93.6397481,44.9376323],[-93.6398263,44.937678],[-93.6399942,44.9377969],[-93.6400525,44.9378335],[-93.6403605,44.9379936],[-93.6404859,44.9380555],[-93.6405707,44.9380952],[-93.6406566,44.9381333],[-93.6407438,44.9381693],[-93.6408328,44.9382029],[-93.6409251,44.9382341],[-93.6410444,44.9382686],[-93.641191,44.9383017],[-93.641314,44.9383205],[-93.6413877,44.9383256],[-93.6414872,44.9383206],[-93.6416638,44.9382947],[-93.6417398,44.9382853],[-93.6421721,44.9382624],[-93.6423762,44.9382543],[-93.6424778,44.9382522],[-93.6425791,44.938252],[-93.6427298,44.9382562],[-93.6428539,44.9382655],[-93.6429508,44.9382831],[-93.643022,44.9383023],[-93.6432804,44.9383855],[-93.6433764,44.9384073],[-93.6435017,44.9384233],[-93.6436072,44.938432],[-93.6437137,44.9384358],[-93.6437919,44.9384342],[-93.6438914,44.9384254],[-93.6439819,44.9384064],[-93.6440627,44.9383673],[-93.644131,44.938308],[-93.6441818,44.9382399],[-93.6442106,44.9381725],[-93.6442199,44.9381028],[-93.6442188,44.9380486],[-93.6442075,44.9379378],[-93.6442035,44.9378644],[-93.6442091,44.9377925],[-93.6442434,44.9376753],[-93.644626,44.936973],[-93.6447286,44.9368084],[-93.6448452,44.9366286],[-93.6449055,44.936549],[-93.6450393,44.9363939],[-93.6450895,44.9363312],[-93.6451336,44.9362669],[-93.6451605,44.9362172],[-93.6451949,44.9361318],[-93.6452242,44.9360265],[-93.6452389,44.9359551],[-93.6452753,44.9357389],[-93.6452895,44.9356672],[-93.645307,44.9355961],[-93.6453293,44.9355258],[-93.6453564,44.935456],[-93.6453872,44.9353865],[-93.645525,44.9351099],[-93.6455726,44.9350063],[-93.6456122,44.9349023],[-93.6456321,44.9348328],[-93.6456477,44.9347455],[-93.6456526,44.9346576],[-93.6456524,44.9345863],[-93.6456495,44.9345141],[-93.6456439,44.9344414],[-93.6456356,44.9343683],[-93.6456247,44.9342951],[-93.6456112,44.9342219],[-93.6455949,44.9341489],[-93.645576,44.9340763],[-93.6455545,44.9340044],[-93.6455304,44.9339333],[-93.6455036,44.9338633],[-93.6454741,44.9337944],[-93.645425,44.933694],[-93.6453787,44.9336134],[-93.6453328,44.9335517],[-93.6452925,44.9335071],[-93.6452149,44.933436],[-93.6451279,44.9333683],[-93.6450531,44.9333163],[-93.6449753,44.9332661],[-93.6447004,44.9331005],[-93.6445788,44.9330367],[-93.6444509,44.9329781],[-93.6442739,44.9329057],[-93.6439143,44.9327706],[-93.643597,44.932657],[-93.6433212,44.932565],[-93.643182,44.9325214],[-93.6430419,44.9324797],[-93.6428533,44.9324272],[-93.6427101,44.9323894],[-93.6425654,44.9323537],[-93.6424683,44.9323315],[-93.6423217,44.9323011],[-93.6422235,44.9322831],[-93.642125,44.9322674],[-93.6420262,44.9322539],[-93.6418764,44.9322391],[-93.641775,44.932233],[-93.641673,44.9322299],[-93.6415706,44.9322297],[-93.6414173,44.9322345],[-93.6412656,44.9322454],[-93.6411161,44.9322617],[-93.6409673,44.9322821],[-93.6408191,44.9323055],[-93.6406219,44.9323399],[-93.6401786,44.932421],[-93.6399313,44.9324614],[-93.6397821,44.9324818],[-93.6395318,44.9325115],[-93.6393304,44.9325328],[-93.639179,44.9325467],[-93.6390273,44.9325582],[-93.6388755,44.9325668],[-93.6387239,44.9325721],[-93.6386229,44.9325735],[-93.6383695,44.9325719],[-93.638165,44.9325674],[-93.6379601,44.9325591],[-93.6378071,44.9325494],[-93.6376049,44.9325312],[-93.637505,44.9325194],[-93.6374061,44.9325056],[-93.6373083,44.9324897],[-93.637212,44.9324714],[-93.6371181,44.9324477],[-93.6370267,44.9324181],[-93.6369374,44.9323838],[-93.6368493,44.9323464],[-93.6365875,44.9322284],[-93.6364542,44.9321746],[-93.6363399,44.9321371],[-93.6362217,44.9321082],[-93.6361249,44.9320899],[-93.6360266,44.9320747],[-93.6359271,44.9320621],[-93.6358265,44.9320517],[-93.6357252,44.9320431],[-93.6355723,44.9320326],[-93.6351653,44.9320084],[-93.6350638,44.9320002],[-93.6347551,44.9319707],[-93.6346522,44.9319629],[-93.6345499,44.9319578],[-93.6344487,44.9319566],[-93.6343244,44.9319625],[-93.634227,44.931974],[-93.6341553,44.9319868],[-93.6340608,44.9320075],[-93.6339208,44.9320445],[-93.6337825,44.9320875],[-93.6336455,44.932135],[-93.6335093,44.9321856],[-93.6331468,44.9323246],[-93.6330098,44.9323743],[-93.6329178,44.9324054],[-93.632639,44.9324919],[-93.6324046,44.9325609],[-93.6321684,44.9326262],[-93.6319778,44.9326752],[-93.6317855,44.9327207],[-93.6315913,44.9327626],[-93.6313955,44.9328009],[-93.6311495,44.9328441],[-93.6310505,44.9328586],[-93.6309504,44.9328702],[-93.6305988,44.9329214],[-93.6306233,44.9329905],[-93.6306512,44.9330409],[-93.6306979,44.9331098],[-93.6307603,44.9331797],[-93.6307975,44.9332866],[-93.6308176,44.933421],[-93.630807,44.9334973],[-93.630778,44.9335456],[-93.6307374,44.9335962],[-93.6306513,44.9336878],[-93.6306104,44.9337341],[-93.6303433,44.9338612],[-93.6302788,44.9338896],[-93.6301951,44.9339204],[-93.6300791,44.9339446],[-93.630008,44.9339638],[-93.629571,44.9340844],[-93.6289103,44.9342686],[-93.6286514,44.9343423],[-93.6285213,44.9343777],[-93.6282336,44.9344477],[-93.627591,44.934594],[-93.6273972,44.9346453],[-93.6272999,44.9346677],[-93.6272263,44.9346796],[-93.6271521,44.9346855],[-93.627077,44.9346849],[-93.6269266,44.9346807],[-93.6267379,44.9346726],[-93.626511,44.9346593],[-93.6262837,44.9346427],[-93.6260309,44.9346214],[-93.6257529,44.9345954],[-93.6251613,44.9345373],[-93.6250867,44.9345278],[-93.6249887,44.9345097],[-93.6247458,44.9344564],[-93.6243454,44.9343927],[-93.6242471,44.9343743],[-93.6239774,44.9343187],[-93.6238791,44.9343015],[-93.623805,44.9342911],[-93.623712,44.9342827],[-93.623618,44.934282],[-93.6235296,44.9342876],[-93.6233014,44.9343087]]]}}]}