{"type":"FeatureCollection","name":"spring_lake_park_border","features":[{"type":"Feature","properties":{"GNIS_FEATURE_ID":2395934,"FEATURE_NAME":"spring_lake_park","CTU_CLASS":"CITY","COUNTY_GNIS_FEATURE_ID":659447,"COUNTY_CODE":"02","COUNTY_NAME":"Anoka","POPULATION":7229,"SE_ANNO_CAD_DATA":null},"geometry":{"type":"MultiPolygon","coordinates":[[[[-93.2637079,45.1245527],[-93.2636416,45.1079158],[-93.2632757,45.1079063],[-93.2632757,45.1074611],[-93.2631437,45.1074094],[-93.2605565,45.1079231],[-93.2525245,45.1078777],[-93.2502491,45.1077976],[-93.2483884,45.1078248],[-93.2315701,45.1077185],[-93.2291072,45.1070796],[-93.2278288,45.1070824],[-93.2278095,45.107084],[-93.2278144,45.1076944],[-93.2276434,45.1113551],[-93.227673,45.1150232],[-93.2277121,45.1162033],[-93.2278648,45.1245287],[-93.2357124,45.1245936],[-93.235707,45.1247802],[-93.2387284,45.1247677],[-93.2379618,45.1245843],[-93.248351,45.1245463],[-93.2483518,45.1245463],[-93.2637079,45.1245527]]],[[[-93.2276434,45.1113551],[-93.2248271,45.1113656],[-93.224853,45.1117279],[-93.2229542,45.1117844],[-93.2229504,45.1134263],[-93.2277121,45.1162033],[-93.227673,45.1150232],[-93.2276434,45.1113551]]]]}}]}