{"type":"FeatureCollection","name":"stillwater_border","features":[{"type":"Feature","properties":{"GNIS_FEATURE_ID":2395969,"FEATURE_NAME":"stillwater","CTU_CLASS":"CITY","COUNTY_GNIS_FEATURE_ID":659526,"COUNTY_CODE":"82","COUNTY_NAME":"Washington","POPULATION":19425,"SE_ANNO_CAD_DATA":null},"geometry":{"type":"MultiPolygon","coordinates":[[[[-92.8631788,45.0795903],[-92.8629995,45.0687682],[-92.862994,45.0657581],[-92.8629939,45.0656656],[-92.8629932,45.0608106],[-92.8629927,45.0579146],[-92.8629944,45.0537158],[-92.8629952,45.0517398],[-92.8629957,45.0506688],[-92.8629748,45.0468272],[-92.8630155,45.0435887],[-92.8630168,45.03982],[-92.863018,45.0361694],[-92.858791,45.0361322],[-92.8545438,45.0360947],[-92.8536674,45.036087],[-92.8463995,45.035996],[-92.8434208,45.0359954],[-92.843421,45.0362971],[-92.8228912,45.0360034],[-92.8228879,45.0357017],[-92.8217222,45.0356899],[-92.8126863,45.035634],[-92.8127105,45.0391483],[-92.8052408,45.0391467],[-92.8052448,45.0374366],[-92.8050901,45.0374363],[-92.805096,45.0363041],[-92.8014596,45.0362826],[-92.8011114,45.0362799],[-92.800142,45.0362727],[-92.800187,45.0391625],[-92.8025141,45.0391558],[-92.8025129,45.0396341],[-92.8029816,45.0396339],[-92.8029894,45.0401379],[-92.8025114,45.0401343],[-92.8025037,45.0428151],[-92.7998793,45.0428083],[-92.797439,45.042784],[-92.7967022,45.0427847],[-92.796703,45.0429026],[-92.7967029,45.0432634],[-92.7967029,45.043567],[-92.796699,45.0438056],[-92.7967028,45.04387],[-92.7966989,45.0441668],[-92.7967027,45.0442536],[-92.7967027,45.0443478],[-92.7962733,45.0443479],[-92.7958834,45.0443573],[-92.7957935,45.0441671],[-92.7957224,45.0438059],[-92.7956214,45.0432642],[-92.795554,45.042903],[-92.795552,45.0428124],[-92.7955416,45.0427858],[-92.7867944,45.0427937],[-92.7854963,45.0427949],[-92.7867634,45.0433558],[-92.7896765,45.0448387],[-92.791932,45.0463243],[-92.7931933,45.0472973],[-92.7945332,45.0484129],[-92.7958267,45.0495397],[-92.797098,45.0507709],[-92.7989321,45.0526759],[-92.8003559,45.054555],[-92.8018414,45.0565959],[-92.8023179,45.0578663],[-92.8029762,45.0594514],[-92.8029907,45.0595166],[-92.803066,45.0598916],[-92.8032569,45.060827],[-92.803293,45.0612892],[-92.8033021,45.0613931],[-92.8033091,45.0615057],[-92.803438,45.0631432],[-92.8031871,45.0646007],[-92.8031218,45.0649396],[-92.8030735,45.0652291],[-92.802998,45.0655832],[-92.8029431,45.0658318],[-92.802752,45.0664893],[-92.8026264,45.0669389],[-92.8021555,45.0679961],[-92.8016364,45.0688557],[-92.8010242,45.0696772],[-92.8004034,45.0703889],[-92.7996351,45.0710735],[-92.7990358,45.0715982],[-92.7980908,45.0724376],[-92.7975456,45.0729401],[-92.7967013,45.07379],[-92.7963063,45.0741556],[-92.796185,45.0742789],[-92.7959026,45.0745463],[-92.7950113,45.0753194],[-92.7940732,45.0760708],[-92.7930505,45.076894],[-92.792112,45.0775958],[-92.7913665,45.0782255],[-92.7907158,45.0789115],[-92.792318,45.0789456],[-92.8016343,45.0791431],[-92.801808,45.0791435],[-92.8026207,45.0791456],[-92.8128989,45.0792105],[-92.8129104,45.0752989],[-92.8132331,45.0753054],[-92.8137624,45.0752951],[-92.8141544,45.0752708],[-92.8147301,45.0752241],[-92.815341,45.0751831],[-92.8157503,45.0751787],[-92.8161591,45.0751946],[-92.8167669,45.0752561],[-92.8172642,45.0753416],[-92.8183432,45.0755682],[-92.8187083,45.0756181],[-92.8190746,45.0756473],[-92.8194387,45.0756539],[-92.8195905,45.07565],[-92.8197376,45.0756426],[-92.8198843,45.0756315],[-92.8200303,45.0756168],[-92.820189,45.0755967],[-92.820647,45.0755472],[-92.8210991,45.0755156],[-92.8214015,45.0755039],[-92.8219785,45.0754949],[-92.8231656,45.0754896],[-92.8241257,45.0755018],[-92.8243124,45.0755071],[-92.8244987,45.075517],[-92.8246844,45.0755315],[-92.8249613,45.0755618],[-92.825618,45.0756607],[-92.8259233,45.0757039],[-92.8260577,45.0757178],[-92.8261927,45.0757283],[-92.8263281,45.0757355],[-92.8264639,45.0757393],[-92.8266676,45.0757388],[-92.8268033,45.0757342],[-92.8270338,45.0757187],[-92.8282136,45.0755769],[-92.8284057,45.0755636],[-92.8286469,45.0755603],[-92.8287818,45.0755649],[-92.8289258,45.0755751],[-92.830201,45.0757202],[-92.8305182,45.0757566],[-92.8306865,45.0757742],[-92.8308892,45.0757885],[-92.8310927,45.0757953],[-92.8312286,45.0757956],[-92.8313643,45.0757926],[-92.8315675,45.0757817],[-92.8317696,45.0757634],[-92.83197,45.0757375],[-92.8321588,45.0757061],[-92.8323638,45.0756638],[-92.8326194,45.0755986],[-92.8328679,45.0755209],[-92.8331668,45.0754068],[-92.8334505,45.0752748],[-92.8336651,45.0751568],[-92.8338676,45.0750285],[-92.8340108,45.0749259],[-92.8341463,45.0748181],[-92.8343143,45.0746668],[-92.8344669,45.0745076],[-92.8347511,45.0741238],[-92.8347852,45.0793655],[-92.8358208,45.0793759],[-92.8384151,45.0795799],[-92.8434662,45.0800105],[-92.8438797,45.0800456],[-92.8454982,45.0801223],[-92.846312,45.0801351],[-92.8471967,45.0801041],[-92.8474669,45.0800946],[-92.8486278,45.0800306],[-92.8537718,45.079713],[-92.854772,45.0796533],[-92.8550941,45.0796428],[-92.8563715,45.0796014],[-92.8568603,45.0795855],[-92.858036,45.0795783],[-92.8589263,45.0795729],[-92.8602811,45.0795784],[-92.8615521,45.0795836],[-92.8631788,45.0795903]],[[-92.8365896,45.0461956],[-92.8368454,45.0463191],[-92.8351452,45.0480878],[-92.835003,45.0482571],[-92.8348778,45.0484083],[-92.8347636,45.0485748],[-92.8339855,45.0499484],[-92.8337419,45.0503784],[-92.8334105,45.0503745],[-92.8344805,45.0484858],[-92.8346048,45.0483046],[-92.8347367,45.0481454],[-92.8348841,45.0479698],[-92.8365896,45.0461956]],[[-92.8347728,45.0574541],[-92.8349562,45.0577373],[-92.8347641,45.0577359],[-92.8346402,45.0575482],[-92.8345312,45.0574544],[-92.8343708,45.0573601],[-92.83295,45.0571295],[-92.8329486,45.057006],[-92.8337222,45.0571304],[-92.8344957,45.0572547],[-92.8345938,45.057295],[-92.834707,45.0573775],[-92.8347728,45.0574541]],[[-92.8076237,45.0411118],[-92.8076037,45.042838],[-92.8062661,45.0428248],[-92.805754,45.0428235],[-92.8037374,45.0428165],[-92.8037374,45.0428163],[-92.8037424,45.0422403],[-92.8037477,45.0419809],[-92.8063655,45.04199],[-92.8063673,45.0411105],[-92.8076237,45.0411118]],[[-92.8011502,45.0386965],[-92.8011573,45.0390793],[-92.8006715,45.0390866],[-92.8006643,45.0387037],[-92.8011502,45.0386965]]],[[[-92.8056643,45.0427136],[-92.8056797,45.0423552],[-92.8049992,45.0423519],[-92.8049975,45.0427118],[-92.8056643,45.0427136]]],[[[-92.8630075,45.0353838],[-92.8630033,45.0350089],[-92.8629981,45.0345411],[-92.862988,45.033636],[-92.8629835,45.0332288],[-92.8629785,45.0327755],[-92.8629776,45.0327026],[-92.8629746,45.0324322],[-92.8628011,45.0324319],[-92.8622795,45.032423],[-92.8622592,45.0323666],[-92.8622439,45.0322964],[-92.8622402,45.0322335],[-92.8622486,45.0321532],[-92.8622717,45.0320715],[-92.8623537,45.0319125],[-92.8624879,45.0316633],[-92.8625284,45.0315884],[-92.8625652,45.0315125],[-92.8625945,45.0314383],[-92.860621,45.0313474],[-92.8586372,45.0312645],[-92.8586444,45.0315244],[-92.8587587,45.0351293],[-92.8588395,45.0351289],[-92.8589205,45.0351286],[-92.8592871,45.0351294],[-92.8592876,45.0352391],[-92.8605199,45.0352416],[-92.8605205,45.0353787],[-92.8628171,45.0353834],[-92.8630075,45.0353838]]],[[[-92.7821175,45.1234182],[-92.79507,45.1235131],[-92.8153031,45.1234708],[-92.8229334,45.1234812],[-92.8356377,45.1235179],[-92.8435239,45.1235533],[-92.8559415,45.123578],[-92.8637343,45.1235795],[-92.8635434,45.1083567],[-92.8633701,45.094134],[-92.8631788,45.0795903],[-92.8615521,45.0795836],[-92.8602811,45.0795784],[-92.8589263,45.0795729],[-92.858036,45.0795783],[-92.8568603,45.0795855],[-92.8563715,45.0796014],[-92.8550941,45.0796428],[-92.854772,45.0796533],[-92.8537718,45.079713],[-92.8486278,45.0800306],[-92.8474669,45.0800946],[-92.8471967,45.0801041],[-92.846312,45.0801351],[-92.8454982,45.0801223],[-92.8438797,45.0800456],[-92.8434662,45.0800105],[-92.8384151,45.0795799],[-92.8358208,45.0793759],[-92.8347852,45.0793655],[-92.8347511,45.0741238],[-92.8344669,45.0745076],[-92.8343143,45.0746668],[-92.8341463,45.0748181],[-92.8340108,45.0749259],[-92.8338676,45.0750285],[-92.8336651,45.0751568],[-92.8334505,45.0752748],[-92.8331668,45.0754068],[-92.8328679,45.0755209],[-92.8326194,45.0755986],[-92.8323638,45.0756638],[-92.8321588,45.0757061],[-92.83197,45.0757375],[-92.8317696,45.0757634],[-92.8315675,45.0757817],[-92.8313643,45.0757926],[-92.8312286,45.0757956],[-92.8310927,45.0757953],[-92.8308892,45.0757885],[-92.8306865,45.0757742],[-92.8305182,45.0757566],[-92.830201,45.0757202],[-92.8289258,45.0755751],[-92.8287818,45.0755649],[-92.8286469,45.0755603],[-92.8284057,45.0755636],[-92.8282136,45.0755769],[-92.8270338,45.0757187],[-92.8268033,45.0757342],[-92.8266676,45.0757388],[-92.8264639,45.0757393],[-92.8263281,45.0757355],[-92.8261927,45.0757283],[-92.8260577,45.0757178],[-92.8259233,45.0757039],[-92.825618,45.0756607],[-92.8249613,45.0755618],[-92.8246844,45.0755315],[-92.8244987,45.075517],[-92.8243124,45.0755071],[-92.8241257,45.0755018],[-92.8231656,45.0754896],[-92.8219785,45.0754949],[-92.8214015,45.0755039],[-92.8210991,45.0755156],[-92.820647,45.0755472],[-92.820189,45.0755967],[-92.8200303,45.0756168],[-92.8198843,45.0756315],[-92.8197376,45.0756426],[-92.8195905,45.07565],[-92.8194387,45.0756539],[-92.8190746,45.0756473],[-92.8187083,45.0756181],[-92.8183432,45.0755682],[-92.8172642,45.0753416],[-92.8167669,45.0752561],[-92.8161591,45.0751946],[-92.8157503,45.0751787],[-92.815341,45.0751831],[-92.8147301,45.0752241],[-92.8141544,45.0752708],[-92.8137624,45.0752951],[-92.8132331,45.0753054],[-92.8129104,45.0752989],[-92.8128989,45.0792105],[-92.8026207,45.0791456],[-92.801808,45.0791435],[-92.8016343,45.0791431],[-92.792318,45.0789456],[-92.7907158,45.0789115],[-92.7898146,45.0796443],[-92.7890239,45.0804336],[-92.7881932,45.081091],[-92.787631,45.0814451],[-92.7867839,45.0819817],[-92.7855202,45.0826959],[-92.7843106,45.0833933],[-92.7830241,45.0841735],[-92.7823893,45.0845558],[-92.7813524,45.0851805],[-92.7793269,45.086195],[-92.778097,45.0868626],[-92.777938,45.0869442],[-92.7778778,45.0869748],[-92.7767883,45.0875183],[-92.7754471,45.0882546],[-92.77509,45.0884851],[-92.7744535,45.0888962],[-92.7735997,45.0895975],[-92.772686,45.090541],[-92.7719406,45.0912585],[-92.7707778,45.092049],[-92.769438,45.0929776],[-92.768079,45.0938436],[-92.7680214,45.093887],[-92.7677953,45.0940589],[-92.7670593,45.0946149],[-92.7659283,45.0954525],[-92.7658078,45.0955405],[-92.7657525,45.0955794],[-92.7644177,45.0965422],[-92.7630009,45.0975535],[-92.7618603,45.098245],[-92.7607891,45.0989142],[-92.7597398,45.0993964],[-92.7585049,45.0999178],[-92.7578643,45.1002005],[-92.7573329,45.1005708],[-92.7563944,45.1013769],[-92.7555714,45.1020999],[-92.7546162,45.1029638],[-92.7542486,45.1033086],[-92.7533864,45.1039715],[-92.7519911,45.1048067],[-92.7502295,45.1057312],[-92.7489333,45.106248],[-92.7479513,45.1066831],[-92.7470625,45.1071454],[-92.7458033,45.1079265],[-92.7448079,45.1087893],[-92.7438673,45.1097783],[-92.7432588,45.1105637],[-92.7425199,45.1116455],[-92.7419487,45.1121017],[-92.7412857,45.1128597],[-92.740655,45.1138535],[-92.7402398,45.1145727],[-92.7397902,45.115634],[-92.7397616,45.1157312],[-92.7396293,45.1166196],[-92.7399109,45.117195],[-92.7402934,45.117836],[-92.740838,45.1182594],[-92.7411878,45.1185309],[-92.7421291,45.1193246],[-92.7432641,45.1200959],[-92.7437857,45.1206105],[-92.7444088,45.121295],[-92.7451735,45.1224345],[-92.745634,45.1231302],[-92.7456828,45.1232289],[-92.7460119,45.123227],[-92.7502298,45.1232026],[-92.7537103,45.1232224],[-92.7614803,45.1232859],[-92.7751144,45.1233695],[-92.7821175,45.1234182]]],[[[-92.8586444,45.0315244],[-92.858025,45.0316773],[-92.8577313,45.0321729],[-92.857562,45.0324584],[-92.8574675,45.0326179],[-92.857222,45.0330319],[-92.8569032,45.0334094],[-92.8565844,45.0337869],[-92.8562656,45.0341643],[-92.8558826,45.034502],[-92.855387,45.034939],[-92.8549543,45.0353206],[-92.8547386,45.0354245],[-92.854845,45.0354218],[-92.8556051,45.0354877],[-92.8545522,45.0355144],[-92.8545438,45.0360947],[-92.858791,45.0361322],[-92.8587587,45.0351293],[-92.8586444,45.0315244]]],[[[-92.8348841,45.0479698],[-92.8347367,45.0481454],[-92.8346048,45.0483046],[-92.8344805,45.0484858],[-92.8334105,45.0503745],[-92.8337419,45.0503784],[-92.8339855,45.0499484],[-92.8347636,45.0485748],[-92.8348778,45.0484083],[-92.835003,45.0482571],[-92.8351452,45.0480878],[-92.8368454,45.0463191],[-92.8365896,45.0461956],[-92.8348841,45.0479698]]],[[[-92.83295,45.0571295],[-92.8343708,45.0573601],[-92.8345312,45.0574544],[-92.8346402,45.0575482],[-92.8347641,45.0577359],[-92.8349562,45.0577373],[-92.8347728,45.0574541],[-92.834707,45.0573775],[-92.8345938,45.057295],[-92.8344957,45.0572547],[-92.8337222,45.0571304],[-92.8329486,45.057006],[-92.83295,45.0571295]]]]}}]}