{"type":"FeatureCollection","name":"sunfish_lake_border","features":[{"type":"Feature","properties":{"GNIS_FEATURE_ID":2396006,"FEATURE_NAME":"sunfish_lake","CTU_CLASS":"CITY","COUNTY_GNIS_FEATURE_ID":659464,"COUNTY_CODE":"19","COUNTY_NAME":"Dakota","POPULATION":520,"SE_ANNO_CAD_DATA":null},"geometry":{"type":"Polygon","coordinates":[[[-93.1061217,44.8619109],[-93.0856007,44.8619137],[-93.0851109,44.8619151],[-93.082537,44.8656725],[-93.0820797,44.866335],[-93.0809388,44.8679876],[-93.0806874,44.868463],[-93.0805902,44.8688312],[-93.0805979,44.8693086],[-93.080574,44.8719252],[-93.0805475,44.8753169],[-93.0805688,44.8779763],[-93.0864051,44.8804826],[-93.0883748,44.8813283],[-93.0901525,44.8820919],[-93.0906781,44.8823177],[-93.091671,44.8827595],[-93.0921733,44.8829402],[-93.0924394,44.8830359],[-93.0928354,44.883107],[-93.0931949,44.8831716],[-93.0947678,44.883357],[-93.0958489,44.8834442],[-93.1059437,44.8834643],[-93.1059669,44.8763734],[-93.1060936,44.874971],[-93.1061217,44.8619109]]]}}]}