{"type":"FeatureCollection","name":"tonka_bay_border","features":[{"type":"Feature","properties":{"GNIS_FEATURE_ID":2397036,"FEATURE_NAME":"tonka_bay","CTU_CLASS":"CITY","COUNTY_GNIS_FEATURE_ID":659472,"COUNTY_CODE":"27","COUNTY_NAME":"Hennepin","POPULATION":1608,"SE_ANNO_CAD_DATA":null},"geometry":{"type":"Polygon","coordinates":[[[-93.5946715,44.9268112],[-93.5944628,44.9268018],[-93.5943645,44.9267894],[-93.5942972,44.9267681],[-93.5942164,44.9267224],[-93.5941524,44.9266926],[-93.5940144,44.9266463],[-93.5939351,44.9266027],[-93.5938452,44.9265388],[-93.5937462,44.9264565],[-93.5936549,44.9263699],[-93.5935981,44.9263102],[-93.5935453,44.9262488],[-93.5934512,44.9261211],[-93.5934002,44.9260589],[-93.5930759,44.9256933],[-93.593026,44.9256306],[-93.5929305,44.9255035],[-93.5928276,44.9253794],[-93.5927428,44.9252898],[-93.5925659,44.925114],[-93.5924811,44.9250242],[-93.5924274,44.924963],[-93.5923707,44.9248828],[-93.5923028,44.9247469],[-93.5922356,44.92465],[-93.5921513,44.9245601],[-93.5920631,44.9244937],[-93.5920221,44.9244497],[-93.5919895,44.9243824],[-93.5919579,44.9242571],[-93.5919407,44.9241311],[-93.5919103,44.9240633],[-93.5918678,44.9239976],[-93.5918052,44.9239187],[-93.5917487,44.9238589],[-93.591624,44.9237441],[-93.5915577,44.9236688],[-93.5915249,44.9235637],[-93.5914623,44.9234864],[-93.591243,44.9232647],[-93.5911928,44.9232242],[-93.5910825,44.9231494],[-93.5910343,44.9231081],[-93.5909573,44.9230149],[-93.5909065,44.9229754],[-93.5907916,44.9229039],[-93.5907388,44.9228651],[-93.5906282,44.9227664],[-93.5905565,44.9227155],[-93.590479,44.9226685],[-93.5904168,44.922638],[-93.5903488,44.9226144],[-93.5902525,44.9225905],[-93.5901546,44.9225707],[-93.590084,44.9225516],[-93.5899549,44.9224946],[-93.5898623,44.9224654],[-93.5897651,44.9224446],[-93.589614,44.9224322],[-93.5895008,44.9223638],[-93.5894325,44.9223415],[-93.5890732,44.92225],[-93.5889373,44.9222002],[-93.5888564,44.9221571],[-93.5888117,44.922115],[-93.5887862,44.9220629],[-93.5887554,44.9219386],[-93.5887259,44.921851],[-93.588708,44.9217077],[-93.5886799,44.9216197],[-93.5886699,44.9215665],[-93.5886695,44.9215127],[-93.5886957,44.9212606],[-93.5887068,44.9211891],[-93.5887203,44.9211363],[-93.5887686,44.9210337],[-93.588832,44.9208777],[-93.588856,44.9208078],[-93.5888692,44.9207548],[-93.588876,44.9207012],[-93.5888809,44.9205748],[-93.5889001,44.9204858],[-93.5889191,44.9204332],[-93.5889536,44.9203657],[-93.588988,44.9203178],[-93.5890674,44.920225],[-93.5891009,44.9201767],[-93.5891251,44.9201258],[-93.5891584,44.9200386],[-93.5892249,44.9199216],[-93.58929,44.9198239],[-93.5893537,44.9197464],[-93.5894857,44.919614],[-93.5895416,44.9195539],[-93.5898908,44.919157],[-93.5901359,44.9189562],[-93.5902045,44.9189032],[-93.5902577,44.9188652],[-93.5903562,44.9188065],[-93.5904791,44.9187621],[-93.5905922,44.9187436],[-93.5907421,44.9187478],[-93.5908232,44.9187423],[-93.5909009,44.918724],[-93.5910254,44.9186888],[-93.5912296,44.9186569],[-93.5913022,44.9186414],[-93.5913854,44.9186196],[-93.5915149,44.9185826],[-93.5916889,44.9185283],[-93.591844,44.9184875],[-93.5919403,44.918464],[-93.5920132,44.9184489],[-93.5921119,44.9184363],[-93.5922527,44.9184424],[-93.5923362,44.9184356],[-93.5924343,44.9184125],[-93.5926444,44.9183463],[-93.5927343,44.9183252],[-93.5928401,44.9183112],[-93.5930666,44.9182892],[-93.5931547,44.9182821],[-93.5932305,44.9182792],[-93.5934112,44.9182813],[-93.5934957,44.9182745],[-93.5936973,44.918243],[-93.5938453,44.9182366],[-93.5940673,44.9182394],[-93.5942059,44.9182199],[-93.5942956,44.9182292],[-93.5944312,44.9182554],[-93.5946135,44.9182939],[-93.5947251,44.9183107],[-93.5948319,44.9183196],[-93.5951111,44.9183093],[-93.5951965,44.9182343],[-93.5952047,44.9181455],[-93.5952334,44.9180602],[-93.5952585,44.9179695],[-93.5953498,44.9178683],[-93.5954362,44.91786],[-93.5955064,44.9178768],[-93.5956152,44.9179404],[-93.5957574,44.9180559],[-93.5957832,44.9181687],[-93.5957473,44.9182711],[-93.5956885,44.9183532],[-93.5956162,44.9183951],[-93.5954848,44.9184299],[-93.5953491,44.918488],[-93.5952942,44.9185494],[-93.5952845,44.9186241],[-93.5953373,44.9187099],[-93.5954049,44.9187743],[-93.5954484,44.9188384],[-93.5955366,44.9188897],[-93.5956108,44.9189451],[-93.5957251,44.9190424],[-93.5957927,44.919096],[-93.5958833,44.9191543],[-93.5959811,44.9191996],[-93.5961375,44.9192609],[-93.5962795,44.9193085],[-93.5964516,44.9193361],[-93.5967528,44.919369],[-93.5969789,44.9193984],[-93.597073,44.9194217],[-93.5971356,44.919451],[-93.5972129,44.9194995],[-93.5972761,44.9195289],[-93.5974666,44.9195784],[-93.5975544,44.9196141],[-93.597656,44.9196683],[-93.5977295,44.9197176],[-93.5979408,44.9198733],[-93.5980358,44.9199582],[-93.5980886,44.9199966],[-93.5981497,44.9200289],[-93.5982373,44.9200673],[-93.5982937,44.920102],[-93.598337,44.920145],[-93.5984178,44.9202586],[-93.5985079,44.9203453],[-93.5985645,44.9204455],[-93.5986167,44.9205072],[-93.5986771,44.9205407],[-93.598749,44.9205578],[-93.5988413,44.9205352],[-93.5988819,44.9204892],[-93.598898,44.9204358],[-93.5988853,44.9203845],[-93.5987755,44.9202196],[-93.598714,44.9201409],[-93.5985687,44.9199935],[-93.5984549,44.919853],[-93.5982965,44.9196686],[-93.5981718,44.9195119],[-93.5980409,44.9193577],[-93.5979147,44.9192015],[-93.5978428,44.9191064],[-93.597731,44.9189445],[-93.5976709,44.9188452],[-93.5976373,44.9187776],[-93.5976114,44.9187081],[-93.5975697,44.9185667],[-93.5974996,44.9183564],[-93.5974791,44.9182677],[-93.5974561,44.9180702],[-93.5974357,44.9179268],[-93.5974287,44.917855],[-93.5974263,44.9177471],[-93.5974307,44.917495],[-93.5974284,44.9173508],[-93.5974246,44.9172788],[-93.5974113,44.9171893],[-93.5973642,44.9170653],[-93.5973563,44.9170127],[-93.5973685,44.9169431],[-93.5973998,44.9168567],[-93.5974991,44.9166499],[-93.5975879,44.9164429],[-93.5976154,44.9163736],[-93.5976436,44.916286],[-93.5976917,44.9160541],[-93.5977166,44.9159661],[-93.5977534,44.9158802],[-93.5978066,44.9157788],[-93.5978399,44.9157107],[-93.5978683,44.9156415],[-93.5979209,44.9155023],[-93.5979584,44.9154164],[-93.5980065,44.9153331],[-93.5980823,44.9152185],[-93.5981166,44.9151512],[-93.5981435,44.9150637],[-93.5981694,44.9149202],[-93.5981919,44.9148317],[-93.5982276,44.9147456],[-93.5983177,44.9145769],[-93.5983561,44.9145103],[-93.5984404,44.9143404],[-93.5984773,44.9142734],[-93.5985372,44.9141741],[-93.5986821,44.913944],[-93.5987601,44.9138111],[-93.598795,44.9137435],[-93.5988934,44.913539],[-93.5989292,44.9134717],[-93.5989684,44.9134053],[-93.5990911,44.9132076],[-93.5993419,44.9127747],[-93.5993856,44.9127098],[-93.5994795,44.912582],[-93.5995237,44.9125173],[-93.5996385,44.9123172],[-93.5997414,44.9121525],[-93.5998062,44.9120547],[-93.5998525,44.9119908],[-93.5999031,44.9119286],[-93.6000718,44.9117485],[-93.6001836,44.9115602],[-93.6002468,44.911462],[-93.6002994,44.9113903],[-93.6004352,44.9112172],[-93.6005245,44.9110871],[-93.6005661,44.9110315],[-93.6006062,44.9109861],[-93.6006742,44.9109272],[-93.6008423,44.9108038],[-93.6009083,44.9107438],[-93.6009707,44.9106759],[-93.6010341,44.9105976],[-93.6011032,44.9105013],[-93.6011367,44.910443],[-93.6012027,44.9103061],[-93.6012329,44.9102568],[-93.6012824,44.9101943],[-93.6013386,44.910134],[-93.6014162,44.9100623],[-93.6014656,44.9100214],[-93.6015172,44.9099819],[-93.6016072,44.9099186],[-93.6018285,44.9097699],[-93.6019288,44.9061277],[-93.5951735,44.90605],[-93.5941887,44.9054405],[-93.5894116,44.905337],[-93.5893268,44.9029721],[-93.5891735,44.9022538],[-93.5891314,44.9019248],[-93.5891031,44.9006941],[-93.5874956,44.9010427],[-93.5874666,44.9051199],[-93.5868047,44.904984],[-93.5860878,44.9047859],[-93.5854162,44.90456],[-93.5848958,44.9043667],[-93.5843369,44.9041135],[-93.5842709,44.9056314],[-93.5842476,44.9062512],[-93.5843096,44.9062957],[-93.5846297,44.9063697],[-93.585117,44.9065572],[-93.585616,44.9066549],[-93.5858648,44.9067317],[-93.585976,44.9067448],[-93.5860919,44.9067262],[-93.5868679,44.9065422],[-93.5872362,44.906485],[-93.5875717,44.9064942],[-93.5876918,44.9065105],[-93.5879277,44.9065239],[-93.588203,44.9065032],[-93.5883361,44.9065372],[-93.5884337,44.9065575],[-93.5886008,44.9065772],[-93.5886879,44.9066212],[-93.5887622,44.9067261],[-93.5888093,44.9067958],[-93.5888169,44.9068805],[-93.5888388,44.9069325],[-93.5889296,44.9071214],[-93.5889772,44.9071971],[-93.589045,44.9072693],[-93.5891025,44.9073173],[-93.5892397,44.9074248],[-93.5892901,44.9074709],[-93.5893412,44.9075274],[-93.5893834,44.9075828],[-93.5894963,44.9077446],[-93.5895712,44.9078594],[-93.5896162,44.9079186],[-93.5896639,44.9079658],[-93.5897719,44.908044],[-93.5898209,44.9080928],[-93.5898662,44.9081587],[-93.589908,44.9082338],[-93.5900395,44.9085077],[-93.5901102,44.9086953],[-93.5901396,44.9087828],[-93.5901594,44.9088623],[-93.5901683,44.9089159],[-93.5901744,44.9089698],[-93.5901801,44.909078],[-93.5901807,44.9092041],[-93.5901669,44.9095912],[-93.5901658,44.9097531],[-93.5901712,44.9098069],[-93.5901915,44.9099368],[-93.5901967,44.9101665],[-93.5902039,44.9102472],[-93.590214,44.9103006],[-93.5902272,44.9103537],[-93.5903586,44.9107921],[-93.5904147,44.9110058],[-93.5904343,44.9111002],[-93.5904339,44.9112071],[-93.5903683,44.9112875],[-93.5902992,44.9113868],[-93.5902693,44.9114362],[-93.5902476,44.9114877],[-93.5902161,44.9116121],[-93.5901868,44.9116613],[-93.5900921,44.9117693],[-93.5900525,44.9118346],[-93.59003,44.9119043],[-93.5899984,44.9120658],[-93.5899452,44.9122787],[-93.5899141,44.9123844],[-93.5898808,44.9124711],[-93.5897687,44.9126922],[-93.5897355,44.9127786],[-93.5897155,44.9128668],[-93.589707,44.9129385],[-93.5897026,44.9130107],[-93.5896938,44.9132994],[-93.5896928,44.9134435],[-93.5896945,44.9136235],[-93.5896991,44.9136958],[-93.5897126,44.9138405],[-93.5897129,44.9139122],[-93.5897063,44.9139654],[-93.5896942,44.9140183],[-93.5896695,44.9140885],[-93.5896377,44.9141576],[-93.5895707,44.9142746],[-93.5895357,44.9143231],[-93.5894943,44.9143692],[-93.5894311,44.9144251],[-93.5893558,44.9144729],[-93.5892698,44.9145126],[-93.5891791,44.9145442],[-93.5889375,44.9145996],[-93.5888243,44.9146411],[-93.5887543,44.9146607],[-93.5886804,44.9146713],[-93.5885788,44.9146784],[-93.5884278,44.9146921],[-93.5883277,44.914703],[-93.5881937,44.9147155],[-93.5881171,44.914744],[-93.5881164,44.9148165],[-93.5881152,44.9148995],[-93.5882501,44.9149734],[-93.5883979,44.9150453],[-93.5884648,44.9150688],[-93.5885368,44.9150822],[-93.5886902,44.9150911],[-93.5888897,44.9151173],[-93.5891255,44.9151559],[-93.5891826,44.9152087],[-93.5890665,44.9153224],[-93.588967,44.9154042],[-93.5889066,44.915462],[-93.5888374,44.9155375],[-93.5887929,44.9156082],[-93.5887189,44.9156705],[-93.5885981,44.9156243],[-93.5885444,44.9155857],[-93.5885052,44.9155358],[-93.5884434,44.9154926],[-93.5883418,44.9155219],[-93.588268,44.9155105],[-93.5881859,44.9154543],[-93.5880831,44.9154485],[-93.5879457,44.9154046],[-93.5878463,44.915405],[-93.5876442,44.9154287],[-93.5874725,44.9154606],[-93.5873732,44.9154747],[-93.5872726,44.9154848],[-93.5871716,44.91549],[-93.5870701,44.9154904],[-93.5869437,44.915483],[-93.586844,44.9154694],[-93.58677,44.9154531],[-93.586706,44.9154247],[-93.5866495,44.9153673],[-93.5866161,44.9153179],[-93.5865512,44.9151998],[-93.5865462,44.9151464],[-93.5865501,44.915002],[-93.5865493,44.9149286],[-93.5865372,44.9148762],[-93.5865006,44.9148309],[-93.5864506,44.9147887],[-93.5864177,44.9147388],[-93.5863794,44.9146955],[-93.586282,44.9146731],[-93.5863369,44.9147623],[-93.586386,44.9148294],[-93.5863973,44.9148842],[-93.5863793,44.9149355],[-93.5861974,44.9150128],[-93.5860715,44.9149861],[-93.5860043,44.9149562],[-93.5859203,44.9149144],[-93.5858406,44.9148692],[-93.5857848,44.9148323],[-93.5856938,44.9147633],[-93.5856439,44.9147159],[-93.58566,44.9146438],[-93.5857601,44.9145954],[-93.5858057,44.9145323],[-93.5857912,44.9144612],[-93.5857496,44.9143949],[-93.5857037,44.9143531],[-93.5855394,44.9142391],[-93.5854605,44.9141688],[-93.58531,44.9140236],[-93.5851707,44.9138943],[-93.5851186,44.9138332],[-93.5850672,44.9137517],[-93.585018,44.9136492],[-93.5849534,44.913493],[-93.5849215,44.9133874],[-93.5848964,44.9133363],[-93.5848207,44.91322],[-93.5847946,44.9131535],[-93.5848245,44.9130856],[-93.584824,44.912997],[-93.5848037,44.9128893],[-93.5847663,44.9127661],[-93.5847278,44.9126992],[-93.5846839,44.9125773],[-93.5846092,44.9123307],[-93.584579,44.91227],[-93.5844564,44.9121659],[-93.5843823,44.9121151],[-93.5842866,44.9120653],[-93.5842025,44.9120375],[-93.5841174,44.9120192],[-93.5840415,44.912008],[-93.583939,44.9119975],[-93.5838129,44.9119892],[-93.5837109,44.9119869],[-93.5836341,44.9119881],[-93.58352,44.911995],[-93.5834455,44.9120032],[-93.5833482,44.9120221],[-93.5832531,44.9120488],[-93.5831614,44.9120808],[-93.5830623,44.9121204],[-93.5829871,44.9121539],[-93.5827746,44.9122529],[-93.5827097,44.9122809],[-93.5826262,44.9123125],[-93.5825499,44.9123342],[-93.5822001,44.9124157],[-93.5821116,44.9124399],[-93.582004,44.9124783],[-93.5813628,44.9127167],[-93.5812739,44.912752],[-93.5812,44.9127775],[-93.5811107,44.9127998],[-93.5809769,44.9128278],[-93.580702,44.9128717],[-93.5797936,44.9128969],[-93.5796053,44.9128947],[-93.5795293,44.9128952],[-93.5794535,44.9128982],[-93.5792517,44.9129133],[-93.5791759,44.9129165],[-93.5790621,44.9129151],[-93.5788596,44.9129059],[-93.578605,44.9128977],[-93.5785038,44.9128983],[-93.5783839,44.9129128],[-93.5781919,44.9129679],[-93.5780305,44.9129988],[-93.5779588,44.9130164],[-93.5777619,44.9130787],[-93.5776609,44.913105],[-93.5774837,44.9131401],[-93.5773823,44.9131653],[-93.5772466,44.913215],[-93.577149,44.9132393],[-93.5770455,44.9132508],[-93.5769692,44.9132543],[-93.5768934,44.9132556],[-93.5766526,44.913253],[-93.5764623,44.913254],[-93.5763866,44.9132515],[-93.5762989,44.913242],[-93.5761874,44.9132248],[-93.5761149,44.9132085],[-93.5760013,44.9131866],[-93.5759397,44.9131603],[-93.5758852,44.9130878],[-93.5758026,44.9130737],[-93.5756711,44.9130909],[-93.5755401,44.9131177],[-93.5754251,44.9131351],[-93.5753321,44.9131197],[-93.5752227,44.913069],[-93.5750809,44.9130094],[-93.5749139,44.9129441],[-93.5748456,44.9129207],[-93.5747376,44.9128904],[-93.5746349,44.9128705],[-93.5745164,44.9128783],[-93.5744482,44.9129084],[-93.574399,44.9129658],[-93.5743646,44.9130448],[-93.5743323,44.9131534],[-93.5742954,44.9132584],[-93.5742651,44.9133596],[-93.5742615,44.9134179],[-93.5742484,44.913508],[-93.5742346,44.9135656],[-93.574207,44.9136296],[-93.5741787,44.9136796],[-93.5740726,44.9138438],[-93.5738839,44.914014],[-93.5738346,44.914055],[-93.5737826,44.9140941],[-93.573716,44.9141358],[-93.5736056,44.9141966],[-93.5734157,44.9142818],[-93.573404,44.9143335],[-93.573498,44.9143908],[-93.5735983,44.9144421],[-93.5736756,44.9144889],[-93.5737649,44.9145528],[-93.5738244,44.9146056],[-93.5738918,44.9146868],[-93.5740769,44.9149434],[-93.5742219,44.9151229],[-93.5744964,44.9154468],[-93.5745966,44.9155484],[-93.5746493,44.915599],[-93.5747197,44.9156566],[-93.5747947,44.9157116],[-93.5748689,44.915761],[-93.5750931,44.9158951],[-93.5752404,44.9159745],[-93.575331,44.9160148],[-93.575398,44.9160386],[-93.5754689,44.9160597],[-93.5755428,44.9160778],[-93.5756185,44.9160922],[-93.5756944,44.9161023],[-93.5757692,44.9161075],[-93.5758503,44.9161026],[-93.5759345,44.9160797],[-93.576062,44.9160311],[-93.5761466,44.9160128],[-93.5762334,44.9159998],[-93.576334,44.9159887],[-93.5764729,44.9159784],[-93.5765487,44.9159756],[-93.5766756,44.9159759],[-93.5768464,44.9159831],[-93.5769782,44.9159966],[-93.5770538,44.9160011],[-93.5771931,44.9160049],[-93.5775351,44.916011],[-93.5778654,44.9160229],[-93.5779791,44.9160305],[-93.5780538,44.9160384],[-93.5781449,44.9160545],[-93.5782208,44.9160767],[-93.5783812,44.9161329],[-93.5789603,44.9163574],[-93.5791035,44.9164151],[-93.5792339,44.9164702],[-93.5792983,44.9164986],[-93.5793844,44.9165441],[-93.5795642,44.9166587],[-93.5796503,44.9167042],[-93.5797689,44.916756],[-93.5798799,44.9167997],[-93.5800593,44.9168673],[-93.5801508,44.9168989],[-93.5803823,44.9169748],[-93.5804495,44.9169996],[-93.5805146,44.9170267],[-93.5805914,44.9170652],[-93.580663,44.9171089],[-93.5807262,44.9171533],[-93.5809021,44.9172846],[-93.5811084,44.9174205],[-93.5811715,44.9174702],[-93.581225,44.9175246],[-93.5812596,44.9175722],[-93.5812977,44.9176395],[-93.5813575,44.917769],[-93.5813828,44.9178386],[-93.58142,44.9179805],[-93.5814524,44.9181507],[-93.5814841,44.9182346],[-93.5815229,44.9182936],[-93.5815867,44.9183773],[-93.5816242,44.9184486],[-93.5816464,44.9185096],[-93.5816669,44.9185804],[-93.5817007,44.9187136],[-93.5817128,44.9187672],[-93.5817221,44.9188209],[-93.5817272,44.9188746],[-93.5817253,44.9189283],[-93.5816963,44.9190919],[-93.5817008,44.919179],[-93.5817111,44.9192324],[-93.5817547,44.9194075],[-93.5817961,44.9195105],[-93.5817984,44.9195624],[-93.581766,44.9196359],[-93.5816853,44.9197581],[-93.5817737,44.9199058],[-93.5818161,44.919971],[-93.5818417,44.9200215],[-93.5818626,44.9200734],[-93.5818803,44.920126],[-93.5819188,44.9202678],[-93.5819432,44.920429],[-93.5819889,44.9206243],[-93.5820272,44.9207658],[-93.5820858,44.9209412],[-93.5821046,44.9210118],[-93.5821183,44.9210831],[-93.5821288,44.921155],[-93.5821348,44.9212271],[-93.5821348,44.921299],[-93.582127,44.9213886],[-93.582116,44.9214601],[-93.582087,44.9216212],[-93.5820743,44.9217108],[-93.582069,44.9217827],[-93.5820642,44.9219449],[-93.5820562,44.9220346],[-93.5820359,44.9221419],[-93.581982,44.9223559],[-93.5819685,44.9224272],[-93.5819604,44.9225163],[-93.5819617,44.9225697],[-93.5819726,44.922641],[-93.5819906,44.9227122],[-93.5820387,44.9228725],[-93.5820584,44.9229615],[-93.5820636,44.9230149],[-93.5820598,44.9231038],[-93.5820424,44.9231926],[-93.5819915,44.9233704],[-93.5819735,44.9234416],[-93.5819027,44.9238165],[-93.5818412,44.9241558],[-93.5817953,44.9244239],[-93.5817616,44.9246565],[-93.5817634,44.9247827],[-93.5817489,44.9248352],[-93.5817081,44.924921],[-93.5816915,44.9250121],[-93.5817161,44.9250666],[-93.581805,44.9250793],[-93.5819068,44.9250788],[-93.5820337,44.9250743],[-93.5821341,44.9250655],[-93.5822079,44.9250522],[-93.5823013,44.9250438],[-93.5824042,44.9250231],[-93.5824976,44.9249973],[-93.5826047,44.9249209],[-93.5826973,44.9248942],[-93.5827607,44.9248655],[-93.58286,44.9248088],[-93.5829432,44.9247678],[-93.5829998,44.9247318],[-93.5830848,44.9246649],[-93.5831329,44.9246228],[-93.5831743,44.9245778],[-93.5832558,44.9244658],[-93.5833187,44.9244088],[-93.5833554,44.9243627],[-93.5833952,44.9242445],[-93.5834762,44.9242276],[-93.5835733,44.9242554],[-93.5836408,44.924301],[-93.5836598,44.9243639],[-93.5836785,44.9244161],[-93.5836838,44.9245232],[-93.5837364,44.9246045],[-93.5837426,44.9246756],[-93.5837655,44.9247457],[-93.5837838,44.924813],[-93.583872,44.9248781],[-93.5839234,44.9249313],[-93.584013,44.9250555],[-93.5841181,44.9251733],[-93.5841466,44.9252419],[-93.5841517,44.9254133],[-93.5841569,44.9254716],[-93.584182,44.9255828],[-93.5842182,44.9256885],[-93.5842471,44.9257481],[-93.5842778,44.9257971],[-93.5843793,44.9259427],[-93.5844774,44.9260703],[-93.5845421,44.9261484],[-93.5846093,44.9262247],[-93.5847272,44.9263347],[-93.5848632,44.9263855],[-93.5850572,44.9264979],[-93.5852117,44.9265714],[-93.5852838,44.9266138],[-93.5853269,44.9266565],[-93.5854389,44.9268599],[-93.5854663,44.9269843],[-93.5854975,44.9270539],[-93.5855427,44.9271099],[-93.5856517,44.9272109],[-93.5857534,44.9273172],[-93.5857996,44.9273605],[-93.5858651,44.9274077],[-93.5859412,44.927445],[-93.5860319,44.927476],[-93.586272,44.9275413],[-93.5864797,44.9276088],[-93.5865498,44.9276295],[-93.5866214,44.9276475],[-93.5867186,44.9276683],[-93.5868293,44.9276881],[-93.5869162,44.9277009],[-93.5870231,44.9277109],[-93.587118,44.9277138],[-93.5872834,44.9277101],[-93.5874112,44.9277221],[-93.5876157,44.9277673],[-93.5877361,44.9277809],[-93.5878396,44.9277784],[-93.5880421,44.9277568],[-93.5881306,44.9277505],[-93.5882246,44.9277521],[-93.5883057,44.9277609],[-93.5884796,44.9277899],[-93.5887654,44.9278312],[-93.5889411,44.9278492],[-93.5890801,44.9278586],[-93.5891938,44.9278602],[-93.5893209,44.9278568],[-93.5894222,44.9278501],[-93.5895406,44.9278361],[-93.5896321,44.9278189],[-93.5900906,44.9277118],[-93.5902246,44.9276848],[-93.590336,44.9276684],[-93.5904362,44.9276569],[-93.5905622,44.9276458],[-93.5906884,44.9276374],[-93.5907642,44.9276359],[-93.5909419,44.9276391],[-93.5918365,44.9276982],[-93.5919242,44.9277079],[-93.5919966,44.9277223],[-93.5920674,44.9277409],[-93.5921721,44.9277732],[-93.5922864,44.9278133],[-93.5924901,44.9278959],[-93.5925956,44.9279542],[-93.5926899,44.9279948],[-93.5928574,44.9280435],[-93.5930155,44.9280993],[-93.593073,44.9281784],[-93.5930242,44.9282851],[-93.593001,44.9283548],[-93.5930184,44.9284278],[-93.5930539,44.9284796],[-93.5930952,44.9285267],[-93.5931964,44.928634],[-93.5946715,44.9268112]]]}}]}