{"type":"FeatureCollection","name":"vadnais_heights_border","features":[{"type":"Feature","properties":{"GNIS_FEATURE_ID":2397106,"FEATURE_NAME":"vadnais_heights","CTU_CLASS":"CITY","COUNTY_GNIS_FEATURE_ID":659507,"COUNTY_CODE":"62","COUNTY_NAME":"Ramsey","POPULATION":13270,"SE_ANNO_CAD_DATA":null},"geometry":{"type":"Polygon","coordinates":[[[-93.056094,45.0793376],[-93.0662979,45.0793635],[-93.0748756,45.0793184],[-93.0867831,45.0792547],[-93.0969628,45.0792589],[-93.1064783,45.0791251],[-93.1063338,45.064777],[-93.1062842,45.0502976],[-93.1062443,45.0432075],[-93.0867784,45.0431502],[-93.0868333,45.0359279],[-93.0665202,45.0359062],[-93.0560469,45.0358479],[-93.0458682,45.0357902],[-93.0365867,45.035762],[-93.0347593,45.0429826],[-93.0357106,45.0429794],[-93.0356945,45.0465973],[-93.0306048,45.0466292],[-93.0306022,45.0502834],[-93.0331025,45.0503011],[-93.0338508,45.0475896],[-93.0369535,45.0475988],[-93.0366374,45.0484884],[-93.0357999,45.0484883],[-93.0358018,45.0495154],[-93.0359434,45.0495405],[-93.0358027,45.0499443],[-93.0358017,45.0503156],[-93.045809,45.0503129],[-93.05115,45.0503234],[-93.0508933,45.05201],[-93.0509017,45.0521748],[-93.0509177,45.0523285],[-93.0509493,45.0524713],[-93.0510197,45.0526633],[-93.0510975,45.0528005],[-93.051191,45.0529266],[-93.0513154,45.0530692],[-93.0514864,45.0532281],[-93.0524889,45.0541762],[-93.0527222,45.0544284],[-93.0529166,45.0546696],[-93.0554748,45.0577306],[-93.0557483,45.0580579],[-93.0500162,45.0619746],[-93.0499864,45.0647276],[-93.0509995,45.0647278],[-93.0509137,45.0720836],[-93.0514534,45.0720866],[-93.0561195,45.0721121],[-93.056094,45.0793376]]]}}]}