{"type":"FeatureCollection","name":"vermillion_border","features":[{"type":"Feature","properties":{"GNIS_FEATURE_ID":2397127,"FEATURE_NAME":"vermillion","CTU_CLASS":"CITY","COUNTY_GNIS_FEATURE_ID":659464,"COUNTY_CODE":"19","COUNTY_NAME":"Dakota","POPULATION":434,"SE_ANNO_CAD_DATA":null},"geometry":{"type":"MultiPolygon","coordinates":[[[[-92.9542089,44.6735475],[-92.9541845,44.6807509],[-92.9744272,44.6808022],[-92.9744416,44.6735627],[-92.9744545,44.6699599],[-92.9735665,44.6699418],[-92.9738052,44.6696968],[-92.9741702,44.6692537],[-92.9743437,44.6689124],[-92.9744596,44.6685612],[-92.9744674,44.6663695],[-92.9542492,44.6662468],[-92.9542089,44.6735475]]],[[[-92.9946725,44.7169425],[-93.0002345,44.7169562],[-93.0150879,44.7171171],[-93.0150401,44.7100059],[-93.0251529,44.7100597],[-93.0250892,44.7063115],[-93.0250523,44.702675],[-93.0347888,44.7027197],[-93.0347665,44.6882566],[-93.0347966,44.6839122],[-93.0348401,44.6738022],[-93.0349236,44.6593083],[-93.0349873,44.6448156],[-93.0350297,44.6303455],[-93.0150418,44.6303043],[-93.0002337,44.6301862],[-92.9947841,44.6302112],[-92.9745664,44.6301281],[-92.9543106,44.6300524],[-92.9340158,44.630105],[-92.9136521,44.6301045],[-92.9137085,44.6444838],[-92.9135954,44.6589454],[-92.9136517,44.6734016],[-92.9136,44.6879181],[-92.9134869,44.7023521],[-92.913466,44.7168685],[-92.9339371,44.7169187],[-92.9540077,44.7168659],[-92.9742862,44.7168318],[-92.9946725,44.7169425]],[[-92.9744674,44.6663695],[-92.9744596,44.6685612],[-92.9743437,44.6689124],[-92.9741702,44.6692537],[-92.9738052,44.6696968],[-92.9735665,44.6699418],[-92.9744545,44.6699599],[-92.9744416,44.6735627],[-92.9744272,44.6808022],[-92.9541845,44.6807509],[-92.9542089,44.6735475],[-92.9542492,44.6662468],[-92.9744674,44.6663695]]],[[[-93.0291621,44.7063326],[-93.0293534,44.7063335],[-93.0283256,44.7045436],[-93.0291621,44.7063326]]],[[[-93.0302907,44.7063386],[-93.0305312,44.7063399],[-93.029127,44.7043138],[-93.0302907,44.7063386]]]]}}]}