{"type":"FeatureCollection","name":"wayzata_border","features":[{"type":"Feature","properties":{"GNIS_FEATURE_ID":2397235,"FEATURE_NAME":"wayzata","CTU_CLASS":"CITY","COUNTY_GNIS_FEATURE_ID":659472,"COUNTY_CODE":"27","COUNTY_NAME":"Hennepin","POPULATION":4437,"SE_ANNO_CAD_DATA":null},"geometry":{"type":"MultiPolygon","coordinates":[[[[-93.5481136,44.9760278],[-93.5481094,44.9745155],[-93.5429966,44.9744638],[-93.5429868,44.9665728],[-93.5442777,44.966572],[-93.542986,44.9656127],[-93.5429857,44.9652441],[-93.5439101,44.9652451],[-93.5439088,44.9639663],[-93.543746,44.9639042],[-93.5435977,44.9638769],[-93.5429556,44.9637507],[-93.5420931,44.9636829],[-93.5419919,44.9636792],[-93.5419169,44.9636826],[-93.5418182,44.9636959],[-93.5416963,44.9637221],[-93.5415275,44.9637637],[-93.5414567,44.9637836],[-93.541389,44.9638082],[-93.5412606,44.9638669],[-93.5411669,44.9638938],[-93.5410665,44.9639075],[-93.5409408,44.9639051],[-93.5407893,44.9638944],[-93.5406379,44.9638788],[-93.5404878,44.9638596],[-93.5403886,44.9638445],[-93.5402898,44.9638275],[-93.5398962,44.9637538],[-93.5397481,44.9637307],[-93.5396238,44.9637171],[-93.5395231,44.963717],[-93.5393197,44.9637315],[-93.5390395,44.9637389],[-93.5389382,44.9637374],[-93.538863,44.963732],[-93.5387386,44.9637169],[-93.5385898,44.9636933],[-93.5384423,44.9636648],[-93.5383451,44.9636432],[-93.5382491,44.96362],[-93.5381075,44.9635813],[-93.5379218,44.9635232],[-93.5375547,44.9633995],[-93.5370542,44.9632242],[-93.5368709,44.9631628],[-93.5367776,44.9631344],[-93.5364918,44.9630593],[-93.5363987,44.9630311],[-93.536262,44.9629834],[-93.5361719,44.9629493],[-93.5360628,44.9629029],[-93.5359598,44.9628509],[-93.5358803,44.9628063],[-93.5357617,44.9627378],[-93.5356836,44.9626909],[-93.5355698,44.962618],[-93.5354969,44.9625676],[-93.5353934,44.9624888],[-93.5353293,44.9624337],[-93.5352685,44.9623767],[-93.5351823,44.9622882],[-93.5351009,44.9621968],[-93.534998,44.9620719],[-93.534753,44.9617553],[-93.5346845,44.9616585],[-93.5346213,44.9615599],[-93.5345649,44.9614596],[-93.5344811,44.9612887],[-93.5344349,44.9611842],[-93.5343967,44.961079],[-93.5343739,44.9609911],[-93.5343635,44.9609208],[-93.5343661,44.9608501],[-93.5343765,44.9607967],[-93.5343988,44.9607254],[-93.534478,44.9605146],[-93.534521,44.960411],[-93.534627,44.9601702],[-93.5346825,44.9600317],[-93.5347184,44.9599264],[-93.5347409,44.9598375],[-93.534753,44.9597482],[-93.5347567,44.9596563],[-93.5347485,44.9595836],[-93.5347226,44.9595155],[-93.5346918,44.9594676],[-93.5346398,44.9594063],[-93.5345203,44.9592873],[-93.5344626,44.9592273],[-93.5334319,44.9584677],[-93.5329781,44.9581281],[-93.5327451,44.9579501],[-93.5324972,44.9577573],[-93.5322943,44.9575961],[-93.5320941,44.9574332],[-93.5318167,44.957199],[-93.5317209,44.9571153],[-93.5316276,44.9570301],[-93.5314695,44.956878],[-93.5310728,44.9564815],[-93.531012,44.9563504],[-93.5308657,44.9560593],[-93.5308007,44.9559222],[-93.530746,44.9558478],[-93.5309142,44.9565414],[-93.5309663,44.9566715],[-93.5310127,44.9568327],[-93.5310252,44.956887],[-93.53103,44.9569451],[-93.5310231,44.9569974],[-93.5309977,44.9570805],[-93.5309705,44.9571518],[-93.5309462,44.957205],[-93.5309182,44.9572571],[-93.5308743,44.9573236],[-93.530823,44.9573854],[-93.5307666,44.9574371],[-93.5307139,44.9574737],[-93.5306389,44.9575143],[-93.5305507,44.957553],[-93.5303652,44.9576252],[-93.5302976,44.9576535],[-93.5302337,44.9576838],[-93.5301751,44.9577172],[-93.5301123,44.9577648],[-93.5300387,44.9578401],[-93.5299819,44.9579088],[-93.5299355,44.9579726],[-93.5298925,44.9580384],[-93.5298526,44.9581058],[-93.5298155,44.9581745],[-93.5297809,44.958244],[-93.5297406,44.9583314],[-93.5296955,44.9584359],[-93.5296573,44.9585307],[-93.5296324,44.9586092],[-93.5296078,44.9587155],[-93.5295924,44.9588051],[-93.5295589,44.9590394],[-93.5295325,44.9591688],[-93.529491,44.9592867],[-93.5294415,44.9593743],[-93.5293886,44.9594302],[-93.5292874,44.9595227],[-93.5291691,44.9596167],[-93.528863,44.9598542],[-93.5286511,44.9600102],[-93.5285702,44.960079],[-93.5285144,44.9601387],[-93.5283738,44.9603317],[-93.5283207,44.9603926],[-93.5282751,44.9604352],[-93.5281889,44.9605018],[-93.5280943,44.9605631],[-93.5279937,44.960618],[-93.5278826,44.960668],[-93.5278113,44.9606925],[-93.5277183,44.9607141],[-93.5276477,44.9607046],[-93.527609,44.9606343],[-93.5276643,44.9605625],[-93.527721,44.9605224],[-93.5278264,44.960453],[-93.5278355,44.9603706],[-93.5277551,44.9603263],[-93.5276611,44.9603529],[-93.5276064,44.9603896],[-93.5274863,44.9604842],[-93.5274115,44.9605323],[-93.5273251,44.9605696],[-93.5272551,44.9605921],[-93.5271604,44.9606182],[-93.5270155,44.9606536],[-93.5266745,44.9607318],[-93.5265795,44.9607565],[-93.5264868,44.9607837],[-93.5263754,44.9608234],[-93.5262918,44.9608682],[-93.5262228,44.9609255],[-93.5261796,44.9609889],[-93.5261654,44.9610565],[-93.5261673,44.9611103],[-93.52619,44.9612585],[-93.5261966,44.9614032],[-93.5262045,44.9615122],[-93.526241,44.9618769],[-93.526253,44.9620225],[-93.5262583,44.9621311],[-93.5262594,44.9622391],[-93.5262548,44.9623462],[-93.5262481,44.962417],[-93.5262317,44.9625223],[-93.526216,44.9625917],[-93.5261959,44.9626606],[-93.5261707,44.9627288],[-93.526141,44.9627965],[-93.5260887,44.9628971],[-93.5260493,44.9629635],[-93.5259847,44.9630623],[-93.5258904,44.9631924],[-93.5257899,44.9633209],[-93.5254842,44.9636987],[-93.5253538,44.9638538],[-93.5252178,44.964007],[-93.5251046,44.9641274],[-93.5249574,44.9642747],[-93.524835,44.9643892],[-93.5247403,44.9644729],[-93.5246572,44.9645396],[-93.5245828,44.9645876],[-93.5244816,44.9646422],[-93.5242274,44.9647661],[-93.5241474,44.9648107],[-93.5240916,44.9648469],[-93.5239727,44.9649395],[-93.5238454,44.9650509],[-93.5237234,44.9651662],[-93.5234248,44.9654589],[-93.5233325,44.9655449],[-93.5232368,44.9656289],[-93.5231366,44.9657099],[-93.523032,44.9657883],[-93.5226277,44.966079],[-93.5225656,44.9661587],[-93.5224557,44.9663234],[-93.5224063,44.966386],[-93.5223467,44.9664452],[-93.5222623,44.9665006],[-93.5220803,44.9665803],[-93.5219898,44.9666324],[-93.5219153,44.9667003],[-93.5218757,44.9667459],[-93.521833,44.9668014],[-93.5217151,44.9669631],[-93.5216585,44.9670284],[-93.5215265,44.9671549],[-93.5214159,44.9672537],[-93.5210415,44.9675729],[-93.5209131,44.9676844],[-93.5207963,44.9677904],[-93.5206898,44.9679078],[-93.5206562,44.9680049],[-93.5205897,44.9681066],[-93.5205222,44.9681608],[-93.5204506,44.9682115],[-93.5203688,44.9682538],[-93.5201113,44.9683697],[-93.5200231,44.9684051],[-93.5199306,44.9684348],[-93.5198366,44.9684624],[-93.5197474,44.9684959],[-93.5196679,44.9685411],[-93.5195966,44.9685939],[-93.5195282,44.9686497],[-93.5194526,44.9686961],[-93.5193635,44.9687261],[-93.5192674,44.9687498],[-93.5191672,44.9687681],[-93.5190654,44.9687814],[-93.5189642,44.9687898],[-93.518865,44.9687891],[-93.5187655,44.9687733],[-93.5186656,44.9687545],[-93.5185648,44.9687439],[-93.5184608,44.9687364],[-93.5183586,44.9687367],[-93.5182637,44.9687537],[-93.5181735,44.9687883],[-93.5180891,44.9688325],[-93.5180143,44.9688801],[-93.5180642,44.9689179],[-93.5182717,44.9688979],[-93.5184844,44.9688863],[-93.5185807,44.9688932],[-93.5186465,44.9689416],[-93.5186564,44.9690151],[-93.5185786,44.9690655],[-93.5184902,44.9691014],[-93.5183942,44.9691249],[-93.5182967,44.9691449],[-93.5180019,44.9692009],[-93.5179045,44.9692212],[-93.5178085,44.969244],[-93.5177144,44.9692701],[-93.5176222,44.9693004],[-93.5175315,44.969334],[-93.5172635,44.969442],[-93.5171736,44.969476],[-93.5170825,44.9695069],[-93.5169897,44.9695334],[-93.5168945,44.9695542],[-93.5167969,44.969569],[-93.5166973,44.9695787],[-93.5165961,44.9695844],[-93.5164938,44.9695871],[-93.5161854,44.9695884],[-93.5160836,44.96959],[-93.5158796,44.9695964],[-93.5157775,44.9695978],[-93.515676,44.9695955],[-93.5155757,44.9695877],[-93.5154767,44.969574],[-93.5152795,44.9695426],[-93.5150829,44.9695077],[-93.514789,44.9694508],[-93.5141051,44.9693111],[-93.5140092,44.9692881],[-93.513916,44.9692596],[-93.5129731,44.9689939],[-93.5125028,44.9688588],[-93.5119326,44.9687026],[-93.511746,44.968646],[-93.5116544,44.9686155],[-93.5115642,44.9685833],[-93.5114757,44.9685489],[-93.5113008,44.9684762],[-93.5110395,44.9683617],[-93.5108681,44.9682814],[-93.5107837,44.96824],[-93.5106185,44.9681545],[-93.5105381,44.9681103],[-93.5103822,44.9680189],[-93.5103072,44.9679717],[-93.5102344,44.9679234],[-93.5101651,44.9678727],[-93.5101023,44.9678168],[-93.5100454,44.9677566],[-93.5099939,44.9676931],[-93.5099472,44.9676271],[-93.5099048,44.9675598],[-93.5098662,44.9674919],[-93.5098307,44.9674244],[-93.5098048,44.9673551],[-93.5097959,44.9672802],[-93.5097958,44.9671263],[-93.5097872,44.967054],[-93.5097613,44.9669893],[-93.5097107,44.9669351],[-93.5096404,44.9668905],[-93.5095563,44.9668526],[-93.5094631,44.9668189],[-93.5092689,44.9667535],[-93.5091773,44.9667166],[-93.5090959,44.9666733],[-93.5090234,44.9666242],[-93.5089554,44.9665714],[-93.5088905,44.966516],[-93.5087037,44.9663435],[-93.5086399,44.966287],[-93.5081711,44.965904],[-93.508035,44.965796],[-93.5079658,44.9657431],[-93.5078244,44.9656408],[-93.5077518,44.9655917],[-93.5076778,44.9655442],[-93.5076,44.9654999],[-93.5075104,44.9654654],[-93.5074123,44.9654402],[-93.5073105,44.9654232],[-93.5072096,44.9654132],[-93.5071098,44.9654086],[-93.5070092,44.9654082],[-93.5069078,44.9654109],[-93.5066018,44.9654264],[-93.5064999,44.9654304],[-93.5063983,44.9654322],[-93.505688,44.9654392],[-93.5051807,44.96544],[-93.5048767,44.9654366],[-93.504775,44.9654327],[-93.5046717,44.9654212],[-93.5044658,44.9653923],[-93.5043661,44.9653849],[-93.5042705,44.9653887],[-93.5041833,44.9654135],[-93.5041054,44.9654606],[-93.5040301,44.9655153],[-93.5039501,44.9655627],[-93.5038628,44.9656013],[-93.5037707,44.9656333],[-93.5036734,44.96565],[-93.5034565,44.9656359],[-93.5033853,44.9656593],[-93.5033718,44.9657325],[-93.503368,44.9658118],[-93.503355,44.9659604],[-93.5033062,44.9660216],[-93.5032844,44.9658519],[-93.5032501,44.9657972],[-93.5031716,44.9657731],[-93.5030794,44.9657587],[-93.5029774,44.9657511],[-93.5027591,44.9657443],[-93.5026505,44.9657391],[-93.5025473,44.9657286],[-93.5024497,44.965709],[-93.5022582,44.965658],[-93.5021604,44.9656413],[-93.5020602,44.965635],[-93.501959,44.9656336],[-93.5016529,44.9656396],[-93.5015514,44.9656388],[-93.5014507,44.9656335],[-93.5013506,44.9656228],[-93.501251,44.9656074],[-93.5011525,44.9655884],[-93.5010556,44.9655664],[-93.5009611,44.9655412],[-93.5008701,44.9655096],[-93.5006907,44.965441],[-93.5005981,44.9654117],[-93.5005028,44.9653866],[-93.5004048,44.9653694],[-93.5002164,44.9653268],[-93.4999603,44.9651871],[-93.4996525,44.9649659],[-93.4993129,44.9648325],[-93.4990047,44.9646552],[-93.4987586,44.9644563],[-93.4985451,44.9640816],[-93.498455,44.9637513],[-93.4984567,44.9635534],[-93.4983057,44.963113],[-93.4982469,44.962739],[-93.498156,44.9625186],[-93.4981585,44.9622328],[-93.4982221,44.9620352],[-93.4984127,44.9614863],[-93.4986038,44.9608715],[-93.4986364,44.9606737],[-93.4985455,44.9604534],[-93.4985785,44.9602117],[-93.498706,44.9597945],[-93.4989576,44.9593558],[-93.4990837,44.9590925],[-93.4993038,44.9587196],[-93.4995542,44.9584128],[-93.4998351,44.9581502],[-93.5000218,44.9580411],[-93.5002085,44.9579539],[-93.500334,44.9577566],[-93.5004289,44.9575151],[-93.5005553,44.9572298],[-93.5009288,44.9570115],[-93.5013341,44.9567055],[-93.5014902,44.9565522],[-93.5014929,44.9562444],[-93.501247,44.9560234],[-93.500909,44.9557141],[-93.500602,44.9554049],[-93.5004804,44.9551405],[-93.500451,44.9549425],[-93.5004228,44.9546346],[-93.5003327,44.9543043],[-93.5002116,44.9539959],[-93.4999663,44.953709],[-93.4997525,44.9533563],[-93.4996,44.9530917],[-93.4996027,44.952784],[-93.4994822,44.9523876],[-93.4992086,44.9517928],[-93.4991201,44.9512866],[-93.4990308,44.9508684],[-93.4989392,44.9507141],[-93.4988779,44.9506479],[-93.4988163,44.9506036],[-93.4985685,44.9506025],[-93.4983516,44.9506236],[-93.4981653,44.9506887],[-93.4981025,44.9507764],[-93.4981006,44.9509963],[-93.4981607,44.9512164],[-93.4981899,44.9514145],[-93.4982493,44.9517226],[-93.4983406,44.9518989],[-93.4983381,44.9521847],[-93.4984276,44.952581],[-93.4985492,44.9528454],[-93.4987019,44.9530878],[-93.498917,44.9532867],[-93.4990386,44.9535512],[-93.4991296,44.9537714],[-93.4993142,44.9539041],[-93.4995597,44.954169],[-93.4995892,44.954345],[-93.4996488,44.9546092],[-93.4996158,44.9548509],[-93.4996445,44.9551149],[-93.4995814,44.9552466],[-93.4995177,44.9554442],[-93.4993618,44.9555755],[-93.4992671,44.9557729],[-93.499049,44.9559259],[-93.4988929,44.9560792],[-93.4986746,44.9562541],[-93.4984251,44.9564509],[-93.4982377,44.956648],[-93.4979565,44.9569327],[-93.4977386,44.9570636],[-93.497521,44.9571506],[-93.4973038,44.9571937],[-93.4970554,44.9572806],[-93.4969304,44.9574119],[-93.4967121,44.9575869],[-93.4965876,44.9576523],[-93.4963395,44.9576952],[-93.4960296,44.9577158],[-93.4958442,44.957671],[-93.4955665,44.9575599],[-93.4953808,44.9575371],[-93.4950715,44.9574918],[-93.4948236,44.9575126],[-93.4945137,44.9575333],[-93.4943277,44.9575545],[-93.4939246,44.9576186],[-93.4936145,44.9576613],[-93.493335,44.957748],[-93.4929932,44.9578784],[-93.4928061,44.9580315],[-93.492557,44.9581843],[-93.4923077,44.9583592],[-93.4919976,44.958431],[-93.4919804,44.9641036],[-93.4892007,44.9640911],[-93.4891862,44.9657315],[-93.488774,44.9657398],[-93.4887594,44.9673918],[-93.4867461,44.9673828],[-93.4867288,44.9658436],[-93.4767638,44.9657865],[-93.4767171,44.9713096],[-93.4817756,44.9713145],[-93.4816938,44.9741069],[-93.4829594,44.9740968],[-93.4833946,44.9740933],[-93.4834332,44.9727768],[-93.4834844,44.9727763],[-93.4834918,44.9725241],[-93.4834406,44.9725246],[-93.4834726,44.971431],[-93.4831861,44.9714377],[-93.4831845,44.9713006],[-93.4852831,44.9712799],[-93.48527,44.9717313],[-93.4852441,44.9727446],[-93.4864271,44.9727329],[-93.4874588,44.9746526],[-93.485177,44.9762472],[-93.4877257,44.9781762],[-93.4899263,44.9767136],[-93.4913928,44.9744178],[-93.4941144,44.9749356],[-93.4938805,44.9768915],[-93.4944053,44.9784694],[-93.5002104,44.9784349],[-93.502171,44.9783962],[-93.5021631,44.9819684],[-93.5085891,44.9782348],[-93.5104997,44.9782112],[-93.510686,44.979281],[-93.511351,44.9800403],[-93.5119313,44.9799887],[-93.511962,44.9817825],[-93.5226504,44.9816004],[-93.5226152,44.9780303],[-93.5249579,44.9780387],[-93.5257086,44.9777557],[-93.5261052,44.977567],[-93.5264968,44.9773656],[-93.5264847,44.9780397],[-93.5428714,44.9780773],[-93.5428795,44.9784543],[-93.5431075,44.9785584],[-93.5434805,44.9787424],[-93.5438172,44.9789295],[-93.5441764,44.9791385],[-93.5479953,44.9791535],[-93.5479969,44.9789398],[-93.5461924,44.9781142],[-93.5429993,44.976487],[-93.5429983,44.9759802],[-93.5481136,44.9760278]]],[[[-93.5308462,44.9551538],[-93.5308534,44.9550762],[-93.5308355,44.9549943],[-93.5307929,44.9548805],[-93.5307351,44.9547518],[-93.5307167,44.9546901],[-93.530706,44.9546141],[-93.5307098,44.9545272],[-93.5307123,44.9544514],[-93.5306361,44.9544315],[-93.5305667,44.9544496],[-93.5304887,44.9544973],[-93.5303709,44.9545563],[-93.5303228,44.9546234],[-93.5303105,44.9546786],[-93.530312,44.9547617],[-93.5303364,44.9548665],[-93.530359,44.9549369],[-93.5303845,44.9549973],[-93.5304216,44.9550642],[-93.5305309,44.9552372],[-93.5305575,44.9552876],[-93.530578,44.9553392],[-93.5305912,44.9553922],[-93.5306133,44.9555179],[-93.5306726,44.9556038],[-93.5307113,44.9555153],[-93.5307653,44.9553911],[-93.5308094,44.9552688],[-93.5308462,44.9551538]]]]}}]}