{"type":"FeatureCollection","name":"west_saint_paul_border","features":[{"type":"Feature","properties":{"GNIS_FEATURE_ID":2397275,"FEATURE_NAME":"west_saint_paul","CTU_CLASS":"CITY","COUNTY_GNIS_FEATURE_ID":659464,"COUNTY_CODE":"19","COUNTY_NAME":"Dakota","POPULATION":21169,"SE_ANNO_CAD_DATA":null},"geometry":{"type":"Polygon","coordinates":[[[-93.0652876,44.919529],[-93.0857886,44.9196271],[-93.090933,44.9196416],[-93.0909565,44.9233066],[-93.0960237,44.9232724],[-93.0960148,44.9196558],[-93.1059497,44.9196826],[-93.1059466,44.9053102],[-93.1058948,44.8908268],[-93.1059428,44.8835964],[-93.0950501,44.883607],[-93.0857402,44.8836084],[-93.0805493,44.8835921],[-93.0703913,44.8835588],[-93.0695981,44.8835396],[-93.0692915,44.8835397],[-93.0690692,44.8835461],[-93.068866,44.8835554],[-93.0686779,44.8835783],[-93.0684966,44.883645],[-93.0682806,44.8837413],[-93.0680681,44.8838458],[-93.0677907,44.8839444],[-93.0667238,44.8842899],[-93.0664584,44.884353],[-93.066224,44.8843974],[-93.065978,44.884439],[-93.0652907,44.8845326],[-93.0652941,44.8907478],[-93.0653641,44.905142],[-93.0652876,44.919529]]]}}]}