{"type":"FeatureCollection","name":"white_bear lake_border","features":[{"type":"Feature","properties":{"GNIS_FEATURE_ID":2397299,"FEATURE_NAME":"white_bear lake","CTU_CLASS":"CITY","COUNTY_GNIS_FEATURE_ID":659507,"COUNTY_CODE":"62","COUNTY_NAME":"Ramsey","POPULATION":24315,"SE_ANNO_CAD_DATA":null},"geometry":{"type":"MultiPolygon","coordinates":[[[[-93.0258323,45.0720688],[-93.0300951,45.069549],[-93.0304694,45.0694325],[-93.0304921,45.0678618],[-93.0292028,45.0684547],[-93.0286317,45.0681281],[-93.0288414,45.0675492],[-93.0281245,45.0674566],[-93.0283442,45.0668087],[-93.0308423,45.0576387],[-93.0311484,45.0576406],[-93.0331025,45.0503011],[-93.0306022,45.0502834],[-93.0306048,45.0466292],[-93.0356945,45.0465973],[-93.0357106,45.0429794],[-93.0347593,45.0429826],[-93.0343458,45.0429839],[-93.0359063,45.0368173],[-93.0337604,45.0367548],[-93.0322517,45.0365155],[-93.0318661,45.0365801],[-93.0295329,45.0365378],[-93.0287391,45.0367202],[-93.0252676,45.0367156],[-93.0213715,45.03675],[-93.018032,45.0363849],[-93.0180012,45.0357397],[-93.0171524,45.0357412],[-93.0172186,45.0363914],[-93.0136574,45.0367785],[-93.0099528,45.0367199],[-93.0057256,45.0363035],[-93.0057346,45.0357599],[-93.0051352,45.0357608],[-93.0045356,45.0357613],[-93.004525,45.0362365],[-93.0023283,45.0360076],[-93.0017937,45.0359101],[-93.0010446,45.0358991],[-93.0008767,45.0357877],[-93.0004665,45.0357713],[-93.0001306,45.035695],[-92.9998484,45.0356283],[-92.9994185,45.0355235],[-92.9989079,45.0354283],[-92.9987122,45.0354056],[-92.9983046,45.0353585],[-92.9978872,45.0353177],[-92.9968688,45.035213],[-92.9965594,45.0351595],[-92.9962247,45.0351339],[-92.9959332,45.0350727],[-92.9956418,45.0349834],[-92.995009,45.0347098],[-92.9947294,45.0352632],[-92.9902406,45.0347066],[-92.9892176,45.034563],[-92.9874375,45.0341731],[-92.9872289,45.034111],[-92.9868908,45.0339372],[-92.9861018,45.033497],[-92.9858048,45.0333595],[-92.9852559,45.0331636],[-92.9850677,45.0331132],[-92.9848548,45.0330685],[-92.9846851,45.0330721],[-92.9847709,45.0354113],[-92.9847708,45.0357859],[-92.9847623,45.0503441],[-92.9847519,45.0523351],[-92.9846983,45.0539175],[-92.984697,45.0575873],[-92.984696,45.0602264],[-92.9852343,45.0602354],[-92.9852229,45.0596653],[-92.9854359,45.0589784],[-92.9856138,45.058978],[-92.9859265,45.0591614],[-92.9859685,45.0591164],[-92.9864515,45.0587462],[-92.9865428,45.0587806],[-92.9869748,45.0588815],[-92.9905253,45.0588621],[-92.9909209,45.0590588],[-92.9911772,45.0592504],[-92.9915733,45.058971],[-92.9912762,45.0587828],[-92.991362,45.0586948],[-92.9917676,45.058698],[-92.9921115,45.0587534],[-92.9921079,45.0589717],[-92.9945253,45.0590008],[-92.9945396,45.0558484],[-92.9948509,45.0558371],[-92.9948677,45.0629647],[-92.9932629,45.0630399],[-92.9932645,45.0647707],[-92.9963049,45.0647535],[-92.9963123,45.0663194],[-92.9973434,45.066322],[-92.9973449,45.0669056],[-92.9963155,45.0669029],[-92.9963209,45.0676892],[-92.9960112,45.0676876],[-92.9960302,45.0711734],[-92.9961272,45.0711881],[-92.9962123,45.0712018],[-92.9963224,45.0712156],[-92.9964316,45.0712176],[-92.9965307,45.0712077],[-92.9966234,45.0711935],[-92.9966974,45.0711795],[-92.9967711,45.0711637],[-92.9968444,45.0711467],[-92.9969173,45.0711291],[-92.9969897,45.0711114],[-92.9970793,45.0710886],[-92.9971827,45.07106],[-92.9972854,45.0710298],[-92.9973556,45.0710086],[-92.9974345,45.0709845],[-92.9975311,45.0709555],[-92.9976017,45.0709351],[-92.9976845,45.0709121],[-92.9977555,45.0708921],[-92.9978265,45.0708719],[-92.9979064,45.0708493],[-92.9980044,45.0708223],[-92.998109,45.0707955],[-92.9982145,45.0707713],[-92.998312,45.0707526],[-92.9984209,45.0707391],[-92.9985317,45.0707312],[-92.9986081,45.0707271],[-92.9986845,45.0707225],[-92.9987603,45.0707161],[-92.9988479,45.0707054],[-92.9989228,45.0706952],[-92.9989978,45.0706845],[-92.9990727,45.0706733],[-92.9991472,45.0706613],[-92.9992215,45.0706486],[-92.9993135,45.0706312],[-92.9994105,45.0706107],[-92.9994993,45.0705871],[-92.9995676,45.0705627],[-92.9996416,45.0705311],[-92.9997637,45.0704735],[-92.9998342,45.0704376],[-92.9998936,45.0704033],[-92.99996,45.0703557],[-93.0000154,45.0703015],[-93.0000532,45.0702538],[-93.0000933,45.070199],[-93.0001555,45.0701236],[-93.0002163,45.0700964],[-93.0003299,45.0700688],[-93.0003887,45.0700343],[-93.0004345,45.069991],[-93.0004747,45.0699257],[-93.0005051,45.0698564],[-93.0005377,45.0697879],[-93.0005628,45.0697368],[-93.0005881,45.0696858],[-93.000624,45.0696185],[-93.0006635,45.069552],[-93.0006933,45.0695013],[-93.0007241,45.0694508],[-93.00077,45.0693862],[-93.0008259,45.0693276],[-93.0008947,45.0692759],[-93.0009743,45.0692299],[-93.0010611,45.0691899],[-93.0011514,45.069156],[-93.0012432,45.0691261],[-93.0013368,45.0690978],[-93.0014317,45.0690713],[-93.0015278,45.0690465],[-93.0016248,45.0690237],[-93.0017225,45.0690029],[-93.0018205,45.0689842],[-93.0019191,45.0689676],[-93.0020187,45.0689526],[-93.0021192,45.0689393],[-93.002195,45.0689307],[-93.002271,45.0689234],[-93.0023725,45.0689155],[-93.0024739,45.0689101],[-93.0025749,45.0689073],[-93.0026764,45.0689074],[-93.0027794,45.0689108],[-93.0028824,45.0689183],[-93.0029839,45.0689304],[-93.0030825,45.0689477],[-93.0031769,45.0689709],[-93.0032685,45.0690006],[-93.003358,45.0690364],[-93.003423,45.0690666],[-93.0034853,45.0690997],[-93.0035638,45.0691469],[-93.0036356,45.0691973],[-93.0037004,45.0692514],[-93.0037598,45.0693093],[-93.0038156,45.0693697],[-93.0038695,45.0694315],[-93.0039233,45.0694935],[-93.0039788,45.0695545],[-93.0040378,45.0696134],[-93.0041001,45.0696704],[-93.0041632,45.0697277],[-93.0042274,45.0697846],[-93.0042934,45.0698403],[-93.0043619,45.0698939],[-93.0044338,45.0699445],[-93.0045097,45.0699911],[-93.0045902,45.0700336],[-93.0046747,45.0700727],[-93.0047625,45.0701091],[-93.0048529,45.0701431],[-93.0049451,45.0701751],[-93.0050384,45.0702055],[-93.0051321,45.0702347],[-93.0052256,45.070263],[-93.0053196,45.0702898],[-93.005415,45.0703147],[-93.0055114,45.0703379],[-93.0056087,45.0703595],[-93.0057065,45.0703798],[-93.0058047,45.0703989],[-93.005903,45.070417],[-93.0060016,45.0704342],[-93.0061006,45.0704506],[-93.0062001,45.070466],[-93.0062998,45.0704804],[-93.0063999,45.0704937],[-93.0065003,45.0705057],[-93.0066007,45.0705165],[-93.0067014,45.0705259],[-93.0068023,45.0705344],[-93.0069036,45.0705425],[-93.0070051,45.0705498],[-93.0070814,45.0705547],[-93.0071577,45.070559],[-93.0072595,45.0705636],[-93.0073611,45.0705668],[-93.0074626,45.0705684],[-93.0075638,45.0705681],[-93.0076645,45.0705651],[-93.0077647,45.070556],[-93.0078644,45.0705418],[-93.0079637,45.0705247],[-93.0080382,45.0705112],[-93.0081127,45.0704984],[-93.0082122,45.0704831],[-93.0083116,45.0704683],[-93.008411,45.0704532],[-93.0085103,45.070438],[-93.0085849,45.0704267],[-93.0085457,45.0756963],[-93.0161543,45.0757621],[-93.0161557,45.0758249],[-93.0161555,45.0758789],[-93.0161518,45.0759508],[-93.016147,45.0760227],[-93.0161432,45.0760767],[-93.0161392,45.0761306],[-93.0161339,45.0762026],[-93.0161287,45.0762745],[-93.0161242,45.0763464],[-93.0161205,45.0764184],[-93.0161179,45.0764904],[-93.0161173,45.0765625],[-93.0161182,45.0766348],[-93.0161202,45.0767071],[-93.0161219,45.0767614],[-93.0161237,45.0768156],[-93.0161257,45.0768879],[-93.0161267,45.0769601],[-93.0161262,45.0770321],[-93.0161235,45.0771039],[-93.0161181,45.0771755],[-93.0161094,45.0772468],[-93.0160971,45.0773179],[-93.0160812,45.0773893],[-93.0160617,45.0774607],[-93.016045,45.0775141],[-93.0160261,45.0775672],[-93.0159982,45.0776372],[-93.015967,45.0777062],[-93.0159325,45.0777737],[-93.0158948,45.0778395],[-93.0158488,45.0779033],[-93.0157898,45.0779638],[-93.0157389,45.0780061],[-93.0156828,45.0780443],[-93.0156033,45.0780883],[-93.0155178,45.0781242],[-93.0154261,45.0781541],[-93.0153304,45.0781801],[-93.0152329,45.0782042],[-93.0151355,45.0782285],[-93.0150403,45.0782546],[-93.0149452,45.0782805],[-93.0148734,45.0782991],[-93.0148014,45.0783175],[-93.0147057,45.0783423],[-93.0146107,45.0783682],[-93.0145171,45.0783959],[-93.0144254,45.0784263],[-93.0143361,45.0784601],[-93.0142489,45.0784966],[-93.0141633,45.0785353],[-93.0140788,45.0785756],[-93.013995,45.0786168],[-93.0139115,45.0786583],[-93.0138279,45.0786995],[-93.0137438,45.0787401],[-93.0136598,45.0787805],[-93.0135759,45.0788212],[-93.0134921,45.078862],[-93.0134085,45.078903],[-93.013325,45.078944],[-93.0132416,45.0789851],[-93.0131582,45.0790263],[-93.0130748,45.0790675],[-93.0129914,45.0791087],[-93.0129078,45.0791497],[-93.012824,45.0791905],[-93.01274,45.0792311],[-93.012677,45.0792615],[-93.0126138,45.0792919],[-93.0125298,45.0793324],[-93.0124457,45.0793731],[-93.0123619,45.0794139],[-93.0122783,45.0794549],[-93.0121951,45.0794962],[-93.0121123,45.0795379],[-93.0120299,45.07958],[-93.0119481,45.0796227],[-93.0118669,45.0796659],[-93.0117868,45.0797101],[-93.0117082,45.0797558],[-93.0116309,45.0798026],[-93.0115546,45.0798504],[-93.0114788,45.0798986],[-93.0114222,45.079935],[-93.0113655,45.0799713],[-93.0112896,45.0800194],[-93.011213,45.0800668],[-93.0111354,45.0801133],[-93.0110564,45.0801584],[-93.0109757,45.0802019],[-93.0108934,45.0802438],[-93.0108102,45.080285],[-93.0107263,45.0803256],[-93.0106418,45.0803656],[-93.0105567,45.0804049],[-93.0104709,45.0804438],[-93.0103847,45.0804822],[-93.0103198,45.0805106],[-93.0102546,45.0805388],[-93.0101674,45.080576],[-93.0100798,45.0806128],[-93.009992,45.0806493],[-93.0099039,45.0806854],[-93.0098157,45.0807212],[-93.0097273,45.0807566],[-93.0096384,45.0807914],[-93.009549,45.0808256],[-93.0094591,45.0808591],[-93.0093688,45.0808922],[-93.0092783,45.080925],[-93.0091875,45.0809574],[-93.0090965,45.0809896],[-93.0090055,45.0810218],[-93.0089144,45.0810538],[-93.0088234,45.081086],[-93.0087325,45.0811183],[-93.0086418,45.0811509],[-93.0085514,45.0811839],[-93.0084613,45.0812173],[-93.0083717,45.0812512],[-93.0082826,45.0812858],[-93.0081946,45.0813217],[-93.0081075,45.0813588],[-93.008021,45.0813967],[-93.0079349,45.081435],[-93.0078489,45.0814735],[-93.0077626,45.0815117],[-93.0076759,45.0815492],[-93.0075883,45.0815858],[-93.0074999,45.0816213],[-93.0074108,45.0816561],[-93.0073213,45.0816903],[-93.0072313,45.0817241],[-93.0071411,45.0817577],[-93.0070508,45.081791],[-93.0069603,45.0818243],[-93.00687,45.0818576],[-93.0067797,45.081891],[-93.0066898,45.0819247],[-93.0066002,45.0819589],[-93.0065112,45.0819935],[-93.0064227,45.0820287],[-93.0063349,45.0820647],[-93.0062479,45.0821016],[-93.0061619,45.0821394],[-93.0060773,45.0821789],[-93.0059945,45.0822207],[-93.0059136,45.0822646],[-93.0058345,45.0823104],[-93.0057763,45.0823457],[-93.0057192,45.0823819],[-93.0056444,45.0824311],[-93.0055712,45.0824812],[-93.0055,45.0825322],[-93.0054319,45.0825853],[-93.0053667,45.0826404],[-93.0053034,45.0826969],[-93.0052413,45.0827541],[-93.0051791,45.0828114],[-93.0051161,45.0828682],[-93.0050512,45.0829237],[-93.0049838,45.0829776],[-93.0049151,45.0830306],[-93.0048457,45.0830833],[-93.0047758,45.0831356],[-93.0047054,45.0831876],[-93.0046343,45.0832392],[-93.0045627,45.0832904],[-93.0044906,45.0833411],[-93.0044178,45.0833914],[-93.0043444,45.0834413],[-93.0042704,45.0834906],[-93.004196,45.0835396],[-93.0041212,45.0835884],[-93.0040462,45.0836371],[-93.0039709,45.0836855],[-93.0038952,45.0837337],[-93.0038192,45.0837816],[-93.0037619,45.0838174],[-93.0037045,45.083853],[-93.0036276,45.0839001],[-93.0035503,45.083947],[-93.0034727,45.0839935],[-93.0033946,45.0840396],[-93.0033162,45.0840853],[-93.0032373,45.0841306],[-93.0031578,45.0841754],[-93.003077,45.0842194],[-93.002995,45.0842624],[-93.0029116,45.0843041],[-93.0028268,45.0843442],[-93.0027407,45.0843826],[-93.0026531,45.0844189],[-93.0025639,45.0844529],[-93.002473,45.0844844],[-93.0023805,45.0845139],[-93.0022868,45.0845418],[-93.0021922,45.0845686],[-93.0020973,45.0845949],[-93.0020261,45.0846147],[-93.001955,45.0846346],[-93.0018607,45.084662],[-93.0017674,45.0846906],[-93.0016745,45.0847201],[-93.0016045,45.0847423],[-93.0015348,45.0847648],[-93.001443,45.0847963],[-93.0013534,45.0848302],[-93.0012671,45.0848676],[-93.0011846,45.0849089],[-93.0011048,45.0849532],[-93.0010269,45.0849996],[-93.0009502,45.0850471],[-93.0008928,45.085083],[-93.0008351,45.0851186],[-93.0007572,45.0851651],[-93.0006774,45.0852097],[-93.0005958,45.0852527],[-93.0005131,45.0852945],[-93.0004298,45.0853358],[-93.0003462,45.0853769],[-93.000263,45.0854182],[-93.0001335,45.0854754],[-93.0000257,45.0855236],[-92.999918,45.0855719],[-92.9998093,45.0856188],[-92.9996988,45.085663],[-92.9995855,45.0857031],[-92.9994698,45.0857396],[-92.999353,45.0857748],[-92.9992353,45.0858089],[-92.9991168,45.0858418],[-92.9989977,45.0858736],[-92.998878,45.0859046],[-92.998758,45.0859346],[-92.9986377,45.0859639],[-92.9985172,45.0859926],[-92.9983966,45.0860206],[-92.9982744,45.0860451],[-92.9981504,45.0860657],[-92.9980254,45.0860833],[-92.9979001,45.0860987],[-92.9977733,45.0861116],[-92.9976454,45.0861124],[-92.9975234,45.086092],[-92.9974041,45.0860581],[-92.9972912,45.0860158],[-92.9971802,45.0859661],[-92.9970907,45.0859024],[-92.9970418,45.0858225],[-92.997008,45.085735],[-92.9969854,45.0856442],[-92.9969712,45.0855537],[-92.9969654,45.0854644],[-92.9969677,45.0853744],[-92.9969745,45.0852841],[-92.9969822,45.0851938],[-92.9969882,45.0851037],[-92.9969992,45.0850132],[-92.9970101,45.0849227],[-92.9970121,45.0848333],[-92.9969913,45.0847466],[-92.9969378,45.0846637],[-92.9968861,45.0845803],[-92.9968454,45.0844954],[-92.9968692,45.0843964],[-92.9968525,45.0843198],[-92.9967518,45.084281],[-92.9966251,45.0842544],[-92.9964928,45.084229],[-92.9963725,45.0841953],[-92.9962546,45.0841602],[-92.9961355,45.0841258],[-92.9960158,45.0840918],[-92.9958962,45.0840575],[-92.9957774,45.0840225],[-92.9956599,45.0839861],[-92.9955446,45.0839479],[-92.9954319,45.0839073],[-92.9953228,45.0838638],[-92.9952177,45.0838168],[-92.995119,45.0837641],[-92.9950317,45.0837006],[-92.9949537,45.0836289],[-92.9948823,45.0835518],[-92.9948149,45.0834724],[-92.9947487,45.0833938],[-92.994683,45.0833165],[-92.9946258,45.0832349],[-92.9945831,45.0831496],[-92.9945586,45.0830621],[-92.9945448,45.082973],[-92.9945371,45.0828828],[-92.9945319,45.0827922],[-92.994526,45.0827017],[-92.9945158,45.0826118],[-92.9944978,45.0825231],[-92.9944652,45.0824368],[-92.9944202,45.0823524],[-92.994372,45.0822684],[-92.9943294,45.0821833],[-92.9942895,45.0820975],[-92.9942516,45.0820112],[-92.9942205,45.0819241],[-92.9942048,45.0818351],[-92.9942092,45.0817434],[-92.9942075,45.0816532],[-92.9941761,45.0815679],[-92.9941274,45.0814836],[-92.9940653,45.0814029],[-92.9939903,45.0813297],[-92.9939048,45.0812645],[-92.9938151,45.0812015],[-92.993722,45.0811404],[-92.9936262,45.0810808],[-92.9935281,45.0810227],[-92.9934284,45.0809657],[-92.9933278,45.0809098],[-92.9932268,45.0808547],[-92.9931257,45.0808004],[-92.9930239,45.0807467],[-92.9929213,45.0806936],[-92.9928182,45.0806411],[-92.9927146,45.080589],[-92.9926107,45.0805372],[-92.9925064,45.0804857],[-92.992402,45.0804343],[-92.9922975,45.0803831],[-92.9921929,45.0803318],[-92.9920885,45.0802805],[-92.9919841,45.080229],[-92.9918801,45.0801773],[-92.9917764,45.0801252],[-92.9916729,45.0800729],[-92.9915664,45.0800223],[-92.9914574,45.079973],[-92.991348,45.079924],[-92.9912399,45.0798742],[-92.9911348,45.0798224],[-92.9910345,45.0797677],[-92.9909409,45.0797089],[-92.9908558,45.079645],[-92.9907794,45.0795756],[-92.9907101,45.0795015],[-92.9906467,45.0794238],[-92.990588,45.0793432],[-92.9905327,45.0792606],[-92.9904796,45.0791771],[-92.9904276,45.0790933],[-92.9903753,45.0790102],[-92.9903218,45.0789284],[-92.9902676,45.0788468],[-92.9902133,45.0787649],[-92.9901592,45.0786828],[-92.9901057,45.0786004],[-92.9900534,45.0785178],[-92.9900026,45.0784348],[-92.9899537,45.0783515],[-92.989907,45.0782678],[-92.9898632,45.0781837],[-92.9898225,45.0780992],[-92.9897854,45.0780143],[-92.9897636,45.077927],[-92.9897585,45.0778372],[-92.9897622,45.0777459],[-92.9897666,45.0776545],[-92.9897641,45.077564],[-92.9897572,45.0774741],[-92.9897495,45.0773843],[-92.9897412,45.0772944],[-92.9897327,45.0772046],[-92.9897248,45.0771141],[-92.9897131,45.0770241],[-92.9896062,45.0770116],[-92.9895231,45.0770758],[-92.9894414,45.0771429],[-92.9893607,45.077212],[-92.9892806,45.0772826],[-92.9892005,45.077354],[-92.9891199,45.0774255],[-92.9890385,45.0774963],[-92.9889558,45.0775659],[-92.9888712,45.0776335],[-92.9887853,45.0776997],[-92.9886984,45.0777654],[-92.9886108,45.0778306],[-92.9885226,45.0778954],[-92.9884337,45.0779597],[-92.9883442,45.0780237],[-92.9882543,45.0780874],[-92.988164,45.0781508],[-92.9880734,45.0782139],[-92.9879826,45.0782768],[-92.9878907,45.078339],[-92.9877969,45.0783999],[-92.9877019,45.07846],[-92.9876062,45.0785195],[-92.9875106,45.078579],[-92.9874154,45.0786389],[-92.9873215,45.0786996],[-92.9872293,45.0787614],[-92.9871396,45.0788247],[-92.9870528,45.0788901],[-92.986969,45.0789575],[-92.9868878,45.0790266],[-92.9868087,45.0790973],[-92.9867316,45.079169],[-92.9866558,45.0792417],[-92.9865812,45.0793148],[-92.9865074,45.0793882],[-92.986434,45.0794616],[-92.9863558,45.0795379],[-92.986292,45.0796185],[-92.9862754,45.0797012],[-92.9863037,45.0797867],[-92.9863542,45.0798733],[-92.9864063,45.0799585],[-92.9864624,45.08004],[-92.9865229,45.0801202],[-92.9865644,45.0802038],[-92.9865777,45.0802924],[-92.9865779,45.0803833],[-92.9865817,45.080474],[-92.9865934,45.0805724],[-92.9866046,45.0806816],[-92.9866407,45.0807614],[-92.9867222,45.0807795],[-92.9868314,45.0807608],[-92.9869562,45.0807219],[-92.9870873,45.0806756],[-92.9872152,45.0806348],[-92.9873355,45.080604],[-92.9874551,45.0805717],[-92.9875749,45.0805395],[-92.9876952,45.0805094],[-92.9878166,45.0804836],[-92.9879394,45.0804642],[-92.9880641,45.0804523],[-92.9881905,45.0804468],[-92.988318,45.080446],[-92.9884461,45.0804484],[-92.988574,45.0804524],[-92.9887013,45.0804565],[-92.988829,45.0804595],[-92.9889576,45.0804624],[-92.989086,45.0804674],[-92.9892128,45.0804764],[-92.9893371,45.0804914],[-92.9894576,45.0805145],[-92.9895756,45.0805469],[-92.9896906,45.0805873],[-92.9898018,45.0806337],[-92.9899084,45.0806845],[-92.9900099,45.080738],[-92.9901091,45.0807945],[-92.9902056,45.0808543],[-92.9902981,45.0809172],[-92.9903855,45.0809833],[-92.9904665,45.0810525],[-92.9905414,45.0811245],[-92.9906136,45.0811983],[-92.9906834,45.0812738],[-92.9907506,45.0813509],[-92.9908149,45.0814292],[-92.9908762,45.0815087],[-92.9909344,45.0815892],[-92.9909891,45.0816704],[-92.9910403,45.0817524],[-92.9910882,45.0818355],[-92.9911328,45.0819197],[-92.9911744,45.082005],[-92.9912131,45.0820912],[-92.991249,45.0821781],[-92.9912822,45.0822654],[-92.991313,45.082353],[-92.9913415,45.0824407],[-92.9913669,45.0825287],[-92.9913868,45.0826177],[-92.9914025,45.0827074],[-92.9914152,45.0827977],[-92.9914263,45.0828882],[-92.9914374,45.0829786],[-92.9914496,45.0830687],[-92.9914645,45.0831581],[-92.9914834,45.0832466],[-92.9915079,45.083334],[-92.9915398,45.0834202],[-92.9915848,45.0835068],[-92.9916431,45.0835906],[-92.9917143,45.0836676],[-92.9917976,45.0837341],[-92.9918931,45.083788],[-92.9919999,45.0838334],[-92.9921149,45.0838727],[-92.9922346,45.0839083],[-92.9923558,45.0839428],[-92.992475,45.0839783],[-92.9925908,45.0840159],[-92.9927081,45.0840514],[-92.9928264,45.0840857],[-92.9929445,45.0841202],[-92.9930611,45.0841562],[-92.9931751,45.0841953],[-92.9932852,45.0842388],[-92.9933921,45.0842871],[-92.9934965,45.0843395],[-92.9935975,45.0843956],[-92.9936942,45.0844552],[-92.9937856,45.0845179],[-92.9938701,45.084584],[-92.9939419,45.0846575],[-92.9940047,45.0847367],[-92.9940652,45.0848174],[-92.9941302,45.0848954],[-92.9942064,45.0849667],[-92.994292,45.0850326],[-92.9943794,45.085098],[-92.9944686,45.0851625],[-92.9945596,45.0852261],[-92.9946525,45.0852885],[-92.9947471,45.0853495],[-92.9948435,45.0854088],[-92.9949416,45.0854662],[-92.9950416,45.0855216],[-92.9951433,45.0855746],[-92.995248,45.0856244],[-92.9953561,45.0856708],[-92.9954671,45.0857144],[-92.9955801,45.0857558],[-92.9956947,45.0857958],[-92.9958101,45.0858349],[-92.9959256,45.0858738],[-92.9960405,45.0859131],[-92.9961542,45.0859536],[-92.9962675,45.0859944],[-92.9963811,45.0860347],[-92.9964951,45.0860746],[-92.9966094,45.0861138],[-92.9967242,45.0861525],[-92.9968394,45.0861905],[-92.9969549,45.086228],[-92.9970707,45.0862651],[-92.997187,45.0863016],[-92.9973036,45.0863374],[-92.9974208,45.0863722],[-92.9975385,45.086406],[-92.9976579,45.0864368],[-92.9977795,45.0864638],[-92.9979012,45.0864904],[-92.9980212,45.0865198],[-92.9981383,45.0865547],[-92.9982593,45.0865895],[-92.9983807,45.0866258],[-92.9984961,45.0866673],[-92.9985988,45.0867179],[-92.9986835,45.0867808],[-92.9987611,45.0868499],[-92.9988361,45.0869221],[-92.998908,45.0869971],[-92.9989765,45.0870746],[-92.9990411,45.0871542],[-92.9991015,45.0872355],[-92.9991574,45.0873181],[-92.9992082,45.0874016],[-92.9992536,45.0874858],[-92.9992936,45.0875702],[-92.9993302,45.0876555],[-92.9993638,45.0877416],[-92.9993948,45.0878284],[-92.9994235,45.0879158],[-92.9994503,45.0880038],[-92.9994754,45.0880921],[-92.9994991,45.0881809],[-92.9995218,45.0882699],[-92.9995439,45.0883591],[-92.9995655,45.0884484],[-92.9995871,45.0885377],[-92.9996089,45.088627],[-92.9996313,45.0887161],[-92.9996546,45.0888049],[-92.9996791,45.0888935],[-92.9997053,45.0889816],[-92.9997336,45.0890695],[-92.9997623,45.0891574],[-92.9997892,45.0892455],[-92.9998122,45.0893339],[-92.9998296,45.0894229],[-92.9998453,45.0895125],[-92.9998591,45.0896026],[-92.9998691,45.0896929],[-92.999873,45.0897831],[-92.9998688,45.0898728],[-92.9998563,45.0899619],[-92.9998419,45.0900511],[-92.9998265,45.0901405],[-92.9998101,45.0902298],[-92.9997926,45.0903192],[-92.9997739,45.0904086],[-92.9997541,45.0904978],[-92.9997332,45.0905869],[-92.999711,45.0906759],[-92.9996875,45.0907646],[-92.9996628,45.0908531],[-92.9996367,45.0909413],[-92.9996093,45.0910291],[-92.9995805,45.0911166],[-92.9995502,45.0912035],[-92.9995152,45.0912898],[-92.9994746,45.0913753],[-92.9994292,45.0914598],[-92.9993796,45.0915433],[-92.9993264,45.0916257],[-92.9992704,45.0917069],[-92.9992121,45.091787],[-92.9991517,45.0918657],[-92.9990875,45.0919433],[-92.99902,45.0920196],[-92.9989498,45.092095],[-92.9988774,45.0921693],[-92.9988032,45.0922428],[-92.9987278,45.0923155],[-92.9986517,45.0923876],[-92.9985742,45.0924594],[-92.9984932,45.0925303],[-92.9984073,45.0925977],[-92.9983152,45.0926593],[-92.9982154,45.0927131],[-92.9981083,45.0927602],[-92.9979958,45.0928024],[-92.9978798,45.0928411],[-92.9977622,45.0928776],[-92.997645,45.0929134],[-92.9975251,45.0929455],[-92.9974003,45.0929722],[-92.9972745,45.0929972],[-92.9971514,45.0930244],[-92.9970348,45.0930577],[-92.9969286,45.0931007],[-92.9968325,45.0931563],[-92.9967437,45.0932229],[-92.9966644,45.0932978],[-92.9965975,45.093378],[-92.9965453,45.093461],[-92.996509,45.0935449],[-92.9964835,45.0936312],[-92.9964661,45.0937197],[-92.9964546,45.0938097],[-92.9964465,45.0939008],[-92.9964395,45.0939922],[-92.9964314,45.0940835],[-92.9964199,45.0941741],[-92.9964027,45.0942635],[-92.9963824,45.0943523],[-92.9963603,45.0944409],[-92.996337,45.0945294],[-92.9963127,45.0946178],[-92.996288,45.0947061],[-92.9962631,45.0947944],[-92.9962385,45.0948828],[-92.9962153,45.0949714],[-92.9961925,45.0950603],[-92.9961627,45.0951476],[-92.9961255,45.0952345],[-92.996088,45.0953231],[-92.9960436,45.095409],[-92.9959851,45.0954875],[-92.9959072,45.0955549],[-92.9958156,45.0956152],[-92.995715,45.0956707],[-92.9956091,45.0957233],[-92.9955017,45.0957748],[-92.9953968,45.0958272],[-92.9952948,45.095881],[-92.9951932,45.0959352],[-92.9950916,45.0959895],[-92.9949899,45.0960439],[-92.9948881,45.0960981],[-92.994786,45.0961519],[-92.9946834,45.0962052],[-92.9945802,45.0962578],[-92.9944763,45.0963096],[-92.9943715,45.0963603],[-92.9942658,45.0964098],[-92.9941587,45.0964578],[-92.9940488,45.0965024],[-92.993936,45.0965436],[-92.9938211,45.0965823],[-92.9937047,45.0966193],[-92.9935878,45.0966555],[-92.9934711,45.0966917],[-92.9933552,45.0967286],[-92.9932392,45.0967655],[-92.9931231,45.0968021],[-92.9930067,45.0968384],[-92.9928901,45.0968742],[-92.9927732,45.0969096],[-92.9926561,45.0969445],[-92.9925386,45.0969788],[-92.9924208,45.0970126],[-92.9923026,45.0970456],[-92.992184,45.0970779],[-92.9920651,45.0971097],[-92.9919458,45.0971409],[-92.9918263,45.0971717],[-92.9917066,45.097202],[-92.9915867,45.0972319],[-92.9914667,45.0972615],[-92.9913465,45.0972907],[-92.9912255,45.0973182],[-92.9911038,45.0973442],[-92.9909817,45.0973694],[-92.990815,45.0974044],[-92.9908266,45.0977927],[-92.9916543,45.0986539],[-92.9918135,45.0986247],[-92.9926157,45.0994593],[-92.9916553,45.0994719],[-92.991669,45.0999885],[-92.9925542,45.099982],[-92.9925493,45.1002607],[-92.9916713,45.1002529],[-92.9916938,45.1009317],[-92.9940281,45.100929],[-92.9949388,45.1018766],[-92.9952382,45.1018362],[-92.9957667,45.1017249],[-93.0002425,45.1003022],[-93.0038729,45.099278],[-93.0031876,45.1004073],[-93.0028745,45.1009231],[-93.0035527,45.1002011],[-93.0055091,45.0990967],[-93.0068406,45.0986529],[-93.0156942,45.0960854],[-93.0166611,45.0958333],[-93.0183607,45.09544],[-93.035938,45.0925229],[-93.0359352,45.0919606],[-93.0462039,45.0902572],[-93.0462032,45.0893347],[-93.0464113,45.0893286],[-93.0471665,45.089191],[-93.0477888,45.0889287],[-93.0483175,45.0885798],[-93.0486845,45.0880957],[-93.0488399,45.0877145],[-93.0489055,45.0865805],[-93.0561375,45.0865793],[-93.056094,45.0793376],[-93.0561195,45.0721121],[-93.0514534,45.0720866],[-93.0509759,45.0725622],[-93.0507936,45.0727188],[-93.0505803,45.0728751],[-93.0502417,45.07309],[-93.0497392,45.0733519],[-93.0493159,45.0735545],[-93.048454,45.0739432],[-93.0481873,45.0740712],[-93.0479359,45.0742104],[-93.0476215,45.0743872],[-93.0472748,45.0746073],[-93.0444936,45.0764018],[-93.0440521,45.0766976],[-93.0410412,45.0788594],[-93.04104,45.0787586],[-93.0410082,45.0760123],[-93.039711,45.0749374],[-93.0356869,45.0749573],[-93.0357624,45.0777731],[-93.0357306,45.0792898],[-93.0356518,45.0792897],[-93.0254717,45.0792749],[-93.0254959,45.072064],[-93.0258323,45.0720688]],[[-93.0254959,45.072064],[-93.0218573,45.0720043],[-93.023993,45.070374],[-93.0242016,45.0702419],[-93.0244877,45.0700876],[-93.0255038,45.0696709],[-93.0254959,45.072064]],[[-93.0481695,45.0865784],[-93.0481108,45.0876246],[-93.0479994,45.0878979],[-93.0477269,45.0882572],[-93.0473449,45.0885094],[-93.046881,45.0887049],[-93.0463033,45.0888102],[-93.0462027,45.0888131],[-93.0462007,45.0862469],[-93.0466069,45.0863853],[-93.0468991,45.0864553],[-93.0472303,45.0865093],[-93.0476009,45.086542],[-93.0481695,45.0865784]]],[[[-92.980021,45.0575526],[-92.984697,45.0575873],[-92.9846983,45.0539175],[-92.9800997,45.0539142],[-92.980021,45.0575526]]],[[[-92.9820691,45.0523307],[-92.9847519,45.0523351],[-92.9847623,45.0503441],[-92.983364,45.0503417],[-92.9829781,45.0503411],[-92.9820798,45.0503396],[-92.9820691,45.0523307]]],[[[-93.0564178,45.1240234],[-93.0563944,45.1228803],[-93.056277,45.1046099],[-93.0561811,45.0938355],[-93.0561414,45.0872513],[-93.0597175,45.0857325],[-93.0600565,45.0855954],[-93.0604272,45.0854554],[-93.0606944,45.0853827],[-93.0609583,45.0853108],[-93.0612812,45.0852442],[-93.0655103,45.0845336],[-93.0659059,45.0844461],[-93.0662602,45.0843364],[-93.0666317,45.0842154],[-93.0670145,45.0840588],[-93.0680079,45.0835707],[-93.0684597,45.0833146],[-93.0748756,45.0793184],[-93.0662979,45.0793635],[-93.056094,45.0793376],[-93.0561375,45.0865793],[-93.0489055,45.0865805],[-93.0488399,45.0877145],[-93.0486845,45.0880957],[-93.0483175,45.0885798],[-93.0477888,45.0889287],[-93.0471665,45.089191],[-93.0464113,45.0893286],[-93.0462032,45.0893347],[-93.0462039,45.0902572],[-93.0359352,45.0919606],[-93.035938,45.0925229],[-93.0183607,45.09544],[-93.0166611,45.0958333],[-93.0156942,45.0960854],[-93.0068406,45.0986529],[-93.0055091,45.0990967],[-93.0035527,45.1002011],[-93.0028745,45.1009231],[-93.0031876,45.1004073],[-93.0038729,45.099278],[-93.0002425,45.1003022],[-92.9957667,45.1017249],[-92.9952382,45.1018362],[-92.9949388,45.1018766],[-92.9940281,45.100929],[-92.9916938,45.1009317],[-92.9916713,45.1002529],[-92.9925493,45.1002607],[-92.9925542,45.099982],[-92.991669,45.0999885],[-92.9916553,45.0994719],[-92.9926157,45.0994593],[-92.9918135,45.0986247],[-92.9916543,45.0986539],[-92.9908266,45.0977927],[-92.990815,45.0974044],[-92.9909817,45.0973694],[-92.9911038,45.0973442],[-92.9912255,45.0973182],[-92.9913465,45.0972907],[-92.9914667,45.0972615],[-92.9915867,45.0972319],[-92.9917066,45.097202],[-92.9918263,45.0971717],[-92.9919458,45.0971409],[-92.9920651,45.0971097],[-92.992184,45.0970779],[-92.9923026,45.0970456],[-92.9924208,45.0970126],[-92.9925386,45.0969788],[-92.9926561,45.0969445],[-92.9927732,45.0969096],[-92.9928901,45.0968742],[-92.9930067,45.0968384],[-92.9931231,45.0968021],[-92.9932392,45.0967655],[-92.9933552,45.0967286],[-92.9934711,45.0966917],[-92.9935878,45.0966555],[-92.9937047,45.0966193],[-92.9938211,45.0965823],[-92.993936,45.0965436],[-92.9940488,45.0965024],[-92.9941587,45.0964578],[-92.9942658,45.0964098],[-92.9943715,45.0963603],[-92.9944763,45.0963096],[-92.9945802,45.0962578],[-92.9946834,45.0962052],[-92.994786,45.0961519],[-92.9948881,45.0960981],[-92.9949899,45.0960439],[-92.9950916,45.0959895],[-92.9951932,45.0959352],[-92.9952948,45.095881],[-92.9953968,45.0958272],[-92.9955017,45.0957748],[-92.9956091,45.0957233],[-92.995715,45.0956707],[-92.9958156,45.0956152],[-92.9959072,45.0955549],[-92.9959851,45.0954875],[-92.9960436,45.095409],[-92.996088,45.0953231],[-92.9961255,45.0952345],[-92.9961627,45.0951476],[-92.9961925,45.0950603],[-92.9962153,45.0949714],[-92.9962385,45.0948828],[-92.9962631,45.0947944],[-92.996288,45.0947061],[-92.9963127,45.0946178],[-92.996337,45.0945294],[-92.9963603,45.0944409],[-92.9963824,45.0943523],[-92.9964027,45.0942635],[-92.9964199,45.0941741],[-92.9964314,45.0940835],[-92.9964395,45.0939922],[-92.9964465,45.0939008],[-92.9964546,45.0938097],[-92.9964661,45.0937197],[-92.9964835,45.0936312],[-92.996509,45.0935449],[-92.9965453,45.093461],[-92.9965975,45.093378],[-92.9966644,45.0932978],[-92.9967437,45.0932229],[-92.9968325,45.0931563],[-92.9969286,45.0931007],[-92.9970348,45.0930577],[-92.9971514,45.0930244],[-92.9972745,45.0929972],[-92.9974003,45.0929722],[-92.9975251,45.0929455],[-92.997645,45.0929134],[-92.9977622,45.0928776],[-92.9978798,45.0928411],[-92.9979958,45.0928024],[-92.9981083,45.0927602],[-92.9982154,45.0927131],[-92.9983152,45.0926593],[-92.9984073,45.0925977],[-92.9984932,45.0925303],[-92.9985742,45.0924594],[-92.9986517,45.0923876],[-92.9987278,45.0923155],[-92.9988032,45.0922428],[-92.9988774,45.0921693],[-92.9989498,45.092095],[-92.99902,45.0920196],[-92.9990875,45.0919433],[-92.9991517,45.0918657],[-92.9992121,45.091787],[-92.9992704,45.0917069],[-92.9993264,45.0916257],[-92.9993796,45.0915433],[-92.9994292,45.0914598],[-92.9994746,45.0913753],[-92.9995152,45.0912898],[-92.9995502,45.0912035],[-92.9995805,45.0911166],[-92.9996093,45.0910291],[-92.9996367,45.0909413],[-92.9996628,45.0908531],[-92.9996875,45.0907646],[-92.999711,45.0906759],[-92.9997332,45.0905869],[-92.9997541,45.0904978],[-92.9997739,45.0904086],[-92.9997926,45.0903192],[-92.9998101,45.0902298],[-92.9998265,45.0901405],[-92.9998419,45.0900511],[-92.9998563,45.0899619],[-92.9998688,45.0898728],[-92.999873,45.0897831],[-92.9998691,45.0896929],[-92.9998591,45.0896026],[-92.9998453,45.0895125],[-92.9998296,45.0894229],[-92.9998122,45.0893339],[-92.9997892,45.0892455],[-92.9997623,45.0891574],[-92.9997336,45.0890695],[-92.9997053,45.0889816],[-92.9996791,45.0888935],[-92.9996546,45.0888049],[-92.9996313,45.0887161],[-92.9996089,45.088627],[-92.9995871,45.0885377],[-92.9995655,45.0884484],[-92.9995439,45.0883591],[-92.9995218,45.0882699],[-92.9994991,45.0881809],[-92.9994754,45.0880921],[-92.9994503,45.0880038],[-92.9994235,45.0879158],[-92.9993948,45.0878284],[-92.9993638,45.0877416],[-92.9993302,45.0876555],[-92.9992936,45.0875702],[-92.9992536,45.0874858],[-92.9992082,45.0874016],[-92.9991574,45.0873181],[-92.9991015,45.0872355],[-92.9990411,45.0871542],[-92.9989765,45.0870746],[-92.998908,45.0869971],[-92.9988361,45.0869221],[-92.9987611,45.0868499],[-92.9986835,45.0867808],[-92.9985988,45.0867179],[-92.9984961,45.0866673],[-92.9983807,45.0866258],[-92.9982593,45.0865895],[-92.9981383,45.0865547],[-92.9980212,45.0865198],[-92.9979012,45.0864904],[-92.9977795,45.0864638],[-92.9976579,45.0864368],[-92.9975385,45.086406],[-92.9974208,45.0863722],[-92.9973036,45.0863374],[-92.997187,45.0863016],[-92.9970707,45.0862651],[-92.9969549,45.086228],[-92.9968394,45.0861905],[-92.9967242,45.0861525],[-92.9966094,45.0861138],[-92.9964951,45.0860746],[-92.9963811,45.0860347],[-92.9962675,45.0859944],[-92.9961542,45.0859536],[-92.9960405,45.0859131],[-92.9959256,45.0858738],[-92.9958101,45.0858349],[-92.9956947,45.0857958],[-92.9955801,45.0857558],[-92.9954671,45.0857144],[-92.9953561,45.0856708],[-92.995248,45.0856244],[-92.9951433,45.0855746],[-92.9950416,45.0855216],[-92.9949416,45.0854662],[-92.9948435,45.0854088],[-92.9947471,45.0853495],[-92.9946525,45.0852885],[-92.9945596,45.0852261],[-92.9944686,45.0851625],[-92.9943794,45.085098],[-92.994292,45.0850326],[-92.9942064,45.0849667],[-92.9941302,45.0848954],[-92.9940652,45.0848174],[-92.9940047,45.0847367],[-92.9939419,45.0846575],[-92.9938701,45.084584],[-92.9937856,45.0845179],[-92.9936942,45.0844552],[-92.9935975,45.0843956],[-92.9934965,45.0843395],[-92.9933921,45.0842871],[-92.9932852,45.0842388],[-92.9931751,45.0841953],[-92.9930611,45.0841562],[-92.9929445,45.0841202],[-92.9928264,45.0840857],[-92.9927081,45.0840514],[-92.9925908,45.0840159],[-92.992475,45.0839783],[-92.9923558,45.0839428],[-92.9922346,45.0839083],[-92.9921149,45.0838727],[-92.9919999,45.0838334],[-92.9918931,45.083788],[-92.9917976,45.0837341],[-92.9917143,45.0836676],[-92.9916431,45.0835906],[-92.9915848,45.0835068],[-92.9915398,45.0834202],[-92.9915079,45.083334],[-92.9914834,45.0832466],[-92.9914645,45.0831581],[-92.9914496,45.0830687],[-92.9914374,45.0829786],[-92.9914263,45.0828882],[-92.9914152,45.0827977],[-92.9914025,45.0827074],[-92.9913868,45.0826177],[-92.9913669,45.0825287],[-92.9913415,45.0824407],[-92.991313,45.082353],[-92.9912822,45.0822654],[-92.991249,45.0821781],[-92.9912131,45.0820912],[-92.9911744,45.082005],[-92.9911328,45.0819197],[-92.9910882,45.0818355],[-92.9910403,45.0817524],[-92.9909891,45.0816704],[-92.9909344,45.0815892],[-92.9908762,45.0815087],[-92.9908149,45.0814292],[-92.9907506,45.0813509],[-92.9906834,45.0812738],[-92.9906136,45.0811983],[-92.9905414,45.0811245],[-92.9904665,45.0810525],[-92.9903855,45.0809833],[-92.9902981,45.0809172],[-92.9902056,45.0808543],[-92.9901091,45.0807945],[-92.9900099,45.080738],[-92.9899084,45.0806845],[-92.9898018,45.0806337],[-92.9896906,45.0805873],[-92.9895756,45.0805469],[-92.9894576,45.0805145],[-92.9893371,45.0804914],[-92.9892128,45.0804764],[-92.989086,45.0804674],[-92.9889576,45.0804624],[-92.988829,45.0804595],[-92.9887013,45.0804565],[-92.988574,45.0804524],[-92.9884461,45.0804484],[-92.988318,45.080446],[-92.9881905,45.0804468],[-92.9880641,45.0804523],[-92.9879394,45.0804642],[-92.9878166,45.0804836],[-92.9876952,45.0805094],[-92.9875749,45.0805395],[-92.9874551,45.0805717],[-92.9873355,45.080604],[-92.9872152,45.0806348],[-92.9870873,45.0806756],[-92.9869562,45.0807219],[-92.9868314,45.0807608],[-92.9867222,45.0807795],[-92.9866407,45.0807614],[-92.9866046,45.0806816],[-92.9865934,45.0805724],[-92.9865817,45.080474],[-92.9865779,45.0803833],[-92.9865777,45.0802924],[-92.9865644,45.0802038],[-92.9865229,45.0801202],[-92.9864624,45.08004],[-92.9864063,45.0799585],[-92.9863542,45.0798733],[-92.9863037,45.0797867],[-92.9862754,45.0797012],[-92.986292,45.0796185],[-92.9863558,45.0795379],[-92.986434,45.0794616],[-92.9865074,45.0793882],[-92.9865812,45.0793148],[-92.9866558,45.0792417],[-92.9867316,45.079169],[-92.9868087,45.0790973],[-92.9868878,45.0790266],[-92.986969,45.0789575],[-92.9870528,45.0788901],[-92.9871396,45.0788247],[-92.9872293,45.0787614],[-92.9873215,45.0786996],[-92.9874154,45.0786389],[-92.9875106,45.078579],[-92.9876062,45.0785195],[-92.9877019,45.07846],[-92.9877969,45.0783999],[-92.9878907,45.078339],[-92.9879826,45.0782768],[-92.9880734,45.0782139],[-92.988164,45.0781508],[-92.9882543,45.0780874],[-92.9883442,45.0780237],[-92.9884337,45.0779597],[-92.9885226,45.0778954],[-92.9886108,45.0778306],[-92.9886984,45.0777654],[-92.9887853,45.0776997],[-92.9888712,45.0776335],[-92.9889558,45.0775659],[-92.9890385,45.0774963],[-92.9891199,45.0774255],[-92.9892005,45.077354],[-92.9892806,45.0772826],[-92.9893607,45.077212],[-92.9894414,45.0771429],[-92.9895231,45.0770758],[-92.9896062,45.0770116],[-92.9897131,45.0770241],[-92.9897248,45.0771141],[-92.9897327,45.0772046],[-92.9897412,45.0772944],[-92.9897495,45.0773843],[-92.9897572,45.0774741],[-92.9897641,45.077564],[-92.9897666,45.0776545],[-92.9897622,45.0777459],[-92.9897585,45.0778372],[-92.9897636,45.077927],[-92.9897854,45.0780143],[-92.9898225,45.0780992],[-92.9898632,45.0781837],[-92.989907,45.0782678],[-92.9899537,45.0783515],[-92.9900026,45.0784348],[-92.9900534,45.0785178],[-92.9901057,45.0786004],[-92.9901592,45.0786828],[-92.9902133,45.0787649],[-92.9902676,45.0788468],[-92.9903218,45.0789284],[-92.9903753,45.0790102],[-92.9904276,45.0790933],[-92.9904796,45.0791771],[-92.9905327,45.0792606],[-92.990588,45.0793432],[-92.9906467,45.0794238],[-92.9907101,45.0795015],[-92.9907794,45.0795756],[-92.9908558,45.079645],[-92.9909409,45.0797089],[-92.9910345,45.0797677],[-92.9911348,45.0798224],[-92.9912399,45.0798742],[-92.991348,45.079924],[-92.9914574,45.079973],[-92.9915664,45.0800223],[-92.9916729,45.0800729],[-92.9917764,45.0801252],[-92.9918801,45.0801773],[-92.9919841,45.080229],[-92.9920885,45.0802805],[-92.9921929,45.0803318],[-92.9922975,45.0803831],[-92.992402,45.0804343],[-92.9925064,45.0804857],[-92.9926107,45.0805372],[-92.9927146,45.080589],[-92.9928182,45.0806411],[-92.9929213,45.0806936],[-92.9930239,45.0807467],[-92.9931257,45.0808004],[-92.9932268,45.0808547],[-92.9933278,45.0809098],[-92.9934284,45.0809657],[-92.9935281,45.0810227],[-92.9936262,45.0810808],[-92.993722,45.0811404],[-92.9938151,45.0812015],[-92.9939048,45.0812645],[-92.9939903,45.0813297],[-92.9940653,45.0814029],[-92.9941274,45.0814836],[-92.9941761,45.0815679],[-92.9942075,45.0816532],[-92.9942092,45.0817434],[-92.9942048,45.0818351],[-92.9942205,45.0819241],[-92.9942516,45.0820112],[-92.9942895,45.0820975],[-92.9943294,45.0821833],[-92.994372,45.0822684],[-92.9944202,45.0823524],[-92.9944652,45.0824368],[-92.9944978,45.0825231],[-92.9945158,45.0826118],[-92.994526,45.0827017],[-92.9945319,45.0827922],[-92.9945371,45.0828828],[-92.9945448,45.082973],[-92.9945586,45.0830621],[-92.9945831,45.0831496],[-92.9946258,45.0832349],[-92.994683,45.0833165],[-92.9947487,45.0833938],[-92.9948149,45.0834724],[-92.9948823,45.0835518],[-92.9949537,45.0836289],[-92.9950317,45.0837006],[-92.995119,45.0837641],[-92.9952177,45.0838168],[-92.9953228,45.0838638],[-92.9954319,45.0839073],[-92.9955446,45.0839479],[-92.9956599,45.0839861],[-92.9957774,45.0840225],[-92.9958962,45.0840575],[-92.9960158,45.0840918],[-92.9961355,45.0841258],[-92.9962546,45.0841602],[-92.9963725,45.0841953],[-92.9964928,45.084229],[-92.9966251,45.0842544],[-92.9967518,45.084281],[-92.9968525,45.0843198],[-92.9968692,45.0843964],[-92.9968454,45.0844954],[-92.9968861,45.0845803],[-92.9969378,45.0846637],[-92.9969913,45.0847466],[-92.9970121,45.0848333],[-92.9970101,45.0849227],[-92.9969992,45.0850132],[-92.9969882,45.0851037],[-92.9969822,45.0851938],[-92.9969745,45.0852841],[-92.9969677,45.0853744],[-92.9969654,45.0854644],[-92.9969712,45.0855537],[-92.9969854,45.0856442],[-92.997008,45.085735],[-92.9970418,45.0858225],[-92.9970907,45.0859024],[-92.9971802,45.0859661],[-92.9972912,45.0860158],[-92.9974041,45.0860581],[-92.9975234,45.086092],[-92.9976454,45.0861124],[-92.9977733,45.0861116],[-92.9979001,45.0860987],[-92.9980254,45.0860833],[-92.9981504,45.0860657],[-92.9982744,45.0860451],[-92.9983966,45.0860206],[-92.9985172,45.0859926],[-92.9986377,45.0859639],[-92.998758,45.0859346],[-92.998878,45.0859046],[-92.9989977,45.0858736],[-92.9991168,45.0858418],[-92.9992353,45.0858089],[-92.999353,45.0857748],[-92.9994698,45.0857396],[-92.9995855,45.0857031],[-92.9996988,45.085663],[-92.9998093,45.0856188],[-92.999918,45.0855719],[-93.0000257,45.0855236],[-93.0001335,45.0854754],[-93.000263,45.0854182],[-93.0003462,45.0853769],[-93.0004298,45.0853358],[-93.0005131,45.0852945],[-93.0005958,45.0852527],[-93.0006774,45.0852097],[-93.0007572,45.0851651],[-93.0008351,45.0851186],[-93.0008928,45.085083],[-93.0009502,45.0850471],[-93.0010269,45.0849996],[-93.0011048,45.0849532],[-93.0011846,45.0849089],[-93.0012671,45.0848676],[-93.0013534,45.0848302],[-93.001443,45.0847963],[-93.0015348,45.0847648],[-93.0016045,45.0847423],[-93.0016745,45.0847201],[-93.0017674,45.0846906],[-93.0018607,45.084662],[-93.001955,45.0846346],[-93.0020261,45.0846147],[-93.0020973,45.0845949],[-93.0021922,45.0845686],[-93.0022868,45.0845418],[-93.0023805,45.0845139],[-93.002473,45.0844844],[-93.0025639,45.0844529],[-93.0026531,45.0844189],[-93.0027407,45.0843826],[-93.0028268,45.0843442],[-93.0029116,45.0843041],[-93.002995,45.0842624],[-93.003077,45.0842194],[-93.0031578,45.0841754],[-93.0032373,45.0841306],[-93.0033162,45.0840853],[-93.0033946,45.0840396],[-93.0034727,45.0839935],[-93.0035503,45.083947],[-93.0036276,45.0839001],[-93.0037045,45.083853],[-93.0037619,45.0838174],[-93.0038192,45.0837816],[-93.0038952,45.0837337],[-93.0039709,45.0836855],[-93.0040462,45.0836371],[-93.0041212,45.0835884],[-93.004196,45.0835396],[-93.0042704,45.0834906],[-93.0043444,45.0834413],[-93.0044178,45.0833914],[-93.0044906,45.0833411],[-93.0045627,45.0832904],[-93.0046343,45.0832392],[-93.0047054,45.0831876],[-93.0047758,45.0831356],[-93.0048457,45.0830833],[-93.0049151,45.0830306],[-93.0049838,45.0829776],[-93.0050512,45.0829237],[-93.0051161,45.0828682],[-93.0051791,45.0828114],[-93.0052413,45.0827541],[-93.0053034,45.0826969],[-93.0053667,45.0826404],[-93.0054319,45.0825853],[-93.0055,45.0825322],[-93.0055712,45.0824812],[-93.0056444,45.0824311],[-93.0057192,45.0823819],[-93.0057763,45.0823457],[-93.0058345,45.0823104],[-93.0059136,45.0822646],[-93.0059945,45.0822207],[-93.0060773,45.0821789],[-93.0061619,45.0821394],[-93.0062479,45.0821016],[-93.0063349,45.0820647],[-93.0064227,45.0820287],[-93.0065112,45.0819935],[-93.0066002,45.0819589],[-93.0066898,45.0819247],[-93.0067797,45.081891],[-93.00687,45.0818576],[-93.0069603,45.0818243],[-93.0070508,45.081791],[-93.0071411,45.0817577],[-93.0072313,45.0817241],[-93.0073213,45.0816903],[-93.0074108,45.0816561],[-93.0074999,45.0816213],[-93.0075883,45.0815858],[-93.0076759,45.0815492],[-93.0077626,45.0815117],[-93.0078489,45.0814735],[-93.0079349,45.081435],[-93.008021,45.0813967],[-93.0081075,45.0813588],[-93.0081946,45.0813217],[-93.0082826,45.0812858],[-93.0083717,45.0812512],[-93.0084613,45.0812173],[-93.0085514,45.0811839],[-93.0086418,45.0811509],[-93.0087325,45.0811183],[-93.0088234,45.081086],[-93.0089144,45.0810538],[-93.0090055,45.0810218],[-93.0090965,45.0809896],[-93.0091875,45.0809574],[-93.0092783,45.080925],[-93.0093688,45.0808922],[-93.0094591,45.0808591],[-93.009549,45.0808256],[-93.0096384,45.0807914],[-93.0097273,45.0807566],[-93.0098157,45.0807212],[-93.0099039,45.0806854],[-93.009992,45.0806493],[-93.0100798,45.0806128],[-93.0101674,45.080576],[-93.0102546,45.0805388],[-93.0103198,45.0805106],[-93.0103847,45.0804822],[-93.0104709,45.0804438],[-93.0105567,45.0804049],[-93.0106418,45.0803656],[-93.0107263,45.0803256],[-93.0108102,45.080285],[-93.0108934,45.0802438],[-93.0109757,45.0802019],[-93.0110564,45.0801584],[-93.0111354,45.0801133],[-93.011213,45.0800668],[-93.0112896,45.0800194],[-93.0113655,45.0799713],[-93.0114222,45.079935],[-93.0114788,45.0798986],[-93.0115546,45.0798504],[-93.0116309,45.0798026],[-93.0117082,45.0797558],[-93.0117868,45.0797101],[-93.0118669,45.0796659],[-93.0119481,45.0796227],[-93.0120299,45.07958],[-93.0121123,45.0795379],[-93.0121951,45.0794962],[-93.0122783,45.0794549],[-93.0123619,45.0794139],[-93.0124457,45.0793731],[-93.0125298,45.0793324],[-93.0126138,45.0792919],[-93.012677,45.0792615],[-93.01274,45.0792311],[-93.012824,45.0791905],[-93.0129078,45.0791497],[-93.0129914,45.0791087],[-93.0130748,45.0790675],[-93.0131582,45.0790263],[-93.0132416,45.0789851],[-93.013325,45.078944],[-93.0134085,45.078903],[-93.0134921,45.078862],[-93.0135759,45.0788212],[-93.0136598,45.0787805],[-93.0137438,45.0787401],[-93.0138279,45.0786995],[-93.0139115,45.0786583],[-93.013995,45.0786168],[-93.0140788,45.0785756],[-93.0141633,45.0785353],[-93.0142489,45.0784966],[-93.0143361,45.0784601],[-93.0144254,45.0784263],[-93.0145171,45.0783959],[-93.0146107,45.0783682],[-93.0147057,45.0783423],[-93.0148014,45.0783175],[-93.0148734,45.0782991],[-93.0149452,45.0782805],[-93.0150403,45.0782546],[-93.0151355,45.0782285],[-93.0152329,45.0782042],[-93.0153304,45.0781801],[-93.0154261,45.0781541],[-93.0155178,45.0781242],[-93.0156033,45.0780883],[-93.0156828,45.0780443],[-93.0157389,45.0780061],[-93.0157898,45.0779638],[-93.0158488,45.0779033],[-93.0158948,45.0778395],[-93.0159325,45.0777737],[-93.015967,45.0777062],[-93.0159982,45.0776372],[-93.0160261,45.0775672],[-93.016045,45.0775141],[-93.0160617,45.0774607],[-93.0160812,45.0773893],[-93.0160971,45.0773179],[-93.0161094,45.0772468],[-93.0161181,45.0771755],[-93.0161235,45.0771039],[-93.0161262,45.0770321],[-93.0161267,45.0769601],[-93.0161257,45.0768879],[-93.0161237,45.0768156],[-93.0161219,45.0767614],[-93.0161202,45.0767071],[-93.0161182,45.0766348],[-93.0161173,45.0765625],[-93.0161179,45.0764904],[-93.0161205,45.0764184],[-93.0161242,45.0763464],[-93.0161287,45.0762745],[-93.0161339,45.0762026],[-93.0161392,45.0761306],[-93.0161432,45.0760767],[-93.016147,45.0760227],[-93.0161518,45.0759508],[-93.0161555,45.0758789],[-93.0161557,45.0758249],[-93.0161543,45.0757621],[-93.0085457,45.0756963],[-93.0085849,45.0704267],[-93.0085103,45.070438],[-93.008411,45.0704532],[-93.0083116,45.0704683],[-93.0082122,45.0704831],[-93.0081127,45.0704984],[-93.0080382,45.0705112],[-93.0079637,45.0705247],[-93.0078644,45.0705418],[-93.0077647,45.070556],[-93.0076645,45.0705651],[-93.0075638,45.0705681],[-93.0074626,45.0705684],[-93.0073611,45.0705668],[-93.0072595,45.0705636],[-93.0071577,45.070559],[-93.0070814,45.0705547],[-93.0070051,45.0705498],[-93.0069036,45.0705425],[-93.0068023,45.0705344],[-93.0067014,45.0705259],[-93.0066007,45.0705165],[-93.0065003,45.0705057],[-93.0063999,45.0704937],[-93.0062998,45.0704804],[-93.0062001,45.070466],[-93.0061006,45.0704506],[-93.0060016,45.0704342],[-93.005903,45.070417],[-93.0058047,45.0703989],[-93.0057065,45.0703798],[-93.0056087,45.0703595],[-93.0055114,45.0703379],[-93.005415,45.0703147],[-93.0053196,45.0702898],[-93.0052256,45.070263],[-93.0051321,45.0702347],[-93.0050384,45.0702055],[-93.0049451,45.0701751],[-93.0048529,45.0701431],[-93.0047625,45.0701091],[-93.0046747,45.0700727],[-93.0045902,45.0700336],[-93.0045097,45.0699911],[-93.0044338,45.0699445],[-93.0043619,45.0698939],[-93.0042934,45.0698403],[-93.0042274,45.0697846],[-93.0041632,45.0697277],[-93.0041001,45.0696704],[-93.0040378,45.0696134],[-93.0039788,45.0695545],[-93.0039233,45.0694935],[-93.0038695,45.0694315],[-93.0038156,45.0693697],[-93.0037598,45.0693093],[-93.0037004,45.0692514],[-93.0036356,45.0691973],[-93.0035638,45.0691469],[-93.0034853,45.0690997],[-93.003423,45.0690666],[-93.003358,45.0690364],[-93.0032685,45.0690006],[-93.0031769,45.0689709],[-93.0030825,45.0689477],[-93.0029839,45.0689304],[-93.0028824,45.0689183],[-93.0027794,45.0689108],[-93.0026764,45.0689074],[-93.0025749,45.0689073],[-93.0024739,45.0689101],[-93.0023725,45.0689155],[-93.002271,45.0689234],[-93.002195,45.0689307],[-93.0021192,45.0689393],[-93.0020187,45.0689526],[-93.0019191,45.0689676],[-93.0018205,45.0689842],[-93.0017225,45.0690029],[-93.0016248,45.0690237],[-93.0015278,45.0690465],[-93.0014317,45.0690713],[-93.0013368,45.0690978],[-93.0012432,45.0691261],[-93.0011514,45.069156],[-93.0010611,45.0691899],[-93.0009743,45.0692299],[-93.0008947,45.0692759],[-93.0008259,45.0693276],[-93.00077,45.0693862],[-93.0007241,45.0694508],[-93.0006933,45.0695013],[-93.0006635,45.069552],[-93.000624,45.0696185],[-93.0005881,45.0696858],[-93.0005628,45.0697368],[-93.0005377,45.0697879],[-93.0005051,45.0698564],[-93.0004747,45.0699257],[-93.0004345,45.069991],[-93.0003887,45.0700343],[-93.0003299,45.0700688],[-93.0002163,45.0700964],[-93.0001555,45.0701236],[-93.0000933,45.070199],[-93.0000532,45.0702538],[-93.0000154,45.0703015],[-92.99996,45.0703557],[-92.9998936,45.0704033],[-92.9998342,45.0704376],[-92.9997637,45.0704735],[-92.9996416,45.0705311],[-92.9995676,45.0705627],[-92.9994993,45.0705871],[-92.9994105,45.0706107],[-92.9993135,45.0706312],[-92.9992215,45.0706486],[-92.9991472,45.0706613],[-92.9990727,45.0706733],[-92.9989978,45.0706845],[-92.9989228,45.0706952],[-92.9988479,45.0707054],[-92.9987603,45.0707161],[-92.9986845,45.0707225],[-92.9986081,45.0707271],[-92.9985317,45.0707312],[-92.9984209,45.0707391],[-92.998312,45.0707526],[-92.9982145,45.0707713],[-92.998109,45.0707955],[-92.9980044,45.0708223],[-92.9979064,45.0708493],[-92.9978265,45.0708719],[-92.9977555,45.0708921],[-92.9976845,45.0709121],[-92.9976017,45.0709351],[-92.9975311,45.0709555],[-92.9974345,45.0709845],[-92.9973556,45.0710086],[-92.9972854,45.0710298],[-92.9971827,45.07106],[-92.9970793,45.0710886],[-92.9969897,45.0711114],[-92.9969173,45.0711291],[-92.9968444,45.0711467],[-92.9967711,45.0711637],[-92.9966974,45.0711795],[-92.9966234,45.0711935],[-92.9965307,45.0712077],[-92.9964316,45.0712176],[-92.9963224,45.0712156],[-92.9962123,45.0712018],[-92.9961272,45.0711881],[-92.9960302,45.0711734],[-92.9960112,45.0676876],[-92.9963209,45.0676892],[-92.9963155,45.0669029],[-92.9973449,45.0669056],[-92.9973434,45.066322],[-92.9963123,45.0663194],[-92.9963049,45.0647535],[-92.9932645,45.0647707],[-92.9932629,45.0630399],[-92.9948677,45.0629647],[-92.9948509,45.0558371],[-92.9945396,45.0558484],[-92.9945253,45.0590008],[-92.9921079,45.0589717],[-92.9921115,45.0587534],[-92.9917676,45.058698],[-92.991362,45.0586948],[-92.9912762,45.0587828],[-92.9915733,45.058971],[-92.9911772,45.0592504],[-92.9909209,45.0590588],[-92.9905253,45.0588621],[-92.9869748,45.0588815],[-92.9865428,45.0587806],[-92.9864515,45.0587462],[-92.9859685,45.0591164],[-92.9859265,45.0591614],[-92.9856138,45.058978],[-92.9854359,45.0589784],[-92.9852229,45.0596653],[-92.9852343,45.0602354],[-92.984696,45.0602264],[-92.9846943,45.0648219],[-92.9846884,45.0658977],[-92.9846877,45.0660052],[-92.9845201,45.0967452],[-92.984556,45.1009962],[-92.9845036,45.1085104],[-92.9845459,45.1157375],[-92.9844031,45.1236229],[-92.9994062,45.1236712],[-93.000243,45.1237002],[-93.0047946,45.1237418],[-93.020362,45.1237995],[-93.0253546,45.1238202],[-93.0564178,45.1240234]]],[[[-93.0254959,45.072064],[-93.0254717,45.0792749],[-93.0356518,45.0792897],[-93.0357306,45.0792898],[-93.0357624,45.0777731],[-93.0356869,45.0749573],[-93.039711,45.0749374],[-93.0410082,45.0760123],[-93.04104,45.0787586],[-93.0410412,45.0788594],[-93.0440521,45.0766976],[-93.0444936,45.0764018],[-93.0472748,45.0746073],[-93.0476215,45.0743872],[-93.0479359,45.0742104],[-93.0481873,45.0740712],[-93.048454,45.0739432],[-93.0493159,45.0735545],[-93.0497392,45.0733519],[-93.0502417,45.07309],[-93.0505803,45.0728751],[-93.0507936,45.0727188],[-93.0509759,45.0725622],[-93.0514534,45.0720866],[-93.0509137,45.0720836],[-93.0509995,45.0647278],[-93.0499864,45.0647276],[-93.0500162,45.0619746],[-93.0557483,45.0580579],[-93.0554748,45.0577306],[-93.0494078,45.0618019],[-93.0489853,45.0620544],[-93.0486219,45.0622389],[-93.0484047,45.0623418],[-93.0483928,45.0620636],[-93.0458535,45.0628825],[-93.0458549,45.0632854],[-93.0359993,45.0665312],[-93.0356414,45.0666782],[-93.0352853,45.0668378],[-93.0313763,45.0686275],[-93.0309308,45.0687935],[-93.0304921,45.0678618],[-93.0304694,45.0694325],[-93.0300951,45.069549],[-93.0258323,45.0720688],[-93.0254959,45.072064]]],[[[-93.1067272,45.1240793],[-93.1067263,45.1239259],[-93.1066783,45.1156143],[-93.096977,45.1154422],[-93.0969736,45.1189764],[-93.086769,45.1188899],[-93.0867708,45.1240752],[-93.101641,45.1240943],[-93.1067272,45.1240793]]],[[[-93.0255038,45.0696709],[-93.0244877,45.0700876],[-93.0242016,45.0702419],[-93.023993,45.070374],[-93.0218573,45.0720043],[-93.0254959,45.072064],[-93.0255038,45.0696709]]],[[[-93.0481695,45.0865784],[-93.0476009,45.086542],[-93.0472303,45.0865093],[-93.0468991,45.0864553],[-93.0466069,45.0863853],[-93.0462007,45.0862469],[-93.0462027,45.0888131],[-93.0463033,45.0888102],[-93.046881,45.0887049],[-93.0473449,45.0885094],[-93.0477269,45.0882572],[-93.0479994,45.0878979],[-93.0481108,45.0876246],[-93.0481695,45.0865784]]],[[[-93.0359063,45.0368173],[-93.0343458,45.0429839],[-93.0347593,45.0429826],[-93.0365867,45.035762],[-93.036176,45.0357607],[-93.0359063,45.0368173]]]]}}]}