{"type":"FeatureCollection","name":"willernie_border","features":[{"type":"Feature","properties":{"GNIS_FEATURE_ID":2397314,"FEATURE_NAME":"willernie","CTU_CLASS":"CITY","COUNTY_GNIS_FEATURE_ID":659526,"COUNTY_CODE":"82","COUNTY_NAME":"Washington","POPULATION":515,"SE_ANNO_CAD_DATA":null},"geometry":{"type":"Polygon","coordinates":[[[-92.9527437,45.057867],[-92.9549111,45.0578736],[-92.9549152,45.0575765],[-92.9583143,45.0575684],[-92.958317,45.0566079],[-92.9585876,45.0566017],[-92.9585857,45.0562615],[-92.9599919,45.0561922],[-92.9599769,45.0502895],[-92.9547708,45.050295],[-92.9547697,45.0521416],[-92.9543801,45.052138],[-92.9543836,45.0520508],[-92.9541126,45.0520521],[-92.9541124,45.0523039],[-92.9547696,45.0523102],[-92.9547694,45.0525296],[-92.9541123,45.0525233],[-92.954112,45.0530658],[-92.9543021,45.053201],[-92.954769,45.0532024],[-92.9547686,45.053904],[-92.9538071,45.0539036],[-92.9538053,45.0540037],[-92.9541114,45.0540064],[-92.9541113,45.0541608],[-92.9547685,45.0541683],[-92.9547679,45.0551783],[-92.9541108,45.0551931],[-92.9541105,45.0555102],[-92.9541104,45.0556474],[-92.9547675,45.0556339],[-92.9547669,45.056726],[-92.9531033,45.05673],[-92.9530938,45.057005],[-92.9521462,45.0570018],[-92.9521393,45.0575392],[-92.9527524,45.0575306],[-92.9527437,45.057867]],[[-92.9535442,45.0573906],[-92.9535422,45.0571711],[-92.9546119,45.0571747],[-92.9546117,45.0573942],[-92.9535442,45.0573906]]]}}]}