{"type":"FeatureCollection","name":"woodbury_border","features":[{"type":"Feature","properties":{"GNIS_FEATURE_ID":2397369,"FEATURE_NAME":"woodbury","CTU_CLASS":"CITY","COUNTY_GNIS_FEATURE_ID":659526,"COUNTY_CODE":"82","COUNTY_NAME":"Washington","POPULATION":77224,"SE_ANNO_CAD_DATA":null},"geometry":{"type":"Polygon","coordinates":[[[-92.8625148,44.948942],[-92.8632732,44.9489418],[-92.873486,44.9489393],[-92.8799886,44.9488992],[-92.8836565,44.9489374],[-92.8938298,44.9488748],[-92.9029315,44.9488604],[-92.905083,44.948851],[-92.9097585,44.9488631],[-92.9112386,44.9488458],[-92.9134885,44.9488389],[-92.9160839,44.948822],[-92.9201107,44.9488236],[-92.9218856,44.9488298],[-92.9238405,44.9488978],[-92.9254776,44.9489879],[-92.9255225,44.949157],[-92.9297722,44.9491437],[-92.9340221,44.9491302],[-92.9340228,44.9490645],[-92.9341844,44.9490519],[-92.9343006,44.9490428],[-92.9344784,44.9490292],[-92.9346381,44.9490175],[-92.9349855,44.9489922],[-92.9352514,44.9489718],[-92.9353928,44.9489617],[-92.9355483,44.9489488],[-92.9356982,44.9489379],[-92.9359483,44.9489199],[-92.9361207,44.9489185],[-92.9364338,44.9489186],[-92.9400886,44.9489183],[-92.942001,44.9489112],[-92.9438124,44.9489148],[-92.945118,44.9489116],[-92.946007,44.9489067],[-92.9466237,44.9489106],[-92.9486803,44.9489625],[-92.9502613,44.9490302],[-92.9528328,44.9491325],[-92.9541938,44.9491222],[-92.9717526,44.9488585],[-92.9720864,44.9488276],[-92.972234,44.9488153],[-92.9724774,44.9487935],[-92.9725916,44.9487833],[-92.9727154,44.9487721],[-92.9728505,44.9487559],[-92.9729618,44.9487426],[-92.9732082,44.9487132],[-92.973296,44.948701],[-92.9735702,44.9486666],[-92.9738454,44.9486371],[-92.9741985,44.9486043],[-92.9744427,44.9485898],[-92.9745673,44.9485825],[-92.9747756,44.9485726],[-92.9750428,44.9485651],[-92.9817399,44.9484752],[-92.9827597,44.9484669],[-92.9830088,44.9484714],[-92.98321,44.9484854],[-92.9833777,44.9484993],[-92.9835202,44.9485145],[-92.9837187,44.948543],[-92.9838976,44.9485709],[-92.9840961,44.9486106],[-92.9842919,44.9486567],[-92.9845467,44.9487087],[-92.9844418,44.9342283],[-92.9843309,44.9198485],[-92.9841475,44.8945994],[-92.9835597,44.8946035],[-92.9795788,44.8946276],[-92.9794152,44.8892094],[-92.9790237,44.8892137],[-92.9743286,44.8892644],[-92.9743265,44.8891911],[-92.9743245,44.8891265],[-92.9741668,44.8838472],[-92.9743784,44.8838449],[-92.9772648,44.8838144],[-92.9802433,44.8854638],[-92.9802771,44.8864974],[-92.9813266,44.8865032],[-92.9812634,44.8865597],[-92.9812167,44.8866024],[-92.981171,44.8866457],[-92.9811165,44.8867008],[-92.9810653,44.8867576],[-92.9810265,44.8868043],[-92.9809901,44.886852],[-92.9809571,44.8869009],[-92.980922,44.8869633],[-92.9808957,44.8870281],[-92.9808799,44.8870813],[-92.9808654,44.8871349],[-92.9808406,44.8872118],[-92.9808041,44.887285],[-92.9807358,44.8873579],[-92.9806942,44.8874225],[-92.9841202,44.8874268],[-92.9841479,44.8862919],[-92.9840523,44.876507],[-92.9841433,44.8749715],[-92.9840828,44.8619513],[-92.964272,44.8620272],[-92.9489101,44.8619432],[-92.9439048,44.861935],[-92.9248441,44.8619568],[-92.923401,44.8619847],[-92.9033303,44.8619901],[-92.8829282,44.8619961],[-92.8752324,44.861975],[-92.8623356,44.861938],[-92.8621235,44.8619379],[-92.8622549,44.8766146],[-92.8625067,44.89113],[-92.8623518,44.9056149],[-92.8625396,44.9201302],[-92.8625262,44.9346249],[-92.8625148,44.948942]]]}}]}