{"type":"FeatureCollection","name":"woodland_border","features":[{"type":"Feature","properties":{"GNIS_FEATURE_ID":2397370,"FEATURE_NAME":"woodland","CTU_CLASS":"CITY","COUNTY_GNIS_FEATURE_ID":659472,"COUNTY_CODE":"27","COUNTY_NAME":"Hennepin","POPULATION":386,"SE_ANNO_CAD_DATA":null},"geometry":{"type":"Polygon","coordinates":[[[-93.5072715,44.9456091],[-93.5022003,44.9455198],[-93.5020914,44.949124],[-93.5020689,44.9520031],[-93.5023178,44.9521172],[-93.502428,44.9521614],[-93.5025419,44.9521996],[-93.5026856,44.9522402],[-93.5027843,44.9522622],[-93.5028839,44.9522771],[-93.5029832,44.9522819],[-93.5030574,44.9522787],[-93.5031563,44.9522667],[-93.5032307,44.9522539],[-93.5034296,44.9522151],[-93.5035045,44.9522025],[-93.5036297,44.9521892],[-93.5037556,44.952187],[-93.5038569,44.9521908],[-93.5039585,44.9521977],[-93.5042127,44.9522185],[-93.5043394,44.9522252],[-93.5044401,44.9522261],[-93.5045401,44.9522214],[-93.504639,44.9522095],[-93.5047372,44.9521921],[-93.5050059,44.9521332],[-93.505129,44.9521099],[-93.505352,44.9520743],[-93.5059978,44.9519672],[-93.5062217,44.951934],[-93.5064208,44.9519083],[-93.5065702,44.9518923],[-93.5066698,44.9518834],[-93.5067694,44.9518761],[-93.506871,44.9518726],[-93.5069746,44.9518745],[-93.5070527,44.9518795],[-93.5071558,44.9518911],[-93.5072316,44.9519035],[-93.5073051,44.9519192],[-93.5073985,44.9519452],[-93.5074862,44.951977],[-93.5075713,44.9520136],[-93.5076542,44.9520544],[-93.507735,44.9520987],[-93.5078137,44.9521458],[-93.5079095,44.9522075],[-93.5080026,44.9522711],[-93.5081112,44.9523482],[-93.508215,44.9524269],[-93.5082809,44.952482],[-93.5083449,44.9525387],[-93.5085775,44.9527562],[-93.5086884,44.9528549],[-93.5087883,44.9529352],[-93.5088583,44.9529855],[-93.508914,44.9530203],[-93.5089763,44.9530486],[-93.5090462,44.9530695],[-93.509221,44.9531074],[-93.5093054,44.9531298],[-93.5093818,44.9531606],[-93.5094421,44.9531924],[-93.5095177,44.95324],[-93.5096991,44.9533678],[-93.5097749,44.953416],[-93.5100345,44.9535636],[-93.5101973,44.9536523],[-93.5103422,44.953725],[-93.5105014,44.9537913],[-93.5106761,44.953787],[-93.5109421,44.9537941],[-93.5117023,44.9538228],[-93.5118616,44.9538153],[-93.5119526,44.9538423],[-93.5120093,44.9539316],[-93.5121407,44.9540163],[-93.5121981,44.9540755],[-93.5122983,44.9541281],[-93.5123842,44.9541661],[-93.5126478,44.9542756],[-93.5131713,44.9544972],[-93.5133013,44.9545535],[-93.5134292,44.9546118],[-93.5135952,44.9546939],[-93.5137581,44.9547806],[-93.5138771,44.9548489],[-93.5139915,44.9549206],[-93.5140645,44.9549707],[-93.5141341,44.9550227],[-93.5142661,44.9551312],[-93.5144244,44.9552718],[-93.5145767,44.9554163],[-93.5147829,44.9556224],[-93.514941,44.9557855],[-93.5149804,44.9558321],[-93.5150259,44.9558971],[-93.515063,44.9559642],[-93.5150987,44.9560512],[-93.5151161,44.9561235],[-93.5151134,44.956195],[-93.5150918,44.9562828],[-93.5150614,44.9563881],[-93.5150034,44.9565633],[-93.5147948,44.9571229],[-93.5147721,44.9571752],[-93.5147274,44.9572391],[-93.5146495,44.9573097],[-93.5145437,44.9573897],[-93.5143956,44.9574937],[-93.5143236,44.9575462],[-93.514256,44.9576002],[-93.5141813,44.9576708],[-93.5141319,44.9577307],[-93.5140932,44.9577947],[-93.5140704,44.9578452],[-93.5140479,44.9579156],[-93.5140327,44.9579882],[-93.5140233,44.9580621],[-93.5140181,44.9581363],[-93.5140154,44.9582461],[-93.5140198,44.9583351],[-93.5140369,44.9584065],[-93.5140721,44.9584946],[-93.5141079,44.9585627],[-93.5141489,44.9586299],[-93.514198,44.9586996],[-93.5142526,44.9587665],[-93.5142955,44.9588109],[-93.5143823,44.9588534],[-93.5144508,44.9587936],[-93.5144447,44.9587416],[-93.5144268,44.9586865],[-93.5144197,44.9585954],[-93.5144225,44.9585408],[-93.5144423,44.9584711],[-93.5144688,44.9584212],[-93.5145117,44.9583563],[-93.5146076,44.9582282],[-93.5146533,44.9581634],[-93.5146927,44.9580971],[-93.5147271,44.9580293],[-93.5147589,44.9579607],[-93.5148615,44.957718],[-93.5149079,44.9576149],[-93.5149599,44.9575139],[-93.5149993,44.9574481],[-93.5150663,44.9573515],[-93.5151422,44.9572566],[-93.5152269,44.9571652],[-93.5153045,44.957093],[-93.5153879,44.9570255],[-93.5154958,44.9569508],[-93.5156088,44.9568788],[-93.5157263,44.9568094],[-93.5158478,44.9567428],[-93.5159727,44.9566793],[-93.5161005,44.9566194],[-93.5162308,44.9565634],[-93.5163631,44.9565111],[-93.5165431,44.956445],[-93.5167268,44.9563826],[-93.5169137,44.9563241],[-93.5171028,44.9562695],[-93.5172937,44.9562192],[-93.5174855,44.9561732],[-93.5176299,44.9561424],[-93.5177533,44.9561259],[-93.5178793,44.9561167],[-93.5182095,44.9561059],[-93.5182813,44.9561072],[-93.5185285,44.956148],[-93.519099,44.9562381],[-93.5193459,44.9562795],[-93.5196399,44.9563343],[-93.5197856,44.9563645],[-93.5198941,44.9563888],[-93.5200728,44.9564338],[-93.5202489,44.9564844],[-93.5204347,44.9565427],[-93.5209202,44.9567006],[-93.5210835,44.95675],[-93.521225,44.9567891],[-93.5212968,44.9568065],[-93.5213954,44.9568242],[-93.5216476,44.9568564],[-93.5217344,44.9568692],[-93.5218332,44.9568898],[-93.5219216,44.9569253],[-93.5220288,44.9569984],[-93.5222338,44.9571044],[-93.5226416,44.9573053],[-93.5227312,44.9573477],[-93.5228858,44.9574349],[-93.5229665,44.9574677],[-93.5230335,44.9574349],[-93.5230537,44.9573718],[-93.5230366,44.9573107],[-93.5229976,44.9572615],[-93.5229445,44.9572224],[-93.5228454,44.9571677],[-93.5226316,44.9570682],[-93.5224416,44.9569773],[-93.5219889,44.9567722],[-93.5218632,44.956711],[-93.5217417,44.9566469],[-93.5216256,44.9565788],[-93.5215343,44.9565182],[-93.5214486,44.9564532],[-93.5213531,44.9563693],[-93.521264,44.9562807],[-93.5211661,44.9561737],[-93.5209579,44.9559261],[-93.5209498,44.9558453],[-93.5209244,44.9557663],[-93.5208578,44.955592],[-93.5208342,44.955522],[-93.520809,44.9554154],[-93.5208035,44.9553605],[-93.5208096,44.9553064],[-93.5208744,44.9551522],[-93.5209233,44.9550496],[-93.5209755,44.9549475],[-93.5210219,44.9548631],[-93.5210714,44.9547797],[-93.5211135,44.9547139],[-93.521158,44.9546493],[-93.5212295,44.9545544],[-93.5213684,44.9543825],[-93.5215158,44.9542132],[-93.5216432,44.9540776],[-93.5217768,44.9539456],[-93.521901,44.953832],[-93.5219651,44.9537767],[-93.522031,44.9537227],[-93.5221001,44.9536707],[-93.5221721,44.9536205],[-93.5222466,44.9535718],[-93.5223231,44.9535243],[-93.5224208,44.9534663],[-93.5225834,44.9533769],[-93.5229348,44.95317],[-93.5230953,44.953081],[-93.5234607,44.9528843],[-93.5236397,44.9527835],[-93.5237933,44.9526902],[-93.5238675,44.9526418],[-93.5239395,44.9525919],[-93.5240089,44.95254],[-93.5241078,44.9524584],[-93.5241861,44.9523874],[-93.524276,44.9522995],[-93.5243902,44.9521792],[-93.5245805,44.9519661],[-93.5246209,44.9519007],[-93.5246754,44.9517606],[-93.5246934,44.9516996],[-93.5247179,44.9516271],[-93.5247177,44.9515744],[-93.5246632,44.9514563],[-93.5246154,44.9513728],[-93.5245639,44.9512896],[-93.5244142,44.9510572],[-93.5243738,44.9509905],[-93.5243361,44.9509236],[-93.524302,44.9508562],[-93.5242722,44.9507884],[-93.5242443,44.9507027],[-93.524238,44.9506326],[-93.5242423,44.9505791],[-93.5242523,44.950525],[-93.524287,44.9503795],[-93.5242982,44.950307],[-93.5243021,44.9501443],[-93.5243022,44.9500351],[-93.5242967,44.9499264],[-93.5242846,44.949837],[-93.5242637,44.949749],[-93.5242259,44.9496456],[-93.5241955,44.9495772],[-93.5241703,44.9495263],[-93.5241054,44.9494085],[-93.5240239,44.9492754],[-93.5238966,44.9490782],[-93.5238408,44.9489974],[-93.523782,44.9489176],[-93.5235734,44.9486488],[-93.5235017,44.9485534],[-93.5234121,44.9484244],[-93.5233518,44.9483257],[-93.5232988,44.9482248],[-93.5232519,44.9481221],[-93.5232092,44.9480182],[-93.5231008,44.9477395],[-93.5230407,44.9476019],[-93.5229893,44.9475006],[-93.522914,44.9473656],[-93.5228643,44.9472806],[-93.5227996,44.9471805],[-93.5227645,44.9471318],[-93.5227271,44.9470845],[-93.5226588,44.9470096],[-93.5225824,44.9469403],[-93.5225143,44.9468893],[-93.522441,44.9468408],[-93.522363,44.9467947],[-93.5222602,44.9467405],[-93.5221526,44.9466898],[-93.5220416,44.9466426],[-93.5219286,44.9465986],[-93.5217922,44.9465499],[-93.5217009,44.9465193],[-93.5215625,44.9464755],[-93.5213048,44.9464003],[-93.5210435,44.9463297],[-93.5204942,44.9461862],[-93.5202338,44.9461147],[-93.5200004,44.9460453],[-93.51984,44.9459927],[-93.5197299,44.9459475],[-93.5196455,44.9459059],[-93.5195444,44.9458496],[-93.5194477,44.945791],[-93.5193938,44.9457551],[-93.5193664,44.9457061],[-93.5072715,44.9456091]]]}}]}